Name,Description,styleUrl,Power,ChargeCoreDescription,Address,Latitude,Longitude,Provider,Coordinates
PT เขาย้อย 1,Power: 60 kW<br>Description: 2x CCS2 60 kW<br>Address: 95 หมู่ที่2 ตำบลห้วยโรง อำเภอเขาย้อย จังหวัดเพชรบุรี 76140<br>Latitude: 13.314691<br>Longitude: 99.827081<br>Provider: EleX,#icon-1899-DB4436-labelson,60 kW,2x CCS2 60 kW,95 หมู่ที่2 ตำบลห้วยโรง อำเภอเขาย้อย จังหวัดเพชรบุรี 76140,13.314691,99.827081,EleX,"
            99.827081,13.314691,0
          "
PT บ้านใต้,Power: 60 kW<br>Description: 2x CCS2 60 kW<br>Address: 144 ถนนแสงชูโต ตำบลบ้านใต้ อำเภอเมืองกาญจนบุรี จังหวัดกาญจนบุรี 71000<br>Latitude: 14.016689<br>Longitude: 99.534364<br>Provider: EleX,#icon-1899-DB4436-labelson,60 kW,2x CCS2 60 kW,144 ถนนแสงชูโต ตำบลบ้านใต้ อำเภอเมืองกาญจนบุรี จังหวัดกาญจนบุรี 71000,14.016689,99.534364,EleX,"
            99.534364,14.016689,0
          "
PT พยุหะคีรี 2,Power: 60 kW<br>Description: 2x CCS2 60 kW<br>Address: 75 หมู่ที่8 ตำบลม่วงหัก อำเภอพยุหะคีรี จังหวัดนครสวรรค์ 60130  <br>Latitude: 15.397363<br>Longitude: 100.147765<br>Provider: EleX,#icon-1899-DB4436-labelson,60 kW,2x CCS2 60 kW,75 หมู่ที่8 ตำบลม่วงหัก อำเภอพยุหะคีรี จังหวัดนครสวรรค์ 60130  ,15.397363,100.147765,EleX,"
            100.147765,15.397363,0
          "
PT ปากช่อง 3,Power: 60 kW<br>Description: 2x CCS2 60 kW<br>Address: 172/7 หมู่ที่7 ตำบลหนองน้ำแดง อำเภอปากช่อง จังหวัดนครราชสีมา 30130<br>Latitude: 14.658708<br>Longitude: 101.385312<br>Provider: EleX,#icon-1899-DB4436-labelson,60 kW,2x CCS2 60 kW,172/7 หมู่ที่7 ตำบลหนองน้ำแดง อำเภอปากช่อง จังหวัดนครราชสีมา 30130,14.658708,101.385312,EleX,"
            101.385312,14.658708,0
          "
PT บางพระ,Power: 60 kW<br>Description: 2x CCS2 60 kW<br>Address: 641/3 ถนนสุขุมวิท ตำบลเหมือง อำเภอเมืองชลบุรี จังหวัดชลบุรี 20130<br>Latitude: 13.247961<br>Longitude: 100.934508<br>Provider: EleX,#icon-1899-DB4436-labelson,60 kW,2x CCS2 60 kW,641/3 ถนนสุขุมวิท ตำบลเหมือง อำเภอเมืองชลบุรี จังหวัดชลบุรี 20130,13.247961,100.934508,EleX,"
            100.934508,13.247961,0
          "
ตึกผู้ว่าการฯ สำนักงานกลาง กฟผ.,"Power: 50 kW<br>Description: CCS2 50 kW, CHAdeMO 50 kW, Type2 22 kW<br>Address: 53 หมู่ 2 ถ.จรัญสนิทวงศ์ ต.บางกรวย อ.บางกรวย จ.นนทบุรี 11130<br>Latitude: 13.810481<br>Longitude: 100.506343<br>Provider: EleX",#icon-1899-DB4436-labelson,50 kW,"CCS2 50 kW, CHAdeMO 50 kW, Type2 22 kW",53 หมู่ 2 ถ.จรัญสนิทวงศ์ ต.บางกรวย อ.บางกรวย จ.นนทบุรี 11130,13.810481,100.506343,EleX,"
            100.506343,13.810481,0
          "
ศูนย์การเรียนรู้ กฟผ. สำนักงานกลาง,"Power: 90 kW<br>Description: CCS2 50 kW, CHAdeMO 50 kW, Type2 22 kW<br>CCS2 90 kW<br>Address: 53 หมู่ 2 ถ.จรัญสนิทวงศ์ ต.บางกรวย อ.บางกรวย จ.นนทบุรี 11130<br>Latitude: 13.812466<br>Longitude: 100.511692<br>Provider: EleX",#icon-1899-DB4436-labelson,90 kW,"CCS2 50 kW, CHAdeMO 50 kW, Type2 22 kW
CCS2 90 kW",53 หมู่ 2 ถ.จรัญสนิทวงศ์ ต.บางกรวย อ.บางกรวย จ.นนทบุรี 11130,13.812466,100.511692,EleX,"
            100.511692,13.812466,0
          "
โรงไฟฟ้าจะนะ,Power: 90 kW<br>Description: CCS2 90 kW<br>Address: 124/5 ม.1 ต.ป่าชิง อ.จะนะ จ.สงขลา<br>Latitude: 6.949722<br>Longitude: 100.696976<br>Provider: EleX,#icon-1899-DB4436-labelson,90 kW,CCS2 90 kW,124/5 ม.1 ต.ป่าชิง อ.จะนะ จ.สงขลา,6.949722,100.696976,EleX,"
            100.696976,6.949722,0
          "
โรงไฟฟ้าวังน้อย,Power: 120 kW<br>Description: CCS2 90 kW<br>2x CCS2 120 kW (200A)<br>Address: 32 หมู่ 4 ตำบลวังจุฬา อำเภอวังน้อย จังหวัดพระนครศรีอยุธยา<br>Latitude: 14.236698<br>Longitude: 100.777578<br>Provider: EleX,#icon-1899-DB4436-labelson,120 kW,"CCS2 90 kW
2x CCS2 120 kW (200A)",32 หมู่ 4 ตำบลวังจุฬา อำเภอวังน้อย จังหวัดพระนครศรีอยุธยา,14.236698,100.777578,EleX,"
            100.777578,14.236698,0
          "
โรงไฟฟ้าบางปะกง,Power: 90 kW<br>Description: CCS2 90 kW<br>Address: เลขที่4 หมู่6 ต.ท่าข้าม อ.บางปะกง จ.ฉะเชิงเทรา 24130<br>Latitude: 13.495069<br>Longitude: 101.023054<br>Provider: EleX,#icon-1899-DB4436-labelson,90 kW,CCS2 90 kW,เลขที่4 หมู่6 ต.ท่าข้าม อ.บางปะกง จ.ฉะเชิงเทรา 24130,13.495069,101.023054,EleX,"
            101.023054,13.495069,0
          "
โรงไฟฟ้าลำตะคองฯ,"Power: 90 kW<br>Description: CCS2 90 kW<br>Address: 399 หมู่ที่ 12, ถนนมิตรภาพ, ตำบลหนองสาหร่าย อำเภอปากช่อง จังหวัดนครราชสีมา, 30130<br>Latitude: 14.812254<br>Longitude: 101.539209<br>Provider: EleX",#icon-1899-DB4436-labelson,90 kW,CCS2 90 kW,"399 หมู่ที่ 12, ถนนมิตรภาพ, ตำบลหนองสาหร่าย อำเภอปากช่อง จังหวัดนครราชสีมา, 30130",14.812254,101.539209,EleX,"
            101.539209,14.812254,0
          "
โรงไฟฟ้าน้ำพอง,Power: 90 kW<br>Description: CCS2 90 kW<br>Address: 262 หมู่ที่ 1 ต.กุดน้ำใส อ.น้ำพอง จ.ขอนแก่น<br>Latitude: 16.679187<br>Longitude: 102.737605<br>Provider: EleX,#icon-1899-DB4436-labelson,90 kW,CCS2 90 kW,262 หมู่ที่ 1 ต.กุดน้ำใส อ.น้ำพอง จ.ขอนแก่น,16.679187,102.737605,EleX,"
            102.737605,16.679187,0
          "
โรงไฟฟ้าเขื่อนสิรินธร,Power: 90 kW<br>Description: CCS2 90 kW<br>Address: 30 หมู่ 11 ต.นิคมลำโดมน้อย อ.สิรินธร จ.อุบลราชธานี<br>Latitude: 15.200882<br>Longitude: 105.426253<br>Provider: EleX,#icon-1899-DB4436-labelson,90 kW,CCS2 90 kW,30 หมู่ 11 ต.นิคมลำโดมน้อย อ.สิรินธร จ.อุบลราชธานี,15.200882,105.426253,EleX,"
            105.426253,15.200882,0
          "
โรงไฟฟ้าแม่เมาะ,Power: 90 kW<br>Description: CCS2 90 kW<br>CCS2 90 kW<br>Address: 800 หมู่ 6 ต.แม่เมาะ อ.แม่เมาะ จ.ลำปาง<br>Latitude: 18.300175<br>Longitude: 99.746251<br>Provider: EleX,#icon-1899-DB4436-labelson,90 kW,"CCS2 90 kW
CCS2 90 kW",800 หมู่ 6 ต.แม่เมาะ อ.แม่เมาะ จ.ลำปาง,18.300175,99.746251,EleX,"
            99.746251,18.300175,0
          "
ERDI-CMU สถาบันฯ พลังงาน มช.,"Power: 50 kW<br>Description: CCS2 50 kW, CHAdeMO 50 kW, Type2 22 kW<br>Address: 155 ม.2 ต.แม่เหียะ อ.เมือง จ.เชียงใหม่ 50100  <br>Latitude: 18.757285<br>Longitude: 98.939909<br>Provider: EleX",#icon-1899-DB4436-labelson,50 kW,"CCS2 50 kW, CHAdeMO 50 kW, Type2 22 kW",155 ม.2 ต.แม่เหียะ อ.เมือง จ.เชียงใหม่ 50100  ,18.757285,98.939909,EleX,"
            98.939909,18.757285,0
          "
โรงพยาบาลกรุงเทพ พัทยา,"Power: 100 kW<br>Description: CCS2 100 kW, CHAdeMO 100 kW<br>Type2 22 kW<br>Type2 22 kW<br>Address: 301 หมู่ที่ 6 ถ. สุขุมวิท เมืองพัทยา อำเภอบางละมุง ชลบุรี 20150<br>Latitude: 12.953918<br>Longitude: 100.905935<br>Provider: EleX",#icon-1899-DB4436-labelson,100 kW,"CCS2 100 kW, CHAdeMO 100 kW
Type2 22 kW
Type2 22 kW",301 หมู่ที่ 6 ถ. สุขุมวิท เมืองพัทยา อำเภอบางละมุง ชลบุรี 20150,12.953918,100.905935,EleX,"
            100.905935,12.953918,0
          "
มาร์เก็ตวิลเลจ หัวหิน,"Power: 125 kW<br>Description: 2x CCS2 125 kW (300A), Type2 22 kW<br>Address: ศูนย์การค้ามาร์เก็ตวิลเลจ หัวหิน (HMV) 234/1 ถ. เพชรเกษม ตำบลหัวหิน อำเภอหัวหิน ประจวบคีรีขันธ์ 77110<br>Latitude: 12.558122<br>Longitude: 99.960226<br>Provider: EleX",#icon-1899-DB4436-labelson,125 kW,"2x CCS2 125 kW (300A), Type2 22 kW",ศูนย์การค้ามาร์เก็ตวิลเลจ หัวหิน (HMV) 234/1 ถ. เพชรเกษม ตำบลหัวหิน อำเภอหัวหิน ประจวบคีรีขันธ์ 77110,12.558122,99.960226,EleX,"
            99.960226,12.558122,0
          "
Midwinter เขาใหญ่,"Power: 125 kW<br>Description: 2x CCS2 125 kW (300A), Type2 22 kW<br>Address: 88 88 หมู่ที่ 10 Thanaratch Rd, Nong Nam Daeng, Pak Chong District, Nakhon Ratchasima 30130<br>Latitude: 14.61726<br>Longitude: 101.406591<br>Provider: EleX",#icon-1899-DB4436-labelson,125 kW,"2x CCS2 125 kW (300A), Type2 22 kW","88 88 หมู่ที่ 10 Thanaratch Rd, Nong Nam Daeng, Pak Chong District, Nakhon Ratchasima 30130",14.61726,101.406591,EleX,"
            101.406591,14.61726,0
          "
PT นางรอง,Power: 125 kW<br>Description: 2x CCS2 125 kW (300A)<br>Address: 244/2 ถนนโชคชัย-เดชอุดม ตำบลนางรอง อำเภอนางรอง จังหวัดบุรีรัมย์ 31110<br>Latitude: 14.633484<br>Longitude: 102.798905<br>Provider: EleX,#icon-1899-DB4436-labelson,125 kW,2x CCS2 125 kW (300A),244/2 ถนนโชคชัย-เดชอุดม ตำบลนางรอง อำเภอนางรอง จังหวัดบุรีรัมย์ 31110,14.633484,102.798905,EleX,"
            102.798905,14.633484,0
          "
PT ตาก,Power: 125 kW<br>Description: 2x CCS2 125 kW (300A)<br>Address: 112 หมู่ที่1 ตำบลแม่ท้อ อำเภอเมืองตาก จังหวัดตาก 63000<br>Latitude: 16.852771<br>Longitude: 99.116337<br>Provider: EleX,#icon-1899-DB4436-labelson,125 kW,2x CCS2 125 kW (300A),112 หมู่ที่1 ตำบลแม่ท้อ อำเภอเมืองตาก จังหวัดตาก 63000,16.852771,99.116337,EleX,"
            99.116337,16.852771,0
          "
PT วังน้อย 5,Power: 125 kW<br>Description: 2x CCS2 125 kW (300A)<br>Address: 237 หมู่ที่2 ตำบลชะแมบ อำเภอวังน้อย จังหวัดพระนครศรีอยุธยา 13170<br>Latitude: 14.260597<br>Longitude: 100.775009<br>Provider: EleX,#icon-1899-DB4436-labelson,125 kW,2x CCS2 125 kW (300A),237 หมู่ที่2 ตำบลชะแมบ อำเภอวังน้อย จังหวัดพระนครศรีอยุธยา 13170,14.260597,100.775009,EleX,"
            100.775009,14.260597,0
          "
PT เชียงใหม่ 8,Power: 125 kW<br>Description: 2x CCS2 125 kW (300A)<br>Address: 100/20 หมู่ที่1 ตำบลป่าแดด อำเภอเมืองเชียงใหม่ จังหวัดเชียงใหม่ 50100<br>Latitude: 18.766139<br>Longitude: 98.975967<br>Provider: EleX,#icon-1899-DB4436-labelson,125 kW,2x CCS2 125 kW (300A),100/20 หมู่ที่1 ตำบลป่าแดด อำเภอเมืองเชียงใหม่ จังหวัดเชียงใหม่ 50100,18.766139,98.975967,EleX,"
            98.975967,18.766139,0
          "
PT เถิน,Power: 125 kW<br>Description: 2x CCS2 125 kW (300A)<br>Address: 123 หมู่ที่12 ตำบลล้อมแรด อำเภอเถิน จังหวัดลำปาง  52160<br>Latitude: 17.622911<br>Longitude: 99.23707<br>Provider: EleX,#icon-1899-DB4436-labelson,125 kW,2x CCS2 125 kW (300A),123 หมู่ที่12 ตำบลล้อมแรด อำเภอเถิน จังหวัดลำปาง  52160,17.622911,99.23707,EleX,"
            99.23707,17.622911,0
          "
PT ลำปาง,Power: 125 kW<br>Description: 2x CCS2 125 kW (300A)<br>Address: 102 หมู่ที่10 ตำบลปงแสนทอง อำเภอเมืองลำปาง จังหวัดลำปาง 52100<br>Latitude: 18.295663<br>Longitude: 99.415306<br>Provider: EleX,#icon-1899-DB4436-labelson,125 kW,2x CCS2 125 kW (300A),102 หมู่ที่10 ตำบลปงแสนทอง อำเภอเมืองลำปาง จังหวัดลำปาง 52100,18.295663,99.415306,EleX,"
            99.415306,18.295663,0
          "
PT ท่าใหม่ 5,Power: 125 kW<br>Description: 2x CCS2 125 kW (300A)<br>Address: 34/1 หมู่ที่6 ตำบลเขาบายศรี อำเภอท่าใหม่ จังหวัดจันทบุรี 22120<br>Latitude: 12.649677<br>Longitude: 102.030855<br>Provider: EleX,#icon-1899-DB4436-labelson,125 kW,2x CCS2 125 kW (300A),34/1 หมู่ที่6 ตำบลเขาบายศรี อำเภอท่าใหม่ จังหวัดจันทบุรี 22120,12.649677,102.030855,EleX,"
            102.030855,12.649677,0
          "
PT เลี่ยงเมืองเชียงราย1,Power: 125 kW<br>Description: 2x CCS2 125 kW (300A)<br>Address: 352 หมู่ที่1 ตำบลท่าสาย อำเภอเมืองเชียงราย จังหวัดเชียงราย 57000<br>Latitude: 19.874148<br>Longitude: 99.847052<br>Provider: EleX,#icon-1899-DB4436-labelson,125 kW,2x CCS2 125 kW (300A),352 หมู่ที่1 ตำบลท่าสาย อำเภอเมืองเชียงราย จังหวัดเชียงราย 57000,19.874148,99.847052,EleX,"
            99.847052,19.874148,0
          "
PT บรมราชชนนี 2,Power: 125 kW<br>Description: 2x CCS2 125 kW (300A)<br>2x CCS2 60 kW<br>Address: ทวีวัฒนา กรุงเทพมหานคร<br>Latitude: 13.78906<br>Longitude: 100.342273<br>Provider: EleX,#icon-1899-DB4436-labelson,125 kW,"2x CCS2 125 kW (300A)
2x CCS2 60 kW",ทวีวัฒนา กรุงเทพมหานคร,13.78906,100.342273,EleX,"
            100.342273,13.78906,0
          "
PT อุดรนาดี,Power: 125 kW<br>Description: 2x CCS2 125 kW (300A)<br>Address: 63/21 หมู่ที่4 ซอยบ้านโพนบก ตำบลหมากแข้ง อำเภอเมืองอุดรธานี จังหวัดอุดรธานี 41000<br>Latitude: 17.382271<br>Longitude: 102.753264<br>Provider: EleX,#icon-1899-DB4436-labelson,125 kW,2x CCS2 125 kW (300A),63/21 หมู่ที่4 ซอยบ้านโพนบก ตำบลหมากแข้ง อำเภอเมืองอุดรธานี จังหวัดอุดรธานี 41000,17.382271,102.753264,EleX,"
            102.753264,17.382271,0
          "
PT หาดใหญ่ 7,Power: 125 kW<br>Description: 2x CCS2 125 kW (300A)<br>Address: 491 ถนนราษฎร์อุทิศ ตำบลหาดใหญ่ อำเภอหาดใหญ่ จังหวัดสงขลา 90110<br>Latitude: 7.012334<br>Longitude: 100.457034<br>Provider: EleX,#icon-1899-DB4436-labelson,125 kW,2x CCS2 125 kW (300A),491 ถนนราษฎร์อุทิศ ตำบลหาดใหญ่ อำเภอหาดใหญ่ จังหวัดสงขลา 90110,7.012334,100.457034,EleX,"
            100.457034,7.012334,0
          "
PT บ้านไผ่ 4,Power: 125 kW<br>Description: 2x CCS2 125 kW (300A)<br>Address: 196 หมู่ที่1 ตำบลบ้านไผ่ อำเภอบ้านไผ่ จังหวัดขอนแก่น 40110<br>Latitude: 16.096594<br>Longitude: 102.732042<br>Provider: EleX,#icon-1899-DB4436-labelson,125 kW,2x CCS2 125 kW (300A),196 หมู่ที่1 ตำบลบ้านไผ่ อำเภอบ้านไผ่ จังหวัดขอนแก่น 40110,16.096594,102.732042,EleX,"
            102.732042,16.096594,0
          "
PT บางสะพานน้อย,Power: 125 kW<br>Description: 2x CCS2 125 kW (300A)<br>Address: 323/1 หมู่ที่3 ตำบลช้างแรก อำเภอบางสะพานน้อย จังหวัดประจวบคีรีขันธ์ 77170<br>Latitude: 11.083353<br>Longitude: 99.369784<br>Provider: EleX,#icon-1899-DB4436-labelson,125 kW,2x CCS2 125 kW (300A),323/1 หมู่ที่3 ตำบลช้างแรก อำเภอบางสะพานน้อย จังหวัดประจวบคีรีขันธ์ 77170,11.083353,99.369784,EleX,"
            99.369784,11.083353,0
          "
SCG Ceramics นิคมอุตสาหกรรมหนองแค,"Power: 100 kW<br>Description: CCS2 100 kW, CHAdeMO 100 kW, Type2 22 kW<br>Address: จ.สระบุรี<br>Latitude: 14.384686<br>Longitude: 100.892841<br>Provider: EleX",#icon-1899-DB4436-labelson,100 kW,"CCS2 100 kW, CHAdeMO 100 kW, Type2 22 kW",จ.สระบุรี,14.384686,100.892841,EleX,"
            100.892841,14.384686,0
          "
กระทรวงพลังงาน,"Power: 50 kW<br>Description: CCS2 50 kW, CHAdeMO 50 kW, Type2 22 kW<br>Type2 7 kW<br>Address: 555/2 วิภาวดีรังสิต แขวงจตุจักร เขตจตุจักร กรุงเทพมหานคร 10900 ประเทศไทย<br>Latitude: 13.820229<br>Longitude: 100.556165<br>Provider: EleX",#icon-1899-DB4436-labelson,50 kW,"CCS2 50 kW, CHAdeMO 50 kW, Type2 22 kW
Type2 7 kW",555/2 วิภาวดีรังสิต แขวงจตุจักร เขตจตุจักร กรุงเทพมหานคร 10900 ประเทศไทย,13.820229,100.556165,EleX,"
            100.556165,13.820229,0
          "
ChargeROD @Petchburi เพชรบุรี,"Power: 40 kW<br>Description: CCS2 40 kW, CHAdeMO 40 kW<br>Address: 69 หมู่ที่ 3 ถนนเพชรเกษม ตำบลท่ายาง อำเภอท่ายาง จังหวัดเพชรบุรี 76130<br>Latitude: 12.996078<br>Longitude: 99.907895<br>Provider: EleX",#icon-1899-DB4436-labelson,40 kW,"CCS2 40 kW, CHAdeMO 40 kW",69 หมู่ที่ 3 ถนนเพชรเกษม ตำบลท่ายาง อำเภอท่ายาง จังหวัดเพชรบุรี 76130,12.996078,99.907895,EleX,"
            99.907895,12.996078,0
          "
PT ชะอำ 3,Power: 125 kW<br>Description: 2x CCS2 125 kW (300A)<br>Address: 350 หมู่ที่3 ตำบลดอนขุนห้วย อำเภอชะอำ จังหวัดเพชรบุรี 76120<br>Latitude: 12.885081<br>Longitude: 99.911295<br>Provider: EleX,#icon-1899-DB4436-labelson,125 kW,2x CCS2 125 kW (300A),350 หมู่ที่3 ตำบลดอนขุนห้วย อำเภอชะอำ จังหวัดเพชรบุรี 76120,12.885081,99.911295,EleX,"
            99.911295,12.885081,0
          "
PT ห้วยบง 3,Power: 125 kW<br>Description: 2x CCS2 125 kW (300A)<br>Address: 29/9 หมู่ที่9 ตำบลห้วยบง อำเภอเฉลิมพระเกียรติ จังหวัดสระบุรี 18240<br>Latitude: 14.62764<br>Longitude: 100.89051<br>Provider: EleX,#icon-1899-DB4436-labelson,125 kW,2x CCS2 125 kW (300A),29/9 หมู่ที่9 ตำบลห้วยบง อำเภอเฉลิมพระเกียรติ จังหวัดสระบุรี 18240,14.62764,100.89051,EleX,"
            100.89051,14.62764,0
          "
PT พิษณุโลก 4,"Power: 125 kW<br>Description: 2x CCS2 125 kW (300A)<br>Address: 166/8,166/9 หมู่ที่7 ถนนรัชดาภิเษก ตำบลท่าโพธิ์ อำเภอเมืองพิษณุโลก จังหวัดพิษณุโลก 65000<br>Latitude: 16.758976<br>Longitude: 100.189809<br>Provider: EleX",#icon-1899-DB4436-labelson,125 kW,2x CCS2 125 kW (300A),"166/8,166/9 หมู่ที่7 ถนนรัชดาภิเษก ตำบลท่าโพธิ์ อำเภอเมืองพิษณุโลก จังหวัดพิษณุโลก 65000",16.758976,100.189809,EleX,"
            100.189809,16.758976,0
          "
PT นครราชสีมา 11,Power: 125 kW<br>Description: 2x CCS2 125 kW (300A)<br>Address: 221 หมู่ที่2 ตำบลหนองจะบก อำเภอเมือง จังหวัดนครราชสีมา 30000<br>Latitude: 15.01016<br>Longitude: 102.06107<br>Provider: EleX,#icon-1899-DB4436-labelson,125 kW,2x CCS2 125 kW (300A),221 หมู่ที่2 ตำบลหนองจะบก อำเภอเมือง จังหวัดนครราชสีมา 30000,15.01016,102.06107,EleX,"
            102.06107,15.01016,0
          "
PT วิเชียรบุรี 2,Power: 125 kW<br>Description: 2x CCS2 125 kW (300A)<br>Address: 163 หมู่ที่7 ตำบลสระประดู่ อำเภอวิเชียรบุรี จังหวัดเพชรบูรณ์ 67130<br>Latitude: 15.59928<br>Longitude: 101.06445<br>Provider: EleX,#icon-1899-DB4436-labelson,125 kW,2x CCS2 125 kW (300A),163 หมู่ที่7 ตำบลสระประดู่ อำเภอวิเชียรบุรี จังหวัดเพชรบูรณ์ 67130,15.59928,101.06445,EleX,"
            101.06445,15.59928,0
          "
PT บ้านบึง 7,Power: 125 kW<br>Description: 2x CCS2 125 kW (300A)<br>Address: 19/24 หมู่ 5 ตำบล บ้านบึง อำเภอบ้านบึง ชลบุรี ประเทศไทย ชลบุรี<br>Latitude: 13.302263<br>Longitude: 101.140109<br>Provider: EleX,#icon-1899-DB4436-labelson,125 kW,2x CCS2 125 kW (300A),19/24 หมู่ 5 ตำบล บ้านบึง อำเภอบ้านบึง ชลบุรี ประเทศไทย ชลบุรี,13.302263,101.140109,EleX,"
            101.140109,13.302263,0
          "
PT กบินทร์บุรี 8,Power: 125 kW<br>Description: 2x CCS2 125 kW (300A)<br>Address: 198 หมู่ที่5 ตำบลเมืองเก่า อำเภอกบินทร์บุรี จังหวัดปราจีนบุรี<br>Latitude: 14.02291<br>Longitude: 101.78282<br>Provider: EleX,#icon-1899-DB4436-labelson,125 kW,2x CCS2 125 kW (300A),198 หมู่ที่5 ตำบลเมืองเก่า อำเภอกบินทร์บุรี จังหวัดปราจีนบุรี,14.02291,101.78282,EleX,"
            101.78282,14.02291,0
          "
PT ไชโย 2,Power: 125 kW<br>Description: 2x CCS2 125 kW (300A)<br>Address: 97 หมู่ที่3 ตำบลหลักฟ้า อำเภอไชโย จังหวัดอ่างทอง 14140<br>Latitude: 14.681287<br>Longitude: 100.466169<br>Provider: EleX,#icon-1899-DB4436-labelson,125 kW,2x CCS2 125 kW (300A),97 หมู่ที่3 ตำบลหลักฟ้า อำเภอไชโย จังหวัดอ่างทอง 14140,14.681287,100.466169,EleX,"
            100.466169,14.681287,0
          "
PT นิคมพัฒนา2,Power: 125 kW<br>Description: 2x CCS2 125 kW (300A)<br>Address: 521 หมู่ที่5 ตำบลมะขามคู่ อำเภอนิคมพัฒนา จังหวัดระยอง 21180<br>Latitude: 12.85576<br>Longitude: 101.09367<br>Provider: EleX,#icon-1899-DB4436-labelson,125 kW,2x CCS2 125 kW (300A),521 หมู่ที่5 ตำบลมะขามคู่ อำเภอนิคมพัฒนา จังหวัดระยอง 21180,12.85576,101.09367,EleX,"
            101.09367,12.85576,0
          "
PT ตรัง 2,Power: 125 kW<br>Description: 2x CCS2 125 kW (300A)<br>Address: 358/1 ถนนห้วยยอด ตำบลทับเที่ยง อำเภอเมืองตรัง จังหวัดตรัง 92000<br>Latitude: 7.572816<br>Longitude: 99.605668<br>Provider: EleX,#icon-1899-DB4436-labelson,125 kW,2x CCS2 125 kW (300A),358/1 ถนนห้วยยอด ตำบลทับเที่ยง อำเภอเมืองตรัง จังหวัดตรัง 92000,7.572816,99.605668,EleX,"
            99.605668,7.572816,0
          "
PT พัทลุง 2,Power: 125 kW<br>Description: 2x CCS2 125 kW (300A)<br>Address: 173 หมู่ที่7 ตำบลท่าแค อำเภอเมืองพัทลุง จังหวัดพัทลุง 93000<br>Latitude: 7.557634<br>Longitude: 100.04671<br>Provider: EleX,#icon-1899-DB4436-labelson,125 kW,2x CCS2 125 kW (300A),173 หมู่ที่7 ตำบลท่าแค อำเภอเมืองพัทลุง จังหวัดพัทลุง 93000,7.557634,100.04671,EleX,"
            100.04671,7.557634,0
          "
PT วารินชำราบ 6,Power: 125 kW<br>Description: 2x CCS2 125 kW (300A)<br>Address: 229 หมุ่ที่9 ตำบลหนองกินเพล อำเภอวารินชำราบ จังหวัดอุบลราชธานี 34190<br>Latitude: 15.172396<br>Longitude: 104.793279<br>Provider: EleX,#icon-1899-DB4436-labelson,125 kW,2x CCS2 125 kW (300A),229 หมุ่ที่9 ตำบลหนองกินเพล อำเภอวารินชำราบ จังหวัดอุบลราชธานี 34190,15.172396,104.793279,EleX,"
            104.793279,15.172396,0
          "
PT ไชยา 3,Power: 125 kW<br>Description: 2x CCS2 125 kW (300A)<br>Address: 213 หมู่ที่1 ตำบลเวียง อำเภอไชยา จังหวัดสุราษฎร์ธานี 84110<br>Latitude: 9.386612<br>Longitude: 99.170108<br>Provider: EleX,#icon-1899-DB4436-labelson,125 kW,2x CCS2 125 kW (300A),213 หมู่ที่1 ตำบลเวียง อำเภอไชยา จังหวัดสุราษฎร์ธานี 84110,9.386612,99.170108,EleX,"
            99.170108,9.386612,0
          "
PT คลองขลุง 4,Power: 125 kW<br>Description: 2x CCS2 125 kW (300A)<br>Address: 159 หมู่ที่3 ตำบลท่าพุทรา อำเภอคลองขลุง จังหวัดกำแพงเพชร 62120<br>Latitude: 16.261033<br>Longitude: 99.686835<br>Provider: EleX,#icon-1899-DB4436-labelson,125 kW,2x CCS2 125 kW (300A),159 หมู่ที่3 ตำบลท่าพุทรา อำเภอคลองขลุง จังหวัดกำแพงเพชร 62120,16.261033,99.686835,EleX,"
            99.686835,16.261033,0
          "
PT หล่มสัก 4,Power: 125 kW<br>Description: 2x CCS2 125 kW (300A)<br>Address: ตำบล หนองไขว่ อำเภอหล่มสัก เพชรบูรณ์ 67110<br>Latitude: 16.738524<br>Longitude: 101.226939<br>Provider: EleX,#icon-1899-DB4436-labelson,125 kW,2x CCS2 125 kW (300A),ตำบล หนองไขว่ อำเภอหล่มสัก เพชรบูรณ์ 67110,16.738524,101.226939,EleX,"
            101.226939,16.738524,0
          "
PT สวี 3,Power: 125 kW<br>Description: 2x CCS2 125 kW (300A)<br>Address: ตำบล ครน อำเภอสวี ชุมพร 86130<br>Latitude: 10.277704<br>Longitude: 99.083596<br>Provider: EleX,#icon-1899-DB4436-labelson,125 kW,2x CCS2 125 kW (300A),ตำบล ครน อำเภอสวี ชุมพร 86130,10.277704,99.083596,EleX,"
            99.083596,10.277704,0
          "
PT กระบี่ 2,Power: 125 kW<br>Description: 2x CCS2 125 kW (300A)<br>Address: 377 ถนนอุตรกิจ ตำบลปากน้ำ อำเภอเมืองกระบี่ จังหวัดกระบี่ 81000<br>Latitude: 8.082432<br>Longitude: 98.914332<br>Provider: EleX,#icon-1899-DB4436-labelson,125 kW,2x CCS2 125 kW (300A),377 ถนนอุตรกิจ ตำบลปากน้ำ อำเภอเมืองกระบี่ จังหวัดกระบี่ 81000,8.082432,98.914332,EleX,"
            98.914332,8.082432,0
          "
SUPERFAST by PPWE เฉลิมพระเกียรติ โคราช,"Power: 100 kW<br>Description: CCS2 100 kW, CHAdeMO 100 kW<br>Address: ตำบลหนองงูเหลือม อำเภอเฉลิมพระเกียรติ จ.นครราชสีมา<br>Latitude: 15.079479<br>Longitude: 102.22351<br>Provider: EleX",#icon-1899-DB4436-labelson,100 kW,"CCS2 100 kW, CHAdeMO 100 kW",ตำบลหนองงูเหลือม อำเภอเฉลิมพระเกียรติ จ.นครราชสีมา,15.079479,102.22351,EleX,"
            102.22351,15.079479,0
          "
SUPERFAST by UAC (EECi),"Power: 50 kW<br>Description: CCS2 50 kW, CHAdeMO 50 kW, Type2 43 kW<br>Address: ระยอง<br>Latitude: 12.991868<br>Longitude: 101.444981<br>Provider: EleX",#icon-1899-DB4436-labelson,50 kW,"CCS2 50 kW, CHAdeMO 50 kW, Type2 43 kW",ระยอง,12.991868,101.444981,EleX,"
            101.444981,12.991868,0
          "
ทำเนียบรัฐบาล (สำหรับข้าราชการและผู้มาติดต่อราชการ),"Power: 60 kW<br>Description: Type2 22 kW<br>Type2 22 kW<br>CCS2 60 kW, CHAdeMO 60 kW<br>Address: 1 Phitsanulok Road Dusit District 10300<br>Latitude: 13.761954<br>Longitude: 100.511995<br>Provider: EleX",#icon-1899-DB4436-labelson,60 kW,"Type2 22 kW
Type2 22 kW
CCS2 60 kW, CHAdeMO 60 kW",1 Phitsanulok Road Dusit District 10300,13.761954,100.511995,EleX,"
            100.511995,13.761954,0
          "
อิมแพ็ค ลานจอดภายนอกอาคาร Novotel,"Power: 125 kW<br>Description: CCS2 60 kW, CHAdeMO 60 kW<br>2x CCS2 125 kW (300A)<br>Address: 94 Popular Rd, Subdistrict, Amphoe Pak Kret, Nonthaburi 11120<br>Latitude: 13.914767<br>Longitude: 100.54828<br>Provider: EleX",#icon-1899-DB4436-labelson,125 kW,"CCS2 60 kW, CHAdeMO 60 kW
2x CCS2 125 kW (300A)","94 Popular Rd, Subdistrict, Amphoe Pak Kret, Nonthaburi 11120",13.914767,100.54828,EleX,"
            100.54828,13.914767,0
          "
Porto Go บางปะอิน,"Power: 125 kW<br>Description: 2x CCS2 125 kW (300A), Type2 22 kW<br>Address: 80 Khlong Chik, Bang Pa-in District, Phra Nakhon Si Ayutthaya 13160, Thailand<br>Latitude: 14.201995<br>Longitude: 100.60755<br>Provider: EleX",#icon-1899-DB4436-labelson,125 kW,"2x CCS2 125 kW (300A), Type2 22 kW","80 Khlong Chik, Bang Pa-in District, Phra Nakhon Si Ayutthaya 13160, Thailand",14.201995,100.60755,EleX,"
            100.60755,14.201995,0
          "
สถานีแม่ฮ่องสอน,"Power: 125 kW<br>Description: 2x CCS2 125 kW (300A), Type2 22 kW<br>Address: 116 ถ.ขุนลุมประพาส ต.จองคำ อ.เมือง จ.แม่ฮ่องสอน 58000<br>Latitude: 19.292166<br>Longitude: 97.964733<br>Provider: EleX",#icon-1899-DB4436-labelson,125 kW,"2x CCS2 125 kW (300A), Type2 22 kW",116 ถ.ขุนลุมประพาส ต.จองคำ อ.เมือง จ.แม่ฮ่องสอน 58000,19.292166,97.964733,EleX,"
            97.964733,19.292166,0
          "
Kolao Auto city EV charging Station,"Power: 200 kW<br>Description: 2x CCS2 200 kW<br>Address: XHGP+VXG, ຖະໜົນອາຊຽນ, ບ້ານນາຄຳ, ເມືອງສີໂຄຕະບອງ, Vientiane<br>Latitude: 17.97655<br>Longitude: 102.587431<br>Provider: EleX",#icon-1899-DB4436-labelson,200 kW,2x CCS2 200 kW,"XHGP+VXG, ຖະໜົນອາຊຽນ, ບ້ານນາຄຳ, ເມືອງສີໂຄຕະບອງ, Vientiane",17.97655,102.587431,EleX,"
            102.587431,17.97655,0
          "
Kolao Kokkokmart EV charging Station,"Power: 100 kW<br>Description: 2x CCS2 100 kW<br>2x CCS2 100 kW<br>Address: 310 Rue Bourichane, Ban Phonsinuan, Unit-12, Sisattanak District, 0103 VientianeCapital, Lao PDR<br>Latitude: 17.964589<br>Longitude: 102.625648<br>Provider: EleX",#icon-1899-DB4436-labelson,100 kW,"2x CCS2 100 kW
2x CCS2 100 kW","310 Rue Bourichane, Ban Phonsinuan, Unit-12, Sisattanak District, 0103 VientianeCapital, Lao PDR",17.964589,102.625648,EleX,"
            102.625648,17.964589,0
          "
Kolaocare Xaymoungkon EV charging station,"Power: 100 kW<br>Description: 2x CCS2 100 kW<br>Address: ຖະໜົນ 13 ເໜືອ, ບ້ານສີເກີດ, ເມືອງນາຊາຍທອງ<br>Latitude: 18.024511<br>Longitude: 102.547632<br>Provider: EleX",#icon-1899-DB4436-labelson,100 kW,2x CCS2 100 kW,"ຖະໜົນ 13 ເໜືອ, ບ້ານສີເກີດ, ເມືອງນາຊາຍທອງ",18.024511,102.547632,EleX,"
            102.547632,18.024511,0
          "
ศูนย์การแพทย์กาญจนาภิเษก,"Power: 30 kW<br>Description: CCS2 30 kW<br>Type2 22 kW<br>Address: 888 Borommaratchachonnani Rd, Salaya, Phutthamonthon District, Nakhon Pathom 73170<br>Latitude: 13.786948<br>Longitude: 100.321744<br>Provider: EleX",#icon-1899-DB4436-labelson,30 kW,"CCS2 30 kW
Type2 22 kW","888 Borommaratchachonnani Rd, Salaya, Phutthamonthon District, Nakhon Pathom 73170",13.786948,100.321744,EleX,"
            100.321744,13.786948,0
          "
One Nimman,"Power: 125 kW<br>Description: 2x CCS2 125 kW (300A), Type2 22 kW<br>Address: Suthep, Mueang Chiang Mai District, Chiang Mai 50200<br>Latitude: 18.80044<br>Longitude: 98.968963<br>Provider: EleX",#icon-1899-DB4436-labelson,125 kW,"2x CCS2 125 kW (300A), Type2 22 kW","Suthep, Mueang Chiang Mai District, Chiang Mai 50200",18.80044,98.968963,EleX,"
            98.968963,18.80044,0
          "
EVX สาขาเมืองเอก รังสิต จ.ปทุมธานี,Power: 60 kW<br>Description: 2x CCS2 60 kW<br>Address: 186 5 พหลโยธิน 87 ซ. 6 ตำบล ประชาธิปัตย์ อำเภอธัญบุรี ปทุมธานี 12130<br>Latitude: 13.967511<br>Longitude: 100.607635<br>Provider: EleX,#icon-1899-DB4436-labelson,60 kW,2x CCS2 60 kW,186 5 พหลโยธิน 87 ซ. 6 ตำบล ประชาธิปัตย์ อำเภอธัญบุรี ปทุมธานี 12130,13.967511,100.607635,EleX,"
            100.607635,13.967511,0
          "
สถานีอู่ทองพลังงาน,Power: 100 kW<br>Description: 2x CCS2 100 kW<br>Address: 887 หมู่ที่3 ต.อู่ทอง อ.อู่ทอง. จังหวัดสุพรรณบุรี 72160<br>Latitude: 14.386337<br>Longitude: 99.893982<br>Provider: EleX,#icon-1899-DB4436-labelson,100 kW,2x CCS2 100 kW,887 หมู่ที่3 ต.อู่ทอง อ.อู่ทอง. จังหวัดสุพรรณบุรี 72160,14.386337,99.893982,EleX,"
            99.893982,14.386337,0
          "
Porto Go ท่าจีน,"Power: 125 kW<br>Description: 2x CCS2 125 kW (300A)<br>Address: 99/9 หมู่ที่ 4 Rama 2 Rd, Bang Tho Rat, Mueang Samut Sakhon District, Samut Sakhon 74000<br>Latitude: 13.516517<br>Longitude: 100.161457<br>Provider: EleX",#icon-1899-DB4436-labelson,125 kW,2x CCS2 125 kW (300A),"99/9 หมู่ที่ 4 Rama 2 Rd, Bang Tho Rat, Mueang Samut Sakhon District, Samut Sakhon 74000",13.516517,100.161457,EleX,"
            100.161457,13.516517,0
          "
PT นครนายก,"Power: 125 kW<br>Description: 2x CCS2 125 kW (300A)<br>Address: Mueang Nakhon Nayok District, Nakhon Nayok 26000<br>Latitude: 14.203233<br>Longitude: 101.206805<br>Provider: EleX",#icon-1899-DB4436-labelson,125 kW,2x CCS2 125 kW (300A),"Mueang Nakhon Nayok District, Nakhon Nayok 26000",14.203233,101.206805,EleX,"
            101.206805,14.203233,0
          "
PT อุตรดิตถ์ 5,"Power: 125 kW<br>Description: 2x CCS2 125 kW (300A)<br>Address: 11 Pa Sao, Mueang Uttaradit District, Uttaradit 53000<br>Latitude: 17.601584<br>Longitude: 100.123684<br>Provider: EleX",#icon-1899-DB4436-labelson,125 kW,2x CCS2 125 kW (300A),"11 Pa Sao, Mueang Uttaradit District, Uttaradit 53000",17.601584,100.123684,EleX,"
            100.123684,17.601584,0
          "
PT ขอนแก่น 10,"Power: 125 kW<br>Description: 2x CCS2 125 kW (300A)<br>Address: Tambon Ban Pet, Mueang Khon Kaen District, Khon Kaen 40000<br>Latitude: 16.449739<br>Longitude: 102.75878<br>Provider: EleX",#icon-1899-DB4436-labelson,125 kW,2x CCS2 125 kW (300A),"Tambon Ban Pet, Mueang Khon Kaen District, Khon Kaen 40000",16.449739,102.75878,EleX,"
            102.75878,16.449739,0
          "
PT บางปลาม้า 2,"Power: 125 kW<br>Description: 2x CCS2 125 kW (300A)<br>Address: Khok Khram, Bang Pla Ma District, Suphan Buri 72150<br>Latitude: 14.393029<br>Longitude: 100.170874<br>Provider: EleX",#icon-1899-DB4436-labelson,125 kW,2x CCS2 125 kW (300A),"Khok Khram, Bang Pla Ma District, Suphan Buri 72150",14.393029,100.170874,EleX,"
            100.170874,14.393029,0
          "
PT คุระบุรี 1,Power: 125 kW<br>Description: 2x CCS2 125 kW (300A)<br>Address: Khura Buri District Phang-nga<br>Latitude: 9.196067<br>Longitude: 98.407843<br>Provider: EleX,#icon-1899-DB4436-labelson,125 kW,2x CCS2 125 kW (300A),Khura Buri District Phang-nga,9.196067,98.407843,EleX,"
            98.407843,9.196067,0
          "
PT พะเยา,Power: 125 kW<br>Description: 2x CCS2 125 kW (300A)<br>Address: 405/3 ถนนพหลโยธิน ตำบลแม่ต๋ำ อำเภอเมืองพะเยา จังหวัดพะเยา 56000<br>Latitude: 19.196072<br>Longitude: 99.875543<br>Provider: EleX,#icon-1899-DB4436-labelson,125 kW,2x CCS2 125 kW (300A),405/3 ถนนพหลโยธิน ตำบลแม่ต๋ำ อำเภอเมืองพะเยา จังหวัดพะเยา 56000,19.196072,99.875543,EleX,"
            99.875543,19.196072,0
          "
PT ขลุง,"Power: 125 kW<br>Description: 2x CCS2 125 kW (300A)<br>Address: Khlung District, Chanthaburi<br>Latitude: 12.438952<br>Longitude: 102.302288<br>Provider: EleX",#icon-1899-DB4436-labelson,125 kW,2x CCS2 125 kW (300A),"Khlung District, Chanthaburi",12.438952,102.302288,EleX,"
            102.302288,12.438952,0
          "
PT นครศรีธรรมราช 4,"Power: 125 kW<br>Description: 2x CCS2 125 kW (300A)<br>Address: 193 Ratchadamnoen, Tambon Nai Mueang, Mueang Nakhon Si Thammarat District, Nakhon Si Thammarat 80000<br>Latitude: 8.39297<br>Longitude: 99.970989<br>Provider: EleX",#icon-1899-DB4436-labelson,125 kW,2x CCS2 125 kW (300A),"193 Ratchadamnoen, Tambon Nai Mueang, Mueang Nakhon Si Thammarat District, Nakhon Si Thammarat 80000",8.39297,99.970989,EleX,"
            99.970989,8.39297,0
          "
PT เลี่ยงเมืองชล 3,"Power: 125 kW<br>Description: 2x CCS2 125 kW (300A)<br>Address:  Ban Suan, Chon Buri District, Chon Buri 20000<br>Latitude: 13.360588<br>Longitude: 101.013706<br>Provider: EleX",#icon-1899-DB4436-labelson,125 kW,2x CCS2 125 kW (300A)," Ban Suan, Chon Buri District, Chon Buri 20000",13.360588,101.013706,EleX,"
            101.013706,13.360588,0
          "
PT ถ.พระราม 2 ขาเข้า กม.5,Power: 125 kW<br>Description: 2x CCS2 125 kW (300A)<br>Address: ถ.พระราม 2 กรุงเทพมหานคร<br>Latitude: 13.665328<br>Longitude: 100.443071<br>Provider: EleX,#icon-1899-DB4436-labelson,125 kW,2x CCS2 125 kW (300A),ถ.พระราม 2 กรุงเทพมหานคร,13.665328,100.443071,EleX,"
            100.443071,13.665328,0
          "
PT สายบุรี,Power: 125 kW<br>Description: 2x CCS2 125 kW (300A)<br>Address: อำเภอ สายบุรี<br>Latitude: 6.689417<br>Longitude: 101.557552<br>Provider: EleX,#icon-1899-DB4436-labelson,125 kW,2x CCS2 125 kW (300A),อำเภอ สายบุรี,6.689417,101.557552,EleX,"
            101.557552,6.689417,0
          "
PT คลองหลวง 2,"Power: 125 kW<br>Description: 2x CCS2 125 kW (300A)<br>Address: 17/19 หมู่ที่4 Khlong Nueng, Khlong Luang District, Pathum Thani 12120<br>Latitude: 14.02701<br>Longitude: 100.616328<br>Provider: EleX",#icon-1899-DB4436-labelson,125 kW,2x CCS2 125 kW (300A),"17/19 หมู่ที่4 Khlong Nueng, Khlong Luang District, Pathum Thani 12120",14.02701,100.616328,EleX,"
            100.616328,14.02701,0
          "
โฮมโปร สาขาสกลนคร,Power: 125 kW<br>Description: 2x CCS2 125 kW (300A)<br>Address: เลขที่  689/1ถนนนิตโย ตำบลธาตุเชิงชุม อำเภอเมือง สกลนคร 47000<br>Latitude: 17.170486<br>Longitude: 104.137256<br>Provider: EleX,#icon-1899-DB4436-labelson,125 kW,2x CCS2 125 kW (300A),เลขที่  689/1ถนนนิตโย ตำบลธาตุเชิงชุม อำเภอเมือง สกลนคร 47000,17.170486,104.137256,EleX,"
            104.137256,17.170486,0
          "
สถานีระนอง Manasan café,Power: 125 kW<br>Description: 2x CCS2 125 kW (300A)<br>Address: 103 17 หมู่ที่ 3 ถ. เพชรเกษม ตำบล บางริ้น อำเภอเมืองระนอง ระนอง 85000<br>Latitude: 9.903455<br>Longitude: 98.628019<br>Provider: EleX,#icon-1899-DB4436-labelson,125 kW,2x CCS2 125 kW (300A),103 17 หมู่ที่ 3 ถ. เพชรเกษม ตำบล บางริ้น อำเภอเมืองระนอง ระนอง 85000,9.903455,98.628019,EleX,"
            98.628019,9.903455,0
          "
สถานีนครพนม1 Siri Regent,Power: 125 kW<br>Description: 2x CCS2 125 kW (300A)<br>Address: เลขที่ 37 ถ.นครพนม-ธาตุพนม ต.ในเมือง อ.เมือง จ.นครพนม 48000<br>Latitude: 17.375154<br>Longitude: 104.793677<br>Provider: EleX,#icon-1899-DB4436-labelson,125 kW,2x CCS2 125 kW (300A),เลขที่ 37 ถ.นครพนม-ธาตุพนม ต.ในเมือง อ.เมือง จ.นครพนม 48000,17.375154,104.793677,EleX,"
            104.793677,17.375154,0
          "
KFC ฉะเชิงเทรา,Power: 125 kW<br>Description: 2x CCS2 125 kW (300A)<br>Address: ตำบล แสนภูดาษ อำเภอบ้านโพธิ์ ฉะเชิงเทรา 24140<br>Latitude: 13.579099<br>Longitude: 101.006702<br>Provider: EleX,#icon-1899-DB4436-labelson,125 kW,2x CCS2 125 kW (300A),ตำบล แสนภูดาษ อำเภอบ้านโพธิ์ ฉะเชิงเทรา 24140,13.579099,101.006702,EleX,"
            101.006702,13.579099,0
          "
Silom Edge (สีลมเอจ) ชั้น 5,Power: 30 kW<br>Description: Type2 22 kW<br>Type2 22 kW<br>2x CCS2 30 kW<br>Address: เลขที่ 2 ถนนสีลม ลานจอดรถชั้น 5 โครงการสีลมเอจ แขวงสุริยวงศ์ เขตบางรัก กรุงเทพมหานคร รหัสไปรษณีย์ 10500<br>Latitude: 13.729547<br>Longitude: 100.536017<br>Provider: EleX,#icon-1899-DB4436-labelson,30 kW,"Type2 22 kW
Type2 22 kW
2x CCS2 30 kW",เลขที่ 2 ถนนสีลม ลานจอดรถชั้น 5 โครงการสีลมเอจ แขวงสุริยวงศ์ เขตบางรัก กรุงเทพมหานคร รหัสไปรษณีย์ 10500,13.729547,100.536017,EleX,"
            100.536017,13.729547,0
          "
โฮมโปร สาขาแพร่,Power: 125 kW<br>Description: 2x CCS2 125 kW (300A)<br>Address: เลขที่ 171 หมู่ที่ 7 ตำบลป่าแมต อำเภอเมือง แพร่ 54000<br>Latitude: 18.119713<br>Longitude: 100.138855<br>Provider: EleX,#icon-1899-DB4436-labelson,125 kW,2x CCS2 125 kW (300A),เลขที่ 171 หมู่ที่ 7 ตำบลป่าแมต อำเภอเมือง แพร่ 54000,18.119713,100.138855,EleX,"
            100.138855,18.119713,0
          "
ลานป่าเป๋ย เฮือนฮังต่อ น่าน,Power: 125 kW<br>Description: 2x CCS2 125 kW (300A)<br>Address: 149 7 ตำบล ผาสิงห์ อำเภอเมืองน่าน น่าน 55000<br>Latitude: 18.789875<br>Longitude: 100.769768<br>Provider: EleX,#icon-1899-DB4436-labelson,125 kW,2x CCS2 125 kW (300A),149 7 ตำบล ผาสิงห์ อำเภอเมืองน่าน น่าน 55000,18.789875,100.769768,EleX,"
            100.769768,18.789875,0
          "
Porto Chino สมุทรสาคร,Power: 125 kW<br>Description: 2x CCS2 125 kW (300A)<br>Address: หมู่ที่ 4 99/120 ถ. พระราม 2 ตำบล นาดี อำเภอเมืองสมุทรสาคร สมุทรสาคร 74000<br>Latitude: 13.570296<br>Longitude: 100.289219<br>Provider: EleX,#icon-1899-DB4436-labelson,125 kW,2x CCS2 125 kW (300A),หมู่ที่ 4 99/120 ถ. พระราม 2 ตำบล นาดี อำเภอเมืองสมุทรสาคร สมุทรสาคร 74000,13.570296,100.289219,EleX,"
            100.289219,13.570296,0
          "
โฮมโปร สาขาร้อยเอ็ด,"Power: 125 kW<br>Description: 2x CCS2 125 kW (300A)<br>Address: 116 หมู่ 3 Chaeng Sanit Rd, Dong Lan, Mueang Roi Et District, Roi Et 45000<br>Latitude: 16.062636<br>Longitude: 103.620412<br>Provider: EleX",#icon-1899-DB4436-labelson,125 kW,2x CCS2 125 kW (300A),"116 หมู่ 3 Chaeng Sanit Rd, Dong Lan, Mueang Roi Et District, Roi Et 45000",16.062636,103.620412,EleX,"
            103.620412,16.062636,0
          "
โฮมโปร สาขาสุรินทร์,"Power: 125 kW<br>Description: 2x CCS2 125 kW (300A)<br>Address: สุรินทร์-ศีขรภูมิ Nok Mueang, Mueang Surin District, Surin 32000<br>Latitude: 14.879064<br>Longitude: 103.520008<br>Provider: EleX",#icon-1899-DB4436-labelson,125 kW,2x CCS2 125 kW (300A),"สุรินทร์-ศีขรภูมิ Nok Mueang, Mueang Surin District, Surin 32000",14.879064,103.520008,EleX,"
            103.520008,14.879064,0
          "
โฮมโปร สาขาราชบุรี,"Power: 125 kW<br>Description: 2x CCS2 125 kW (300A)<br>Address: Chedi Hak, Mueang Ratchaburi, Ratchaburi 70000<br>Latitude: 13.537402<br>Longitude: 99.799411<br>Provider: EleX",#icon-1899-DB4436-labelson,125 kW,2x CCS2 125 kW (300A),"Chedi Hak, Mueang Ratchaburi, Ratchaburi 70000",13.537402,99.799411,EleX,"
            99.799411,13.537402,0
          "
HomePro ระยอง,"Power: 125 kW<br>Description: 2x CCS2 125 kW (300A)<br>Address: 560 Sukhumvit Road, Tambon Noen Phra, Mueang Rayong District, Rayong 21000<br>Latitude: 12.684306<br>Longitude: 101.244655<br>Provider: EleX",#icon-1899-DB4436-labelson,125 kW,2x CCS2 125 kW (300A),"560 Sukhumvit Road, Tambon Noen Phra, Mueang Rayong District, Rayong 21000",12.684306,101.244655,EleX,"
            101.244655,12.684306,0
          "
HomePro เลย,Power: 125 kW<br>Description: 2x CCS2 125 kW (300A)<br>Address: 560 Sukhumvit Road Tambon Noen Phra Mueang Mueang Loei 42000<br>Latitude: 17.470892<br>Longitude: 101.725919<br>Provider: EleX,#icon-1899-DB4436-labelson,125 kW,2x CCS2 125 kW (300A),560 Sukhumvit Road Tambon Noen Phra Mueang Mueang Loei 42000,17.470892,101.725919,EleX,"
            101.725919,17.470892,0
          "
SUPERFAST by PPWE ท่าใหม่,"Power: 100 kW<br>Description: 2x CCS2 100 kW<br>Address: 89 5, Khao Wua, Tha Mai District, Chanthaburi 22120<br>Latitude: 12.657898<br>Longitude: 102.058864<br>Provider: EleX",#icon-1899-DB4436-labelson,100 kW,2x CCS2 100 kW,"89 5, Khao Wua, Tha Mai District, Chanthaburi 22120",12.657898,102.058864,EleX,"
            102.058864,12.657898,0
          "
Market Village ภูเก็ต,"Power: 125 kW<br>Description: 2x CCS2 125 kW (300A)<br>Address: 61 10 Chao Fah Tawan Tok Rd, Chalong, Mueang Phuket District, Phuket 83130<br>Latitude: 7.824522<br>Longitude: 98.340263<br>Provider: EleX",#icon-1899-DB4436-labelson,125 kW,2x CCS2 125 kW (300A),"61 10 Chao Fah Tawan Tok Rd, Chalong, Mueang Phuket District, Phuket 83130",7.824522,98.340263,EleX,"
            98.340263,7.824522,0
          "
The One Hotel,"Power: 125 kW<br>Description: 2x CCS2 125 kW (300A)<br>Address: 459 หมู่ 1 ถนนบึงกาฬ-นครพรม Bueng Kan, Mueang Bueng Kan District, Bueng Kan 38000<br>Latitude: 18.35841<br>Longitude: 103.647773<br>Provider: EleX",#icon-1899-DB4436-labelson,125 kW,2x CCS2 125 kW (300A),"459 หมู่ 1 ถนนบึงกาฬ-นครพรม Bueng Kan, Mueang Bueng Kan District, Bueng Kan 38000",18.35841,103.647773,EleX,"
            103.647773,18.35841,0
          "
KOLAO BMW Laos,"Power: 120 kW<br>Description: 2x CCS2 120 kW (200A)<br>Address: BMW Premium Auto, Rue 23 Singha road, Vientiane, Laos<br>Latitude: 17.974273<br>Longitude: 102.627949<br>Provider: EleX",#icon-1899-DB4436-labelson,120 kW,2x CCS2 120 kW (200A),"BMW Premium Auto, Rue 23 Singha road, Vientiane, Laos",17.974273,102.627949,EleX,"
            102.627949,17.974273,0
          "
มหาวิทยาลัยราชภัฏเพชรบูรณ์,"Power: 100 kW<br>Description: 2x CCS2 100 kW<br>CCS2 100 kW, CHAdeMO 100 kW<br>Address: 83 หมู่ 11 ถนนสระบุรี-หล่มสัก ตำบลสะเดียง อำเภอเมือง จังหวัดเพชรบูรณ์ 67000<br>Latitude: 16.451985<br>Longitude: 101.152862<br>Provider: EleX",#icon-1899-DB4436-labelson,100 kW,"2x CCS2 100 kW
CCS2 100 kW, CHAdeMO 100 kW",83 หมู่ 11 ถนนสระบุรี-หล่มสัก ตำบลสะเดียง อำเภอเมือง จังหวัดเพชรบูรณ์ 67000,16.451985,101.152862,EleX,"
            101.152862,16.451985,0
          "
Chiangmai ram Health Center,Power: 50 kW<br>Description: 2x CCS2 50 kW<br>Address: 8 ถ.บุญเรืองฤทธิ์ ต.ศรีภูมิ อ.เมือง จ.เชียงใหม่ 50200<br>Latitude: 18.793019<br>Longitude: 98.977575<br>Provider: EleX,#icon-1899-DB4436-labelson,50 kW,2x CCS2 50 kW,8 ถ.บุญเรืองฤทธิ์ ต.ศรีภูมิ อ.เมือง จ.เชียงใหม่ 50200,18.793019,98.977575,EleX,"
            98.977575,18.793019,0
          "
PT ถ.พระเทพ 1,Power: 150 kW<br>Description: 2x CCS2 150 kW<br>Address: เลขที่ 509/3 ถนนพรานนก-พุทธมณฑล แขวงบางพรม เขตตลิ่งชัน กรุงเทพมหานคร<br>Latitude: 13.751819<br>Longitude: 100.442613<br>Provider: EleX,#icon-1899-DB4436-labelson,150 kW,2x CCS2 150 kW,เลขที่ 509/3 ถนนพรานนก-พุทธมณฑล แขวงบางพรม เขตตลิ่งชัน กรุงเทพมหานคร,13.751819,100.442613,EleX,"
            100.442613,13.751819,0
          "
Stay Plus Hotel,"Power: 30 kW<br>Description: CCS2 30 kW<br>CCS2 30 kW<br>CCS2 30 kW<br>CCS2 30 kW<br>Address: เลขที่ 153-155 ถนนบรรทัดทอง, ถนนเพชรบุรี เขตราชเทวี  กรุงเทพฯ10400<br>Latitude: 13.754586<br>Longitude: 100.526973<br>Provider: EleX",#icon-1899-DB4436-labelson,30 kW,"CCS2 30 kW
CCS2 30 kW
CCS2 30 kW
CCS2 30 kW","เลขที่ 153-155 ถนนบรรทัดทอง, ถนนเพชรบุรี เขตราชเทวี  กรุงเทพฯ10400",13.754586,100.526973,EleX,"
            100.526973,13.754586,0
          "
สถานีเรือไฟฟ้าเขื่อนศรีนครินทร์,Power: 150 kW<br>Description: 2x CCS2 150 kW<br>Address: 300 หมู่ 4 ตำบล.ท่ากระดาน อำเภอ.ศรีสวัสดิ์ จังหวัด กาญจนบุรี 71250<br>Latitude: 14.399998<br>Longitude: 99.121566<br>Provider: EleX,#icon-1899-DB4436-labelson,150 kW,2x CCS2 150 kW,300 หมู่ 4 ตำบล.ท่ากระดาน อำเภอ.ศรีสวัสดิ์ จังหวัด กาญจนบุรี 71250,14.399998,99.121566,EleX,"
            99.121566,14.399998,0
          "
PT ถ.วิภาวดีรังสิต 1 (ซ.32),Power: 150 kW<br>Description: 2x CCS2 150 kW<br>Address: เลขที่ 1092 ถนนวิภาวดีรังสิต แขวงจตุจักร กรุงเทพมหานคร<br>Latitude: 13.826043<br>Longitude: 100.558889<br>Provider: EleX,#icon-1899-DB4436-labelson,150 kW,2x CCS2 150 kW,เลขที่ 1092 ถนนวิภาวดีรังสิต แขวงจตุจักร กรุงเทพมหานคร,13.826043,100.558889,EleX,"
            100.558889,13.826043,0
          "
ร้าน Army เขาชะโงก จังหวัดนครนายก,Power: 60 kW<br>Description: 2x CCS2 60 kW<br>Address: เลขที่ 23/4 หมู่ 11 ทางหลวงชนบท ตำบลพรหมณี อำเภอเมือง นครนายก จังหวัดนครนายก 26000<br>Latitude: 14.252612<br>Longitude: 101.178986<br>Provider: EleX,#icon-1899-DB4436-labelson,60 kW,2x CCS2 60 kW,เลขที่ 23/4 หมู่ 11 ทางหลวงชนบท ตำบลพรหมณี อำเภอเมือง นครนายก จังหวัดนครนายก 26000,14.252612,101.178986,EleX,"
            101.178986,14.252612,0
          "
PT ถ.จันทน์,Power: 150 kW<br>Description: 2x CCS2 150 kW<br>Address: เลขที่ 433/30 ถนนจันทร์ แขวงวัดพระยาไกร เขตบางคอแหลม กรุงเทพมหานคร<br>Latitude: 13.70896<br>Longitude: 100.515499<br>Provider: EleX,#icon-1899-DB4436-labelson,150 kW,2x CCS2 150 kW,เลขที่ 433/30 ถนนจันทร์ แขวงวัดพระยาไกร เขตบางคอแหลม กรุงเทพมหานคร,13.70896,100.515499,EleX,"
            100.515499,13.70896,0
          "
PT ถ.ฉลองกรุง 1,Power: 150 kW<br>Description: 2x CCS2 150 kW<br>Address: เลขที่ 65/1 ถนนฉลองกรุง แขวงลำปลาทิว เขตลาดกระบัง กรุงเทพมหานคร<br>Latitude: 13.746697<br>Longitude: 100.792345<br>Provider: EleX,#icon-1899-DB4436-labelson,150 kW,2x CCS2 150 kW,เลขที่ 65/1 ถนนฉลองกรุง แขวงลำปลาทิว เขตลาดกระบัง กรุงเทพมหานคร,13.746697,100.792345,EleX,"
            100.792345,13.746697,0
          "
