Name,Description,styleUrl,Power,Address,Latitude,Longitude,Provider,Coordinates
พัทยาใต้,Power: 50 kW<br>Description: 321/1 หมู่ที่ 10 ต.หนองปรือ อ.บางละมุง จ.ชลบุรี 20150  PEA VOLTA พัทยาใต้ #2<br>Latitude: 12.92267895<br>Longitude: 100.88403320<br>Provider: PEA,#icon-1899-DB4436-labelson,50 kW,321/1 หมู่ที่ 10 ต.หนองปรือ อ.บางละมุง จ.ชลบุรี 20150  PEA VOLTA พัทยาใต้ #2,12.92267895,100.88403320,PEA,"
            100.8840332,12.92267895,0
          "
เขาย้อย,Power: 50 kW<br>Description: 135 หมู่ 4 ถ.เพชรเกษม ต.สระพัง อ.เขาย้อย จ.เพชรบุรี 76140 Tel: 0-3256-2455 Fax: -  PEA VOLTA เขาย้อย<br>Latitude: 13.26557732<br>Longitude: 99.82255554<br>Provider: PEA,#icon-1899-DB4436-labelson,50 kW,135 หมู่ 4 ถ.เพชรเกษม ต.สระพัง อ.เขาย้อย จ.เพชรบุรี 76140 Tel: 0-3256-2455 Fax: -  PEA VOLTA เขาย้อย,13.26557732,99.82255554,PEA,"
            99.82255554,13.26557732,0
          "
สำนักงานใหญ่,Power: 50 kW<br>Description: 200 ถนนงามวงศ์วาน แขวงลาดยาว เขตจตุจักร จ.กรุงเทพมหานคร 10900 (ปิดให้บริการชั่วคราว วันที่ 16/12/2022 เวลา 13:00 - 14:30 น.) PEA VOLTA สำนักงานใหญ่ #1<br>Latitude: 13.85042763<br>Longitude: 100.55857849<br>Provider: PEA,#icon-1899-DB4436-labelson,50 kW,200 ถนนงามวงศ์วาน แขวงลาดยาว เขตจตุจักร จ.กรุงเทพมหานคร 10900 (ปิดให้บริการชั่วคราว วันที่ 16/12/2022 เวลา 13:00 - 14:30 น.) PEA VOLTA สำนักงานใหญ่ #1,13.85042763,100.55857849,PEA,"
            100.55857849,13.85042763,0
          "
นครชัยศรี,Power: 50 kW<br>Description: 9 หมู่1 ต.ไทยาวาส อ.นครชัยศรี จ.นครปฐม 73121 Tel: 034-228-716 Fax: - PEA VOLTA นครชัยศรี<br>Latitude: 13.80342865<br>Longitude: 100.18870544<br>Provider: PEA,#icon-1899-DB4436-labelson,50 kW,9 หมู่1 ต.ไทยาวาส อ.นครชัยศรี จ.นครปฐม 73121 Tel: 034-228-716 Fax: - PEA VOLTA นครชัยศรี,13.80342865,100.18870544,PEA,"
            100.18870544,13.80342865,0
          "
สมุทรสาคร,Power: 50 kW<br>Description: 1062 ถ.วิเชียรโชฏก ต.มหาชัย อ.เมือง จ.สมุทรสาคร 74000 Tel: 0-3442-2818   Fax : - PEA VOLTA สมุทรสาคร<br>Latitude: 13.54332638<br>Longitude: 100.26477051<br>Provider: PEA,#icon-1899-DB4436-labelson,50 kW,1062 ถ.วิเชียรโชฏก ต.มหาชัย อ.เมือง จ.สมุทรสาคร 74000 Tel: 0-3442-2818   Fax : - PEA VOLTA สมุทรสาคร,13.54332638,100.26477051,PEA,"
            100.26477051,13.54332638,0
          "
บางจาก ชะอำ,Power: 50 kW<br>Description: 555/5 ถ.เพชรเกษม (ชะอำ) ต.เขาใหญ่ อ.ชะอำ จ.เพชรบุรี 76120 PEA VOLTA บางจาก ชะอำ #1<br>Latitude: 12.81742477<br>Longitude: 99.94092560<br>Provider: PEA,#icon-1899-DB4436-labelson,50 kW,555/5 ถ.เพชรเกษม (ชะอำ) ต.เขาใหญ่ อ.ชะอำ จ.เพชรบุรี 76120 PEA VOLTA บางจาก ชะอำ #1,12.81742477,99.94092560,PEA,"
            99.9409256,12.81742477,0
          "
บางจาก วังมะนาว (ขาออก),Power: 50 kW<br>Description: 3/1 ม.2 ถ.เพชรเกษม ต.ห้วยโรง อ.เขาย้อย จ.เพชรบุรี 76140 PEA VOLTA บางจาก วังมะนาว (ขาออก) #1<br>Latitude: 13.31848145<br>Longitude: 99.82760620<br>Provider: PEA,#icon-1899-DB4436-labelson,50 kW,3/1 ม.2 ถ.เพชรเกษม ต.ห้วยโรง อ.เขาย้อย จ.เพชรบุรี 76140 PEA VOLTA บางจาก วังมะนาว (ขาออก) #1,13.31848145,99.82760620,PEA,"
            99.8276062,13.31848145,0
          "
บางจาก เมืองกระบี่,Power: 50 kW<br>Description: 48/26 ถ.ศรีพังงา ต.ปากน้ำ อ.เมือง จ.กระบี่ 81000 PEA VOLTA บางจาก เมืองกระบี่ #2<br>Latitude: 8.10309505<br>Longitude: 98.90280151<br>Provider: PEA,#icon-1899-DB4436-labelson,50 kW,48/26 ถ.ศรีพังงา ต.ปากน้ำ อ.เมือง จ.กระบี่ 81000 PEA VOLTA บางจาก เมืองกระบี่ #2,8.10309505,98.90280151,PEA,"
            98.90280151,8.10309505,0
          "
บางจาก คลองท่อม,Power: 50 kW<br>Description: 154 ม.1 ถ.เพชรเกษม (4) ต.ห้วยน้ำขาว อ.คลองท่อม จ.กระบี่ 81120 PEA VOLTA บางจาก คลองท่อม #1<br>Latitude: 7.87007999<br>Longitude: 99.16378784<br>Provider: PEA,#icon-1899-DB4436-labelson,50 kW,154 ม.1 ถ.เพชรเกษม (4) ต.ห้วยน้ำขาว อ.คลองท่อม จ.กระบี่ 81120 PEA VOLTA บางจาก คลองท่อม #1,7.87007999,99.16378784,PEA,"
            99.16378784,7.87007999,0
          "
บางจาก บายพาสชลบุรี,Power: 50 kW<br>Description: 99/1 ม.4 ถ.สายอ้อมเมืองชลบุรี ต.หนองไม้แดง อ.เมือง จ.ชลบุรี 20000 PEA VOLTA บางจาก บายพาสชลบุรี #1<br>Latitude: 13.41339302<br>Longitude: 100.99969482<br>Provider: PEA,#icon-1899-DB4436-labelson,50 kW,99/1 ม.4 ถ.สายอ้อมเมืองชลบุรี ต.หนองไม้แดง อ.เมือง จ.ชลบุรี 20000 PEA VOLTA บางจาก บายพาสชลบุรี #1,13.41339302,100.99969482,PEA,"
            100.99969482,13.41339302,0
          "
บางจาก เมืองพิษณุโลก (ทล.11 กม.228),Power: 50 kW<br>Description: 555 ม.3 ต.ดอนทอง อ.เมืองพิษณุโลก จ.พิษณุโลก 65000 PEA VOLTA บางจาก เมืองพิษณุโลก (ทล.11 กม.228) #1<br>Latitude: 16.85162544<br>Longitude: 100.34738159<br>Provider: PEA,#icon-1899-DB4436-labelson,50 kW,555 ม.3 ต.ดอนทอง อ.เมืองพิษณุโลก จ.พิษณุโลก 65000 PEA VOLTA บางจาก เมืองพิษณุโลก (ทล.11 กม.228) #1,16.85162544,100.34738159,PEA,"
            100.34738159,16.85162544,0
          "
บางจาก บางปะอิน,Power: 50 kW<br>Description: 59 ม.3 สายเอเชีย ต.บ้านหว้า อ.บางปะอิน จ.พระนครศรีอยุธยา 13160 PEA VOLTA บางจาก บางปะอิน #1<br>Latitude: 14.26578903<br>Longitude: 100.61248016<br>Provider: PEA,#icon-1899-DB4436-labelson,50 kW,59 ม.3 สายเอเชีย ต.บ้านหว้า อ.บางปะอิน จ.พระนครศรีอยุธยา 13160 PEA VOLTA บางจาก บางปะอิน #1,14.26578903,100.61248016,PEA,"
            100.61248016,14.26578903,0
          "
บางจาก แก่งคอย,Power: 50 kW<br>Description: 94 ม.4 ถ.มิตรภาพ ต.ตาลเดี่ยว อ.แก่งคอย จ.สระบุรี 18110 PEA VOLTA บางจาก แก่งคอย #1<br>Latitude: 14.57350159<br>Longitude: 100.98709869<br>Provider: PEA,#icon-1899-DB4436-labelson,50 kW,94 ม.4 ถ.มิตรภาพ ต.ตาลเดี่ยว อ.แก่งคอย จ.สระบุรี 18110 PEA VOLTA บางจาก แก่งคอย #1,14.57350159,100.98709869,PEA,"
            100.98709869,14.57350159,0
          "
บางจาก ปากช่อง,Power: 50 kW<br>Description: 199 ม.1 ถ.มิตรภาพ ต.ปากช่อง อ.ปากช่อง จ.นครราชสีมา 30130 PEA VOLTA บางจาก ปากช่อง #1<br>Latitude: 14.65200138<br>Longitude: 101.35745239<br>Provider: PEA,#icon-1899-DB4436-labelson,50 kW,199 ม.1 ถ.มิตรภาพ ต.ปากช่อง อ.ปากช่อง จ.นครราชสีมา 30130 PEA VOLTA บางจาก ปากช่อง #1,14.65200138,101.35745239,PEA,"
            101.35745239,14.65200138,0
          "
บางจาก บ้านบึง,Power: 50 kW<br>Description: 105 ม.5 ถ.สายชลบุรี-บ้านบึง ต.มาบไผ่ อ.บ้านบึง จ.ชลบุรี 20170 PEA VOLTA บางจาก บ้านบึง #2<br>Latitude: 13.33185959<br>Longitude: 101.08281708<br>Provider: PEA,#icon-1899-DB4436-labelson,50 kW,105 ม.5 ถ.สายชลบุรี-บ้านบึง ต.มาบไผ่ อ.บ้านบึง จ.ชลบุรี 20170 PEA VOLTA บางจาก บ้านบึง #2,13.33185959,101.08281708,PEA,"
            101.08281708,13.33185959,0
          "
พะเยา,Power: 50 kW<br>Description: เลขที่ 159 หมู่ 1 ต.แม่ปืม อ.เมือง จ.พะเยา 56000 PEA VOLTA พะเยา #2<br>Latitude: 19.19921875<br>Longitude: 99.87414551<br>Provider: PEA,#icon-1899-DB4436-labelson,50 kW,เลขที่ 159 หมู่ 1 ต.แม่ปืม อ.เมือง จ.พะเยา 56000 PEA VOLTA พะเยา #2,19.19921875,99.87414551,PEA,"
            99.87414551,19.19921875,0
          "
แพร่,Power: 50 kW<br>Description: หมู่ 8 189 ต.นาจักร อ.เมือง จ.แพร่ 54000 PEA VOLTA แพร่ #1<br>Latitude: 18.11483765<br>Longitude: 100.14887238<br>Provider: PEA,#icon-1899-DB4436-labelson,50 kW,หมู่ 8 189 ต.นาจักร อ.เมือง จ.แพร่ 54000 PEA VOLTA แพร่ #1,18.11483765,100.14887238,PEA,"
            100.14887238,18.11483765,0
          "
ร้อยเอ็ด,Power: 50 kW<br>Description: 308 หมู่ 7 ถ.เลี่ยงเมือง ต.ดงลาน อ.เมือง จ.ร้อยเอ็ด 45000 PEA VOLTA ร้อยเอ็ด #2<br>Latitude: 16.04526901<br>Longitude: 103.62712860<br>Provider: PEA,#icon-1899-DB4436-labelson,50 kW,308 หมู่ 7 ถ.เลี่ยงเมือง ต.ดงลาน อ.เมือง จ.ร้อยเอ็ด 45000 PEA VOLTA ร้อยเอ็ด #2,16.04526901,103.62712860,PEA,"
            103.6271286,16.04526901,0
          "
บางจาก นครราชสีมา (กม. 141),Power: 50 kW<br>Description: 1587/1 ถ.มิตรภาพ ต.บ้านใหม่ อ.เมือง จ.นครราชสีมา 30000 PEA VOLTA บางจาก นครราชสีมา (กม. 141) #1<br>Latitude: 14.95731163<br>Longitude: 102.04100037<br>Provider: PEA,#icon-1899-DB4436-labelson,50 kW,1587/1 ถ.มิตรภาพ ต.บ้านใหม่ อ.เมือง จ.นครราชสีมา 30000 PEA VOLTA บางจาก นครราชสีมา (กม. 141) #1,14.95731163,102.04100037,PEA,"
            102.04100037,14.95731163,0
          "
บางจาก พุนพิน,Power: 50 kW<br>Description: 85 ม.3 ถ.เอเซีย ต.หัวเตย อ.พุนพิน จ.สุราษฎร์ธานี 84130 PEA VOLTA บางจาก พุนพิน #1<br>Latitude: 9.12692261<br>Longitude: 99.15952301<br>Provider: PEA,#icon-1899-DB4436-labelson,50 kW,85 ม.3 ถ.เอเซีย ต.หัวเตย อ.พุนพิน จ.สุราษฎร์ธานี 84130 PEA VOLTA บางจาก พุนพิน #1,9.12692261,99.15952301,PEA,"
            99.15952301,9.12692261,0
          "
บางจาก ละแม,Power: 50 kW<br>Description: 139 ม.9 ต.ทุ่งหลวง อ.ละแม จ.ชุมพร 86170 PEA VOLTA บางจาก ละแม #2<br>Latitude: 9.77398396<br>Longitude: 99.07875824<br>Provider: PEA,#icon-1899-DB4436-labelson,50 kW,139 ม.9 ต.ทุ่งหลวง อ.ละแม จ.ชุมพร 86170 PEA VOLTA บางจาก ละแม #2,9.77398396,99.07875824,PEA,"
            99.07875824,9.77398396,0
          "
บางจาก คลองขลุง,Power: 50 kW<br>Description: 39/8 ม.10 ต.คลองขลุง อ.คลองขลุง จ.กำแพงเพชร 62120 PEA VOLTA บางจาก คลองขลุง #1<br>Latitude: 16.21014404<br>Longitude: 99.70331573<br>Provider: PEA,#icon-1899-DB4436-labelson,50 kW,39/8 ม.10 ต.คลองขลุง อ.คลองขลุง จ.กำแพงเพชร 62120 PEA VOLTA บางจาก คลองขลุง #1,16.21014404,99.70331573,PEA,"
            99.70331573,16.21014404,0
          "
บางจาก เมืองตาก,Power: 50 kW<br>Description: 9 ม.5 ต.เชียงเงิน อ.เมืองตาก จ.ตาก 63000 PEA VOLTA บางจาก เมืองตาก #2<br>Latitude: 16.87879181<br>Longitude: 99.12906647<br>Provider: PEA,#icon-1899-DB4436-labelson,50 kW,9 ม.5 ต.เชียงเงิน อ.เมืองตาก จ.ตาก 63000 PEA VOLTA บางจาก เมืองตาก #2,16.87879181,99.12906647,PEA,"
            99.12906647,16.87879181,0
          "
บางจาก สีคิ้ว (มิตรภาพ กม.92),Power: 50 kW<br>Description: 25 ม.12 ต.ลาดบัวขาว อ.สีคิ้ว จ.นครราชสีมา 30340 PEA VOLTA บางจาก สีคิ้ว (มิตรภาพ กม.92) #1<br>Latitude: 14.84046268<br>Longitude: 101.60757446<br>Provider: PEA,#icon-1899-DB4436-labelson,50 kW,25 ม.12 ต.ลาดบัวขาว อ.สีคิ้ว จ.นครราชสีมา 30340 PEA VOLTA บางจาก สีคิ้ว (มิตรภาพ กม.92) #1,14.84046268,101.60757446,PEA,"
            101.60757446,14.84046268,0
          "
บางจาก ท่าแซะ,Power: 50 kW<br>Description: ท่าแซะ ต.ท่าข้าม อ.ท่าแซะ จ.ชุมพร 86140 PEA VOLTA บางจาก ท่าแซะ #2<br>Latitude: 10.59331322<br>Longitude: 99.12245941<br>Provider: PEA,#icon-1899-DB4436-labelson,50 kW,ท่าแซะ ต.ท่าข้าม อ.ท่าแซะ จ.ชุมพร 86140 PEA VOLTA บางจาก ท่าแซะ #2,10.59331322,99.12245941,PEA,"
            99.12245941,10.59331322,0
          "
บางจาก กะทู้,Power: 50 kW<br>Description: 2/75-76 ม.2 ถ.ทางหลวงชนบท ป่าตอง-กะทู้ (2010) ต.กะทู้ อ.กะทู้ จ.ภูเก็ต 83120 PEA VOLTA บางจาก กะทู้ #1<br>Latitude: 7.90890980<br>Longitude: 98.34481049<br>Provider: PEA,#icon-1899-DB4436-labelson,50 kW,2/75-76 ม.2 ถ.ทางหลวงชนบท ป่าตอง-กะทู้ (2010) ต.กะทู้ อ.กะทู้ จ.ภูเก็ต 83120 PEA VOLTA บางจาก กะทู้ #1,7.90890980,98.34481049,PEA,"
            98.34481049,7.9089098,0
          "
บางจาก ซุปเปอร์ไฮเวย์เชียงใหม่,Power: 50 kW<br>Description: 99 ม.1 ถ.ซุปเปอร์ไฮเวย์ ต.หนองป่าครั่ง อ.เมือง จ.เชียงใหม่ 50000 PEA VOLTA บางจาก ซุปเปอร์ไฮเวย์เชียงใหม่ #1<br>Latitude: 18.79173660<br>Longitude: 99.02420044<br>Provider: PEA,#icon-1899-DB4436-labelson,50 kW,99 ม.1 ถ.ซุปเปอร์ไฮเวย์ ต.หนองป่าครั่ง อ.เมือง จ.เชียงใหม่ 50000 PEA VOLTA บางจาก ซุปเปอร์ไฮเวย์เชียงใหม่ #1,18.79173660,99.02420044,PEA,"
            99.02420044,18.7917366,0
          "
บางจาก เมืองภูเก็ต,Power: 50 kW<br>Description: 24/11 ม.4 ถ.วิเศษ ต.ราไวย์ อ.เมือง จ.ภูเก็ต 83130 PEA VOLTA บางจาก เมืองภูเก็ต #1<br>Latitude: 7.80754280<br>Longitude: 98.33696747<br>Provider: PEA,#icon-1899-DB4436-labelson,50 kW,24/11 ม.4 ถ.วิเศษ ต.ราไวย์ อ.เมือง จ.ภูเก็ต 83130 PEA VOLTA บางจาก เมืองภูเก็ต #1,7.80754280,98.33696747,PEA,"
            98.33696747,7.8075428,0
          "
บางจาก เมืองพังงา,Power: 50 kW<br>Description: 29/38 ม.3 ต.ตากแดด อ.เมือง จ.พังงา 80180 PEA VOLTA บางจาก เมืองพังงา #1<br>Latitude: 8.42503834<br>Longitude: 98.47972107<br>Provider: PEA,#icon-1899-DB4436-labelson,50 kW,29/38 ม.3 ต.ตากแดด อ.เมือง จ.พังงา 80180 PEA VOLTA บางจาก เมืองพังงา #1,8.42503834,98.47972107,PEA,"
            98.47972107,8.42503834,0
          "
บางจาก เมืองหนองคาย,Power: 50 kW<br>Description: 57/1 ม.5 ถ.สายหนองคาย-โพนพิสัย ต.หาดคำ อ.เมือง จ.หนองคาย 43000 (สถานีให้บริการน้ำมันให้บริการในเวลา 5:30-21:30 น.) PEA VOLTA บางจาก เมืองหนองคาย #1<br>Latitude: 17.89057541<br>Longitude: 102.77641296<br>Provider: PEA,#icon-1899-DB4436-labelson,50 kW,57/1 ม.5 ถ.สายหนองคาย-โพนพิสัย ต.หาดคำ อ.เมือง จ.หนองคาย 43000 (สถานีให้บริการน้ำมันให้บริการในเวลา 5:30-21:30 น.) PEA VOLTA บางจาก เมืองหนองคาย #1,17.89057541,102.77641296,PEA,"
            102.77641296,17.89057541,0
          "
บางจาก เมืองขอนแก่น (แยกเมืองเก่า),Power: 50 kW<br>Description: 485 ม.12 ถ.สายขอนแก่น-บ้านไผ่ (มิตรภาพ) ต.ศิลา อ.เมือง จ.ขอนแก่น 40000 PEA VOLTA บางจาก เมืองขอนแก่น (แยกเมืองเก่า) #2<br>Latitude: 16.38029480<br>Longitude: 102.81069183<br>Provider: PEA,#icon-1899-DB4436-labelson,50 kW,485 ม.12 ถ.สายขอนแก่น-บ้านไผ่ (มิตรภาพ) ต.ศิลา อ.เมือง จ.ขอนแก่น 40000 PEA VOLTA บางจาก เมืองขอนแก่น (แยกเมืองเก่า) #2,16.38029480,102.81069183,PEA,"
            102.81069183,16.3802948,0
          "
บางจาก อินทร์บุรี (ขาออก),Power: 50 kW<br>Description: 116 ม.1 ถ.สายเอเชีย ต.น้ำตาล อ.อินทร์บุรี จ.สิงห์บุรี 16110 PEA VOLTA บางจาก อินทร์บุรี (ขาออก) #1<br>Latitude: 14.98171806<br>Longitude: 100.35731506<br>Provider: PEA,#icon-1899-DB4436-labelson,50 kW,116 ม.1 ถ.สายเอเชีย ต.น้ำตาล อ.อินทร์บุรี จ.สิงห์บุรี 16110 PEA VOLTA บางจาก อินทร์บุรี (ขาออก) #1,14.98171806,100.35731506,PEA,"
            100.35731506,14.98171806,0
          "
หล่มสัก,Power: 50 kW<br>Description: 145 หมู่ 3 ถนนสระบุรี-หล่มสัก ต.หนองไขว่ อ.หล่มสัก จ.เพชรบูรณ์ 67110 PEA VOLTA หล่มสัก #1<br>Latitude: 16.76070213<br>Longitude: 101.21662903<br>Provider: PEA,#icon-1899-DB4436-labelson,50 kW,145 หมู่ 3 ถนนสระบุรี-หล่มสัก ต.หนองไขว่ อ.หล่มสัก จ.เพชรบูรณ์ 67110 PEA VOLTA หล่มสัก #1,16.76070213,101.21662903,PEA,"
            101.21662903,16.76070213,0
          "
บางจาก แม่ลาว,Power: 50 kW<br>Description: 59 ม.2 ถ.พหลโยธิน (พาน-เชียงราย) ต.จอมหมอกแก้ว อ.แม่ลาว จ.เชียงราย 57250 (สถานีให้บริการน้ำมันให้บริการในเวลา 05:30-22:00 น.) PEA VOLTA บางจาก แม่ลาว #1<br>Latitude: 19.75447845<br>Longitude: 99.73159027<br>Provider: PEA,#icon-1899-DB4436-labelson,50 kW,59 ม.2 ถ.พหลโยธิน (พาน-เชียงราย) ต.จอมหมอกแก้ว อ.แม่ลาว จ.เชียงราย 57250 (สถานีให้บริการน้ำมันให้บริการในเวลา 05:30-22:00 น.) PEA VOLTA บางจาก แม่ลาว #1,19.75447845,99.73159027,PEA,"
            99.73159027,19.75447845,0
          "
บางจาก พล,Power: 50 kW<br>Description: 10 ม.8 ถ.ทางหลวงแผ่นดินหมายเลข 2 ต.หนองแวงโสกพระ อ.พล จ.ขอนแก่น 40120 PEA VOLTA บางจาก พล #1<br>Latitude: 15.72360611<br>Longitude: 102.59219360<br>Provider: PEA,#icon-1899-DB4436-labelson,50 kW,10 ม.8 ถ.ทางหลวงแผ่นดินหมายเลข 2 ต.หนองแวงโสกพระ อ.พล จ.ขอนแก่น 40120 PEA VOLTA บางจาก พล #1,15.72360611,102.59219360,PEA,"
            102.5921936,15.72360611,0
          "
บางจาก เมืองอุดรธานี,Power: 50 kW<br>Description: 558 ถ.โพศรี ต.หมากแข้ง อ.เมือง จ.อุดรธานี 41000 PEA VOLTA บางจาก เมืองอุดรธานี #1<br>Latitude: 17.40020943<br>Longitude: 102.80043793<br>Provider: PEA,#icon-1899-DB4436-labelson,50 kW,558 ถ.โพศรี ต.หมากแข้ง อ.เมือง จ.อุดรธานี 41000 PEA VOLTA บางจาก เมืองอุดรธานี #1,17.40020943,102.80043793,PEA,"
            102.80043793,17.40020943,0
          "
บางจาก นาเกลือ,Power: 50 kW<br>Description: 472/59 ม.4 ต.นาเกลือ อ.บางละมุง จ.ชลบุรี 20150 PEA VOLTA บางจาก นาเกลือ #2<br>Latitude: 12.96428871<br>Longitude: 100.90988159<br>Provider: PEA,#icon-1899-DB4436-labelson,50 kW,472/59 ม.4 ต.นาเกลือ อ.บางละมุง จ.ชลบุรี 20150 PEA VOLTA บางจาก นาเกลือ #2,12.96428871,100.90988159,PEA,"
            100.90988159,12.96428871,0
          "
บางจาก หาดใหญ่,Power: 50 kW<br>Description: 46/1 ถ.เพชรเกษม ต.หาดใหญ่ อ.หาดใหญ่ จ.สงขลา 90110 PEA VOLTA บางจาก หาดใหญ่ #2<br>Latitude: 7.00386286<br>Longitude: 100.46021271<br>Provider: PEA,#icon-1899-DB4436-labelson,50 kW,46/1 ถ.เพชรเกษม ต.หาดใหญ่ อ.หาดใหญ่ จ.สงขลา 90110 PEA VOLTA บางจาก หาดใหญ่ #2,7.00386286,100.46021271,PEA,"
            100.46021271,7.00386286,0
          "
บางจาก ทุ่งสง,Power: 50 kW<br>Description: 83/1 ม.7 ต.หนองหงส์ ต.ทุ่งสง จ.นครศรีธรรมราช 80110 PEA VOLTA บางจาก ทุ่งสง #2<br>Latitude: 8.17509270<br>Longitude: 99.63127899<br>Provider: PEA,#icon-1899-DB4436-labelson,50 kW,83/1 ม.7 ต.หนองหงส์ ต.ทุ่งสง จ.นครศรีธรรมราช 80110 PEA VOLTA บางจาก ทุ่งสง #2,8.17509270,99.63127899,PEA,"
            99.63127899,8.1750927,0
          "
บางจาก ทับสะแก,Power: 50 kW<br>Description: 55 ม.1 ถ.เพชรเกษม ต.แสงอรุณ ต.ทับสะแก จ.ประจวบคีรีขันธ์ 77130 PEA VOLTA บางจาก ทับสะแก #2<br>Latitude: 11.54640007<br>Longitude: 99.63079834<br>Provider: PEA,#icon-1899-DB4436-labelson,50 kW,55 ม.1 ถ.เพชรเกษม ต.แสงอรุณ ต.ทับสะแก จ.ประจวบคีรีขันธ์ 77130 PEA VOLTA บางจาก ทับสะแก #2,11.54640007,99.63079834,PEA,"
            99.63079834,11.54640007,0
          "
บางจาก ท่าใหม่,Power: 50 kW<br>Description: 67/20 ม.3 ถ.สุขุมวิท ต.ทุ่งเบญจา อ.ท่าใหม่ จ.จันทบุรี 22170 PEA VOLTA บางจาก ท่าใหม่ #2<br>Latitude: 12.71175194<br>Longitude: 101.98202515<br>Provider: PEA,#icon-1899-DB4436-labelson,50 kW,67/20 ม.3 ถ.สุขุมวิท ต.ทุ่งเบญจา อ.ท่าใหม่ จ.จันทบุรี 22170 PEA VOLTA บางจาก ท่าใหม่ #2,12.71175194,101.98202515,PEA,"
            101.98202515,12.71175194,0
          "
บางจาก พยุหะคีรี,Power: 50 kW<br>Description: 41/1 ม.2 ถ.พหลโยธิน ต.ย่านมัทรี อ.พยุหะคีรี จ.นครสวรรค์ 60130 PEA VOLTA บางจาก พยุหะคีรี #2<br>Latitude: 15.49873257<br>Longitude: 100.12822723<br>Provider: PEA,#icon-1899-DB4436-labelson,50 kW,41/1 ม.2 ถ.พหลโยธิน ต.ย่านมัทรี อ.พยุหะคีรี จ.นครสวรรค์ 60130 PEA VOLTA บางจาก พยุหะคีรี #2,15.49873257,100.12822723,PEA,"
            100.12822723,15.49873257,0
          "
บางจาก บึงนาราง,Power: 50 kW<br>Description: 456 ม.2 ต.บึงนาราง อ.บึงนาราง จ.พิจิตร 66130 PEA VOLTA บางจาก บึงนาราง #2<br>Latitude: 16.18552208<br>Longitude: 100.12808990<br>Provider: PEA,#icon-1899-DB4436-labelson,50 kW,456 ม.2 ต.บึงนาราง อ.บึงนาราง จ.พิจิตร 66130 PEA VOLTA บางจาก บึงนาราง #2,16.18552208,100.12808990,PEA,"
            100.1280899,16.18552208,0
          "
บางจาก นครราชสีมา (กม. 134),Power: 50 kW<br>Description: 444/1 ม.8 ต.โคกกรวด อ.เมือง จ.นครราชสีมา 30000 PEA VOLTA บางจาก นครราชสีมา (กม. 134) #1<br>Latitude: 14.93463707<br>Longitude: 101.98297882<br>Provider: PEA,#icon-1899-DB4436-labelson,50 kW,444/1 ม.8 ต.โคกกรวด อ.เมือง จ.นครราชสีมา 30000 PEA VOLTA บางจาก นครราชสีมา (กม. 134) #1,14.93463707,101.98297882,PEA,"
            101.98297882,14.93463707,0
          "
บางจาก ขุขันธ์,Power: 50 kW<br>Description: 58 ม.8 ถ.ทางหลวงแผ่นดินสายโชคชัย-เดชอุดม (24) ต.นิคมพัฒนา อ.ขุขันธ์ จ.ศรีสะเกษ 33140 (สถานีให้บริการน้ำมันให้บริการในเวลา 06:00-20:00 น. ผู้ใช้บริการ PEA VOLTA ต้องทำการเลื่อนรั้วกั้นเพื่อเข้าใช้บริการ) PEA VOLTA บางจาก ขุขันธ์ #1<br>Latitude: 14.65510368<br>Longitude: 104.22760773<br>Provider: PEA,#icon-1899-DB4436-labelson,50 kW,58 ม.8 ถ.ทางหลวงแผ่นดินสายโชคชัย-เดชอุดม (24) ต.นิคมพัฒนา อ.ขุขันธ์ จ.ศรีสะเกษ 33140 (สถานีให้บริการน้ำมันให้บริการในเวลา 06:00-20:00 น. ผู้ใช้บริการ PEA VOLTA ต้องทำการเลื่อนรั้วกั้นเพื่อเข้าใช้บริการ) PEA VOLTA บางจาก ขุขันธ์ #1,14.65510368,104.22760773,PEA,"
            104.22760773,14.65510368,0
          "
สระแก้ว,Power: 50 kW<br>Description: เลขที่ 6 ถ.สุวรรณศร ต.สระแก้ว อ.เมือง จ.สระแก้ว 27000 PEA VOLTA สระแก้ว #2<br>Latitude: 13.83916283<br>Longitude: 102.04624939<br>Provider: PEA,#icon-1899-DB4436-labelson,50 kW,เลขที่ 6 ถ.สุวรรณศร ต.สระแก้ว อ.เมือง จ.สระแก้ว 27000 PEA VOLTA สระแก้ว #2,13.83916283,102.04624939,PEA,"
            102.04624939,13.83916283,0
          "
บางจาก เมืองบุรีรัมย์ (คูเมือง),Power: 50 kW<br>Description: 188 ม.3 ถ.บุรีรัมย์-คูเมือง ต.ชุมเห็ด อ.เมือง จ.บุรีรัมย์ 31000 PEA VOLTA บางจาก เมืองบุรีรัมย์ (คูเมือง) #2<br>Latitude: 15.05379486<br>Longitude: 103.08460236<br>Provider: PEA,#icon-1899-DB4436-labelson,50 kW,188 ม.3 ถ.บุรีรัมย์-คูเมือง ต.ชุมเห็ด อ.เมือง จ.บุรีรัมย์ 31000 PEA VOLTA บางจาก เมืองบุรีรัมย์ (คูเมือง) #2,15.05379486,103.08460236,PEA,"
            103.08460236,15.05379486,0
          "
บางจาก ประโคนชัย,Power: 50 kW<br>Description: ต.โคกม้า อ.ประโคนชัย จ.บุรีรัมย์ 31140 PEA VOLTA บางจาก ประโคนชัย #1<br>Latitude: 14.61214161<br>Longitude: 103.05731964<br>Provider: PEA,#icon-1899-DB4436-labelson,50 kW,ต.โคกม้า อ.ประโคนชัย จ.บุรีรัมย์ 31140 PEA VOLTA บางจาก ประโคนชัย #1,14.61214161,103.05731964,PEA,"
            103.05731964,14.61214161,0
          "
บางจาก แกลง,Power: 50 kW<br>Description: 337/1 ถ.สุขุมวิท ต.ทางเกวียน อ.แกลง จ.ระยอง 21110 PEA VOLTA บางจาก แกลง #1<br>Latitude: 12.78665543<br>Longitude: 101.67284393<br>Provider: PEA,#icon-1899-DB4436-labelson,50 kW,337/1 ถ.สุขุมวิท ต.ทางเกวียน อ.แกลง จ.ระยอง 21110 PEA VOLTA บางจาก แกลง #1,12.78665543,101.67284393,PEA,"
            101.67284393,12.78665543,0
          "
บางจาก วังน้อย (พหลโยธิน กม.57),Power: 50 kW<br>Description: 555 ม.2 ถ.พหลโยธิน ต.ลำไทร อ.วังน้อย จ.พระนครศรีอยุธยา 13170 PEA VOLTA บางจาก วังน้อย (พหลโยธิน กม.57) #2<br>Latitude: 14.19540596<br>Longitude: 100.64606476<br>Provider: PEA,#icon-1899-DB4436-labelson,50 kW,555 ม.2 ถ.พหลโยธิน ต.ลำไทร อ.วังน้อย จ.พระนครศรีอยุธยา 13170 PEA VOLTA บางจาก วังน้อย (พหลโยธิน กม.57) #2,14.19540596,100.64606476,PEA,"
            100.64606476,14.19540596,0
          "
บางจาก เมืองชลบุรี,Power: 50 kW<br>Description: ถ.เลี่ยงเมืองชลบุรี ต.บ้านสวน อ.เมืองชลบุรี จ.ชลบุรี 20000 PEA VOLTA บางจาก เมืองชลบุรี #1<br>Latitude: 13.36228561<br>Longitude: 101.01564026<br>Provider: PEA,#icon-1899-DB4436-labelson,50 kW,ถ.เลี่ยงเมืองชลบุรี ต.บ้านสวน อ.เมืองชลบุรี จ.ชลบุรี 20000 PEA VOLTA บางจาก เมืองชลบุรี #1,13.36228561,101.01564026,PEA,"
            101.01564026,13.36228561,0
          "
บางจาก เมืองระยอง,Power: 50 kW<br>Description: 351/2 ถ.สุขุมวิท ต.เนินพระ อ.เมือง จ.ระยอง 21000 PEA VOLTA บางจาก เมืองระยอง #2<br>Latitude: 12.68248940<br>Longitude: 101.25444794<br>Provider: PEA,#icon-1899-DB4436-labelson,50 kW,351/2 ถ.สุขุมวิท ต.เนินพระ อ.เมือง จ.ระยอง 21000 PEA VOLTA บางจาก เมืองระยอง #2,12.68248940,101.25444794,PEA,"
            101.25444794,12.6824894,0
          "
บางจาก ชะอวด,Power: 50 kW<br>Description: 228/4 ม.2 ถ.ทางหลวงหมายเลข 41 ต.เกาะขันธ์ อ.ชะอวด จ.นครศรีธรรมราช 80180 PEA VOLTA บางจาก ชะอวด #1<br>Latitude: 7.89833117<br>Longitude: 99.92877197<br>Provider: PEA,#icon-1899-DB4436-labelson,50 kW,228/4 ม.2 ถ.ทางหลวงหมายเลข 41 ต.เกาะขันธ์ อ.ชะอวด จ.นครศรีธรรมราช 80180 PEA VOLTA บางจาก ชะอวด #1,7.89833117,99.92877197,PEA,"
            99.92877197,7.89833117,0
          "
บางจาก เมืองตรัง,Power: 50 kW<br>Description: 6 ถ.วิเศษกุล ต.ทับเที่ยง อ.เมือง จ.ตรัง 92000 PEA VOLTA บางจาก เมืองตรัง #1<br>Latitude: 7.56099510<br>Longitude: 99.60598755<br>Provider: PEA,#icon-1899-DB4436-labelson,50 kW,6 ถ.วิเศษกุล ต.ทับเที่ยง อ.เมือง จ.ตรัง 92000 PEA VOLTA บางจาก เมืองตรัง #1,7.56099510,99.60598755,PEA,"
            99.60598755,7.5609951,0
          "
บางจาก เขาสมิง,Power: 50 kW<br>Description: 92/1 ม.5 ถ.สุขุมวิท ต.แสนตุ้ง อ.เขาสมิง จ.ตราด 23150 (สถานีให้บริการน้ำมันให้บริการในเวลา 06:00-20:00 น.) PEA VOLTA บางจาก เขาสมิง #1<br>Latitude: 12.37870502<br>Longitude: 102.37655640<br>Provider: PEA,#icon-1899-DB4436-labelson,50 kW,92/1 ม.5 ถ.สุขุมวิท ต.แสนตุ้ง อ.เขาสมิง จ.ตราด 23150 (สถานีให้บริการน้ำมันให้บริการในเวลา 06:00-20:00 น.) PEA VOLTA บางจาก เขาสมิง #1,12.37870502,102.37655640,PEA,"
            102.3765564,12.37870502,0
          "
บางจาก วังจันทร์,Power: 50 kW<br>Description: 168 หมู่6 ต.ป่ายุปใน อ.วังจันทร์ จ.ระยอง 21210 PEA VOLTA บางจาก วังจันทร์ #1<br>Latitude: 13.03796291<br>Longitude: 101.43467712<br>Provider: PEA,#icon-1899-DB4436-labelson,50 kW,168 หมู่6 ต.ป่ายุปใน อ.วังจันทร์ จ.ระยอง 21210 PEA VOLTA บางจาก วังจันทร์ #1,13.03796291,101.43467712,PEA,"
            101.43467712,13.03796291,0
          "
บางจาก เมืองนครปฐม (กม. 61 ขาเข้า),Power: 50 kW<br>Description: 272 ม.2 ถ.เพชรเกษม ต.ลำพยา อ.เมือง จ.นครปฐม 73000 PEA VOLTA บางจาก เมืองนครปฐม (กม. 61 ขาเข้า) #1<br>Latitude: 13.80427837<br>Longitude: 100.02313232<br>Provider: PEA,#icon-1899-DB4436-labelson,50 kW,272 ม.2 ถ.เพชรเกษม ต.ลำพยา อ.เมือง จ.นครปฐม 73000 PEA VOLTA บางจาก เมืองนครปฐม (กม. 61 ขาเข้า) #1,13.80427837,100.02313232,PEA,"
            100.02313232,13.80427837,0
          "
บางจาก ท่าม่วง,Power: 50 kW<br>Description: 6 ม.1 ต.ท่าล้อ อ.ท่าม่วง จ.กาญจนบุรี 71000 PEA VOLTA บางจาก ท่าม่วง #1<br>Latitude: 13.99449635<br>Longitude: 99.56107330<br>Provider: PEA,#icon-1899-DB4436-labelson,50 kW,6 ม.1 ต.ท่าล้อ อ.ท่าม่วง จ.กาญจนบุรี 71000 PEA VOLTA บางจาก ท่าม่วง #1,13.99449635,99.56107330,PEA,"
            99.5610733,13.99449635,0
          "
บางจาก ห้างฉัตร,Power: 50 kW<br>Description: 141 ม.1 ถ.สายลำปาง-เชียงใหม่ ต.ปงยางคก อ.ห้างฉัตร จ.ลำปาง 52190 PEA VOLTA บางจาก ห้างฉัตร #1<br>Latitude: 18.31063461<br>Longitude: 99.38988495<br>Provider: PEA,#icon-1899-DB4436-labelson,50 kW,141 ม.1 ถ.สายลำปาง-เชียงใหม่ ต.ปงยางคก อ.ห้างฉัตร จ.ลำปาง 52190 PEA VOLTA บางจาก ห้างฉัตร #1,18.31063461,99.38988495,PEA,"
            99.38988495,18.31063461,0
          "
บางจาก ดอยสะเก็ด,Power: 50 kW<br>Description: 480-480/1 ม.3 ถ.ติดทางหลวงจังหวัดสายดอยสะเก็ด-แม่สาย (1019) ต.เชิงดอย อ.ดอยสะเก็ด จ.เชียงใหม่ 50220 PEA VOLTA บางจาก ดอยสะเก็ด #1<br>Latitude: 18.87332153<br>Longitude: 99.13359833<br>Provider: PEA,#icon-1899-DB4436-labelson,50 kW,480-480/1 ม.3 ถ.ติดทางหลวงจังหวัดสายดอยสะเก็ด-แม่สาย (1019) ต.เชิงดอย อ.ดอยสะเก็ด จ.เชียงใหม่ 50220 PEA VOLTA บางจาก ดอยสะเก็ด #1,18.87332153,99.13359833,PEA,"
            99.13359833,18.87332153,0
          "
บางจาก แม่ริม,Power: 50 kW<br>Description: 197 ม.4 ถ.สายเชียงใหม่-ฝาง ต.แม่สา อ.แม่ริม จ.เชียงใหม่ 50180 PEA VOLTA บางจาก แม่ริม #1<br>Latitude: 18.90111542<br>Longitude: 98.95011902<br>Provider: PEA,#icon-1899-DB4436-labelson,50 kW,197 ม.4 ถ.สายเชียงใหม่-ฝาง ต.แม่สา อ.แม่ริม จ.เชียงใหม่ 50180 PEA VOLTA บางจาก แม่ริม #1,18.90111542,98.95011902,PEA,"
            98.95011902,18.90111542,0
          "
บางจาก ดอยหล่อ,Power: 50 kW<br>Description: 19 ม.23 ต.ดอยหล่อ อ.ดอยหล่อ จ.เชียงใหม่ 50160 PEA VOLTA บางจาก ดอยหล่อ #1<br>Latitude: 18.45156670<br>Longitude: 98.75217438<br>Provider: PEA,#icon-1899-DB4436-labelson,50 kW,19 ม.23 ต.ดอยหล่อ อ.ดอยหล่อ จ.เชียงใหม่ 50160 PEA VOLTA บางจาก ดอยหล่อ #1,18.45156670,98.75217438,PEA,"
            98.75217438,18.4515667,0
          "
บางจาก สามพราน,Power: 50 kW<br>Description: 18/8 ม.2 ถ.สายปิ่นเกล้า-นครชัยศรี ต.บางเตย อ.สามพราน จ.นครปฐม 73110 (สถานีให้บริการน้ำมันให้บริการในเวลา 5:30-23:00 น.) PEA VOLTA บางจาก สามพราน #1<br>Latitude: 13.78533554<br>Longitude: 100.27252960<br>Provider: PEA,#icon-1899-DB4436-labelson,50 kW,18/8 ม.2 ถ.สายปิ่นเกล้า-นครชัยศรี ต.บางเตย อ.สามพราน จ.นครปฐม 73110 (สถานีให้บริการน้ำมันให้บริการในเวลา 5:30-23:00 น.) PEA VOLTA บางจาก สามพราน #1,13.78533554,100.27252960,PEA,"
            100.2725296,13.78533554,0
          "
บางจาก นาโคก (ขาออก),Power: 50 kW<br>Description: 84/7 ม.2 ถ.สายธนบุรี-ปากท่อ ต.นาโคก อ.เมือง จ.สมุทรสาคร 74000 PEA VOLTA บางจาก นาโคก (ขาออก) #1<br>Latitude: 13.45208073<br>Longitude: 100.08407593<br>Provider: PEA,#icon-1899-DB4436-labelson,50 kW,84/7 ม.2 ถ.สายธนบุรี-ปากท่อ ต.นาโคก อ.เมือง จ.สมุทรสาคร 74000 PEA VOLTA บางจาก นาโคก (ขาออก) #1,13.45208073,100.08407593,PEA,"
            100.08407593,13.45208073,0
          "
บางจาก เมืองพิษณุโลก (เซ็นทรัล),Power: 50 kW<br>Description: 68/3 ม.5 ถ.สายพิษณุโลก-สุโขทัย ต.พลายชุมพล อ.เมืองพิษณุโลก จ.พิษณุโลก 65000 PEA VOLTA บางจาก เมืองพิษณุโลก (เซ็นทรัล) #2<br>Latitude: 16.84242058<br>Longitude: 100.23114014<br>Provider: PEA,#icon-1899-DB4436-labelson,50 kW,68/3 ม.5 ถ.สายพิษณุโลก-สุโขทัย ต.พลายชุมพล อ.เมืองพิษณุโลก จ.พิษณุโลก 65000 PEA VOLTA บางจาก เมืองพิษณุโลก (เซ็นทรัล) #2,16.84242058,100.23114014,PEA,"
            100.23114014,16.84242058,0
          "
รังสิต,Power: 50 kW<br>Description: 60 หมู่ 6 ถนนพหลโยธิน ต.คลองหนึ่ง อ.คลองหลวง จ.ปทุมธานี 12120 Tel: 02-516-8659  PEA VOLTA รังสิต<br>Latitude: 14.04528141<br>Longitude: 100.61618805<br>Provider: PEA,#icon-1899-DB4436-labelson,50 kW,60 หมู่ 6 ถนนพหลโยธิน ต.คลองหนึ่ง อ.คลองหลวง จ.ปทุมธานี 12120 Tel: 02-516-8659  PEA VOLTA รังสิต,14.04528141,100.61618805,PEA,"
            100.61618805,14.04528141,0
          "
ปากช่อง,Power: 50 kW<br>Description: 171 ถ.มิตรภาพ ต.ปากช่อง อ.ปากช่อง จ.นครราชสีมา 30130 Tel: 0-4431-3373   Fax : - PEA VOLTA ปากช่อง<br>Latitude: 14.69263268<br>Longitude: 101.40573120<br>Provider: PEA,#icon-1899-DB4436-labelson,50 kW,171 ถ.มิตรภาพ ต.ปากช่อง อ.ปากช่อง จ.นครราชสีมา 30130 Tel: 0-4431-3373   Fax : - PEA VOLTA ปากช่อง,14.69263268,101.40573120,PEA,"
            101.4057312,14.69263268,0
          "
บางจาก เมืองขอนแก่น (มิตรภาพ กม.348),Power: 50 kW<br>Description: 78 ม.1 ถ.มิตรภาพ ต.ศิลา อ.เมือง จ.ขอนแก่น 40000 PEA VOLTA บางจาก เมืองขอนแก่น (มิตรภาพ กม.348) #1<br>Latitude: 16.51951981<br>Longitude: 102.83187103<br>Provider: PEA,#icon-1899-DB4436-labelson,50 kW,78 ม.1 ถ.มิตรภาพ ต.ศิลา อ.เมือง จ.ขอนแก่น 40000 PEA VOLTA บางจาก เมืองขอนแก่น (มิตรภาพ กม.348) #1,16.51951981,102.83187103,PEA,"
            102.83187103,16.51951981,0
          "
สถานี เข้าท่า บ้านบึง,Power: 150 kW<br>Description: 101 หมู่ 1 ตำบล หนองซ้ำซาก อำเภอบ้านบึง ชลบุรี 20170 &#34;ร่วมเครือข่าย PEA VOLTA&#34;  สถานี เข้าท่า บ้านบึง #2 (ร่วมเครือข่าย PEA VOLTA)<br>Latitude: 13.33417511<br>Longitude: 101.07898712<br>Provider: PEA,#icon-1899-DB4436-labelson,150 kW,101 หมู่ 1 ตำบล หนองซ้ำซาก อำเภอบ้านบึง ชลบุรี 20170 &#34;ร่วมเครือข่าย PEA VOLTA&#34;  สถานี เข้าท่า บ้านบึง #2 (ร่วมเครือข่าย PEA VOLTA),13.33417511,101.07898712,PEA,"
            101.07898712,13.33417511,0
          "
บริษัท พรีไซซ ซิสเท็ม,Power: 40 kW<br>Description: เลขที่ 1/333 หมู่ที่ 9 ตำบลบางพูด  อำเภอปากเกร็ด  จังหวัดนนทบุรี บริษัท พรีไซซ ซิสเท็ม (ร่วมเครือข่าย PEA VOLTA)<br>Latitude: 13.91230679<br>Longitude: 100.52040100<br>Provider: PEA,#icon-1899-DB4436-labelson,40 kW,เลขที่ 1/333 หมู่ที่ 9 ตำบลบางพูด  อำเภอปากเกร็ด  จังหวัดนนทบุรี บริษัท พรีไซซ ซิสเท็ม (ร่วมเครือข่าย PEA VOLTA),13.91230679,100.52040100,PEA,"
            100.520401,13.91230679,0
          "
เขตชลบุรี,Power: 120 kW<br>Description: 47/1 หมู่ 3 ต.เสม็ด อ.เมืองชลบุรี จ.ชลบุรี 20000 Tel: 038 455 086 Fax: -  เปิดให้บริการ PEA VOLTA เขตชลบุรี #2<br>Latitude: 13.32851124<br>Longitude: 100.95263672<br>Provider: PEA,#icon-1899-DB4436-labelson,120 kW,47/1 หมู่ 3 ต.เสม็ด อ.เมืองชลบุรี จ.ชลบุรี 20000 Tel: 038 455 086 Fax: -  เปิดให้บริการ PEA VOLTA เขตชลบุรี #2,13.32851124,100.95263672,PEA,"
            100.95263672,13.32851124,0
          "
บางจาก เมืองปทุมธานี,Power: 50 kW<br>Description: 10 ตำบล บางกะดี อำเภอเมืองปทุมธานี ปทุมธานี 12000 PEA VOLTA บางจาก เมืองปทุมธานี #1<br>Latitude: 13.99169827<br>Longitude: 100.55096436<br>Provider: PEA,#icon-1899-DB4436-labelson,50 kW,10 ตำบล บางกะดี อำเภอเมืองปทุมธานี ปทุมธานี 12000 PEA VOLTA บางจาก เมืองปทุมธานี #1,13.99169827,100.55096436,PEA,"
            100.55096436,13.99169827,0
          "
บางจาก เฉลิมพระเกียรติ,Power: 50 kW<br>Description: 101 หมู่ 8 ถนนพหลโยธิน ตำบลหน้าพระลาน อำเภอเฉลิมพระเกียรติ สระบุรี 18000 PEA VOLTA บางจาก เฉลิมพระเกียรติ #2<br>Latitude: 14.69464016<br>Longitude: 100.86740112<br>Provider: PEA,#icon-1899-DB4436-labelson,50 kW,101 หมู่ 8 ถนนพหลโยธิน ตำบลหน้าพระลาน อำเภอเฉลิมพระเกียรติ สระบุรี 18000 PEA VOLTA บางจาก เฉลิมพระเกียรติ #2,14.69464016,100.86740112,PEA,"
            100.86740112,14.69464016,0
          "
บางจาก เมืองสระบุรี,Power: 50 kW<br>Description: 64 ตำบล หนองปลาไหล อำเภอเมืองสระบุรี สระบุรี 18000 PEA VOLTA บางจาก เมืองสระบุรี #1<br>Latitude: 14.46105862<br>Longitude: 100.92274475<br>Provider: PEA,#icon-1899-DB4436-labelson,50 kW,64 ตำบล หนองปลาไหล อำเภอเมืองสระบุรี สระบุรี 18000 PEA VOLTA บางจาก เมืองสระบุรี #1,14.46105862,100.92274475,PEA,"
            100.92274475,14.46105862,0
          "
บางจาก องครักษ์,Power: 50 kW<br>Description: ตำบล บางปลากด อำเภอองครักษ์ นครนายก 26120 PEA VOLTA บางจาก องครักษ์ #1<br>Latitude: 14.16397858<br>Longitude: 101.01033783<br>Provider: PEA,#icon-1899-DB4436-labelson,50 kW,ตำบล บางปลากด อำเภอองครักษ์ นครนายก 26120 PEA VOLTA บางจาก องครักษ์ #1,14.16397858,101.01033783,PEA,"
            101.01033783,14.16397858,0
          "
บางจาก กบินทร์บุรี (ลาดตะเคียน),Power: 50 kW<br>Description: 99 ตำบลลาดตะเคียน อำเภอกบินทร์บุรี ปราจีนบุรี 25110 PEA VOLTA บางจาก กบินทร์บุรี (ลาดตะเคียน) #1<br>Latitude: 13.90484810<br>Longitude: 101.65842438<br>Provider: PEA,#icon-1899-DB4436-labelson,50 kW,99 ตำบลลาดตะเคียน อำเภอกบินทร์บุรี ปราจีนบุรี 25110 PEA VOLTA บางจาก กบินทร์บุรี (ลาดตะเคียน) #1,13.90484810,101.65842438,PEA,"
            101.65842438,13.9048481,0
          "
บางจาก แปลงยาว,Power: 50 kW<br>Description: ตำบล วังเย็น อำเภอแปลงยาว ฉะเชิงเทรา 24190 PEA VOLTA บางจาก แปลงยาว #1<br>Latitude: 13.57745838<br>Longitude: 101.27690125<br>Provider: PEA,#icon-1899-DB4436-labelson,50 kW,ตำบล วังเย็น อำเภอแปลงยาว ฉะเชิงเทรา 24190 PEA VOLTA บางจาก แปลงยาว #1,13.57745838,101.27690125,PEA,"
            101.27690125,13.57745838,0
          "
บางจาก กบินทร์บุรี (นนทรี),Power: 50 kW<br>Description: ตำบล นนทรี อำเภอกบินทร์บุรี ปราจีนบุรี 25110 PEA VOLTA บางจาก กบินทร์บุรี (นนทรี) #1<br>Latitude: 14.04671955<br>Longitude: 101.62847137<br>Provider: PEA,#icon-1899-DB4436-labelson,50 kW,ตำบล นนทรี อำเภอกบินทร์บุรี ปราจีนบุรี 25110 PEA VOLTA บางจาก กบินทร์บุรี (นนทรี) #1,14.04671955,101.62847137,PEA,"
            101.62847137,14.04671955,0
          "
เมืองสมุทรสงคราม,Power: 50 kW<br>Description: 27 หมู่1 ตำบล คลองโคน อำเภอเมืองสมุทรสงคราม สมุทรสงคราม 75000 PEA VOLTA เมืองสมุทรสงคราม #1<br>Latitude: 13.36135006<br>Longitude: 99.94651794<br>Provider: PEA,#icon-1899-DB4436-labelson,50 kW,27 หมู่1 ตำบล คลองโคน อำเภอเมืองสมุทรสงคราม สมุทรสงคราม 75000 PEA VOLTA เมืองสมุทรสงคราม #1,13.36135006,99.94651794,PEA,"
            99.94651794,13.36135006,0
          "
เมืองราชบุรี,Power: 50 kW<br>Description: 86 หมู่ 8 ถ.เพชรเกษม ตำบล เจดีย์หัก อำเภอเมืองราชบุรี ราชบุรี 70000 PEA VOLTA เมืองราชบุรี #2<br>Latitude: 13.53124428<br>Longitude: 99.79300690<br>Provider: PEA,#icon-1899-DB4436-labelson,50 kW,86 หมู่ 8 ถ.เพชรเกษม ตำบล เจดีย์หัก อำเภอเมืองราชบุรี ราชบุรี 70000 PEA VOLTA เมืองราชบุรี #2,13.53124428,99.79300690,PEA,"
            99.7930069,13.53124428,0
          "
บางจาก เมืองชลบุรี (หนองมน),Power: 50 kW<br>Description: 413 ถนนสุขุมวิท ตำบลแสนสุข อำเภอเมืองชลบุรี ชลบุรี 20000 PEA VOLTA บางจาก เมืองชลบุรี (หนองมน) #1<br>Latitude: 13.27200890<br>Longitude: 100.93522644<br>Provider: PEA,#icon-1899-DB4436-labelson,50 kW,413 ถนนสุขุมวิท ตำบลแสนสุข อำเภอเมืองชลบุรี ชลบุรี 20000 PEA VOLTA บางจาก เมืองชลบุรี (หนองมน) #1,13.27200890,100.93522644,PEA,"
            100.93522644,13.2720089,0
          "
บางจาก เมืองฉะเชิงเทรา,Power: 50 kW<br>Description: ตำบล วังตะเคียน อำเภอเมืองฉะเชิงเทรา ฉะเชิงเทรา 24000 PEA VOLTA บางจาก เมืองฉะเชิงเทรา #1<br>Latitude: 13.70581436<br>Longitude: 101.05323792<br>Provider: PEA,#icon-1899-DB4436-labelson,50 kW,ตำบล วังตะเคียน อำเภอเมืองฉะเชิงเทรา ฉะเชิงเทรา 24000 PEA VOLTA บางจาก เมืองฉะเชิงเทรา #1,13.70581436,101.05323792,PEA,"
            101.05323792,13.70581436,0
          "
ชลบุรี,Power: 25 kW<br>Description: ตำบล หนองข้างคอก อำเภอเมืองชลบุรี ชลบุรี 20000 PEA VOLTA ชลบุรี 3<br>Latitude: 13.34035683<br>Longitude: 100.99124146<br>Provider: PEA,#icon-1899-DB4436-labelson,25 kW,ตำบล หนองข้างคอก อำเภอเมืองชลบุรี ชลบุรี 20000 PEA VOLTA ชลบุรี 3,13.34035683,100.99124146,PEA,"
            100.99124146,13.34035683,0
          "
พระนครศรีอยุธยา,Power: 25 kW<br>Description: 60 หมู่ 5 ตำบล ไผ่ลิง อำเภอ พระนครศรีอยุธยา จังหวัด พระนครศรีอยุธยา PEA VOLTA พระนครศรีอยุธยา 2<br>Latitude: 14.35430241<br>Longitude: 100.59719849<br>Provider: PEA,#icon-1899-DB4436-labelson,25 kW,60 หมู่ 5 ตำบล ไผ่ลิง อำเภอ พระนครศรีอยุธยา จังหวัด พระนครศรีอยุธยา PEA VOLTA พระนครศรีอยุธยา 2,14.35430241,100.59719849,PEA,"
            100.59719849,14.35430241,0
          "
ตราด,Power: 25 kW<br>Description: 199 ม. 5 ตำบลวังกระแจะ อำเภอเมืองตราด จังหวัดตราด 23000  PEA VOLTA ตราด<br>Latitude: 12.27341747<br>Longitude: 102.49250793<br>Provider: PEA,#icon-1899-DB4436-labelson,25 kW,199 ม. 5 ตำบลวังกระแจะ อำเภอเมืองตราด จังหวัดตราด 23000  PEA VOLTA ตราด,12.27341747,102.49250793,PEA,"
            102.49250793,12.27341747,0
          "
บ้านโพธิ์,Power: 25 kW<br>Description: 80 หมู่ที่ 1 ถนน บางปะกง - ฉะเชิงเทรา ตำบล คลองประเวศ อำเภอบ้านโพธิ์ ฉะเชิงเทรา 24140 PEA VOLTA บ้านโพธิ์<br>Latitude: 13.62499332<br>Longitude: 101.03292847<br>Provider: PEA,#icon-1899-DB4436-labelson,25 kW,80 หมู่ที่ 1 ถนน บางปะกง - ฉะเชิงเทรา ตำบล คลองประเวศ อำเภอบ้านโพธิ์ ฉะเชิงเทรา 24140 PEA VOLTA บ้านโพธิ์,13.62499332,101.03292847,PEA,"
            101.03292847,13.62499332,0
          "
เกาะพะงัน,Power: 25 kW<br>Description: 101 หมู่ 3 ตำบล บ้านใต้ อำเภอเกาะพะงัน สุราษฎร์ธานี 84280 PEA VOLTA เกาะพะงัน<br>Latitude: 9.70783424<br>Longitude: 99.99252319<br>Provider: PEA,#icon-1899-DB4436-labelson,25 kW,101 หมู่ 3 ตำบล บ้านใต้ อำเภอเกาะพะงัน สุราษฎร์ธานี 84280 PEA VOLTA เกาะพะงัน,9.70783424,99.99252319,PEA,"
            99.99252319,9.70783424,0
          "
เบตง,Power: 25 kW<br>Description: เลขที่ 1 ถ.สโมสร ตำบลเบตง อำเภอเบตง ยะลา 95110 PEA VOLTA เบตง<br>Latitude: 5.77053022<br>Longitude: 101.06825256<br>Provider: PEA,#icon-1899-DB4436-labelson,25 kW,เลขที่ 1 ถ.สโมสร ตำบลเบตง อำเภอเบตง ยะลา 95110 PEA VOLTA เบตง,5.77053022,101.06825256,PEA,"
            101.06825256,5.77053022,0
          "
สอยดาว,Power: 25 kW<br>Description: 222 ตำบล ทรายขาว อำเภอ สอยดาว จันทบุรี 22180 PEA VOLTA สอยดาว<br>Latitude: 13.10176086<br>Longitude: 102.23729706<br>Provider: PEA,#icon-1899-DB4436-labelson,25 kW,222 ตำบล ทรายขาว อำเภอ สอยดาว จันทบุรี 22180 PEA VOLTA สอยดาว,13.10176086,102.23729706,PEA,"
            102.23729706,13.10176086,0
          "
กาญจนบุรี,Power: 25 kW<br>Description: 49 ตำบล ปากแพรก อำเภอเมืองกาญจนบุรี กาญจนบุรี 71000 PEA VOLTA กาญจนบุรี<br>Latitude: 14.02805042<br>Longitude: 99.55176544<br>Provider: PEA,#icon-1899-DB4436-labelson,25 kW,49 ตำบล ปากแพรก อำเภอเมืองกาญจนบุรี กาญจนบุรี 71000 PEA VOLTA กาญจนบุรี,14.02805042,99.55176544,PEA,"
            99.55176544,14.02805042,0
          "
สุพรรณบุรี,Power: 25 kW<br>Description: 188 หมู่1 ตำบลสนามชัย อำเภอเมืองสุพรรณบุณี จังหวัดสุพรรณบุรี 72000 PEA VOLTA สุพรรณบุรี<br>Latitude: 14.51966000<br>Longitude: 100.13065338<br>Provider: PEA,#icon-1899-DB4436-labelson,25 kW,188 หมู่1 ตำบลสนามชัย อำเภอเมืองสุพรรณบุณี จังหวัดสุพรรณบุรี 72000 PEA VOLTA สุพรรณบุรี,14.51966000,100.13065338,PEA,"
            100.13065338,14.51966,0
          "
เมืองพิจิตร,Power: 25 kW<br>Description: ซอย บึงสีไฟ 6 ตำบล ในเมือง อำเภอเมืองพิจิตร พิจิตร 66000 PEA VOLTA เมืองพิจิตร<br>Latitude: 16.43827248<br>Longitude: 100.34598541<br>Provider: PEA,#icon-1899-DB4436-labelson,25 kW,ซอย บึงสีไฟ 6 ตำบล ในเมือง อำเภอเมืองพิจิตร พิจิตร 66000 PEA VOLTA เมืองพิจิตร,16.43827248,100.34598541,PEA,"
            100.34598541,16.43827248,0
          "
ตาก,Power: 25 kW<br>Description: 3 จอมพล ตำบลระแหง อำเภอเมืองตาก ตาก 63000 PEA VOLTA ตาก<br>Latitude: 16.86868668<br>Longitude: 99.12432098<br>Provider: PEA,#icon-1899-DB4436-labelson,25 kW,3 จอมพล ตำบลระแหง อำเภอเมืองตาก ตาก 63000 PEA VOLTA ตาก,16.86868668,99.12432098,PEA,"
            99.12432098,16.86868668,0
          "
ตะพานหิน,Power: 25 kW<br>Description: 119 หมู่ 3 ถนนตะพานหิน-เพชรบูรณ์ ตำบลตะพานหิน อำเภอตะพานหิน จังหวัดพิจิตร 66110 PEA VOLTA ตะพานหิน<br>Latitude: 16.20484924<br>Longitude: 100.47024536<br>Provider: PEA,#icon-1899-DB4436-labelson,25 kW,119 หมู่ 3 ถนนตะพานหิน-เพชรบูรณ์ ตำบลตะพานหิน อำเภอตะพานหิน จังหวัดพิจิตร 66110 PEA VOLTA ตะพานหิน,16.20484924,100.47024536,PEA,"
            100.47024536,16.20484924,0
          "
ขาณุวรลักษบุรี,Power: 25 kW<br>Description: ถ. พหลโยธิน ต.ดอนแตง อำเภอขาณุวรลักษบุรี กำแพงเพชร 62140 PEA VOLTA ขาณุวรลักษบุรี<br>Latitude: 16.02359009<br>Longitude: 99.78053284<br>Provider: PEA,#icon-1899-DB4436-labelson,25 kW,ถ. พหลโยธิน ต.ดอนแตง อำเภอขาณุวรลักษบุรี กำแพงเพชร 62140 PEA VOLTA ขาณุวรลักษบุรี,16.02359009,99.78053284,PEA,"
            99.78053284,16.02359009,0
          "
เพชรบุรี,Power: 25 kW<br>Description: ถ.ราชดำเนิน ตำบล คลองกระแซง อำเภอเมืองเพชรบุรี เพชรบุรี 76000 PEA VOLTA เพชรบุรี<br>Latitude: 13.09834576<br>Longitude: 99.94366455<br>Provider: PEA,#icon-1899-DB4436-labelson,25 kW,ถ.ราชดำเนิน ตำบล คลองกระแซง อำเภอเมืองเพชรบุรี เพชรบุรี 76000 PEA VOLTA เพชรบุรี,13.09834576,99.94366455,PEA,"
            99.94366455,13.09834576,0
          "
โพธาราม,Power: 25 kW<br>Description: 190 ซอย เลิศพาณิชย์ ตำบล โพธาราม อำเภอโพธาราม ราชบุรี 70120 PEA VOLTA โพธาราม<br>Latitude: 13.68953323<br>Longitude: 99.84821320<br>Provider: PEA,#icon-1899-DB4436-labelson,25 kW,190 ซอย เลิศพาณิชย์ ตำบล โพธาราม อำเภอโพธาราม ราชบุรี 70120 PEA VOLTA โพธาราม,13.68953323,99.84821320,PEA,"
            99.8482132,13.68953323,0
          "
จอมบึง,Power: 25 kW<br>Description: 35/2 ถนน ราชบุรี - ผาปก ตำบล จอมบึง อำเภอ จอมบึง ราชบุรี 70150 PEA VOLTA จอมบึง<br>Latitude: 13.62386417<br>Longitude: 99.61400604<br>Provider: PEA,#icon-1899-DB4436-labelson,25 kW,35/2 ถนน ราชบุรี - ผาปก ตำบล จอมบึง อำเภอ จอมบึง ราชบุรี 70150 PEA VOLTA จอมบึง,13.62386417,99.61400604,PEA,"
            99.61400604,13.62386417,0
          "
พระแสง,Power: 25 kW<br>Description: ตำบล อิปัน อำเภอ พระแสง สุราษฎร์ธานี 84210 PEA VOLTA พระแสง<br>Latitude: 8.57079220<br>Longitude: 99.25115967<br>Provider: PEA,#icon-1899-DB4436-labelson,25 kW,ตำบล อิปัน อำเภอ พระแสง สุราษฎร์ธานี 84210 PEA VOLTA พระแสง,8.57079220,99.25115967,PEA,"
            99.25115967,8.5707922,0
          "
หัวไทร,Power: 25 kW<br>Description: 221 หมู่11 ตำบล หัวไทร อำเภอ หัวไทร นครศรีธรรมราช 80170 PEA VOLTA หัวไทร<br>Latitude: 8.04808903<br>Longitude: 100.27180481<br>Provider: PEA,#icon-1899-DB4436-labelson,25 kW,221 หมู่11 ตำบล หัวไทร อำเภอ หัวไทร นครศรีธรรมราช 80170 PEA VOLTA หัวไทร,8.04808903,100.27180481,PEA,"
            100.27180481,8.04808903,0
          "
พัทลุง,Power: 25 kW<br>Description: ตำบล เขาเจียก อำเภอเมืองพัทลุง พัทลุง 93000 PEA VOLTA พัทลุง<br>Latitude: 7.60148478<br>Longitude: 100.03018951<br>Provider: PEA,#icon-1899-DB4436-labelson,25 kW,ตำบล เขาเจียก อำเภอเมืองพัทลุง พัทลุง 93000 PEA VOLTA พัทลุง,7.60148478,100.03018951,PEA,"
            100.03018951,7.60148478,0
          "
อินทร์บุรี,Power: 25 kW<br>Description: 115 หมู่1 ถนนเอเซีย ตำบลน้ำตาล อำเภออินทร์บุรี จังหวัดสิงห์บุรี 16110 Thailand PEA VOLTA อินทร์บุรี<br>Latitude: 15.00669289<br>Longitude: 100.34501648<br>Provider: PEA,#icon-1899-DB4436-labelson,25 kW,115 หมู่1 ถนนเอเซีย ตำบลน้ำตาล อำเภออินทร์บุรี จังหวัดสิงห์บุรี 16110 Thailand PEA VOLTA อินทร์บุรี,15.00669289,100.34501648,PEA,"
            100.34501648,15.00669289,0
          "
พรหมบุรี,Power: 25 kW<br>Description: 66 ตำบล บ้านหม้อ อำเภอพรหมบุรี สิงห์บุรี 16120 PEA VOLTA พรหมบุรี<br>Latitude: 14.76882744<br>Longitude: 100.44991302<br>Provider: PEA,#icon-1899-DB4436-labelson,25 kW,66 ตำบล บ้านหม้อ อำเภอพรหมบุรี สิงห์บุรี 16120 PEA VOLTA พรหมบุรี,14.76882744,100.44991302,PEA,"
            100.44991302,14.76882744,0
          "
บางจาก เมืองกาญจนบุรี,Power: 50 kW<br>Description: ตำบล ปากแพรก อำเภอเมืองกาญจนบุรี กาญจนบุรี 71000 PEA VOLTA บางจาก เมืองกาญจนบุรี #1<br>Latitude: 14.03766346<br>Longitude: 99.57819366<br>Provider: PEA,#icon-1899-DB4436-labelson,50 kW,ตำบล ปากแพรก อำเภอเมืองกาญจนบุรี กาญจนบุรี 71000 PEA VOLTA บางจาก เมืองกาญจนบุรี #1,14.03766346,99.57819366,PEA,"
            99.57819366,14.03766346,0
          "
บางจาก เมืองสุพรรณบุรี,Power: 50 kW<br>Description: ตำบล ท่าระหัด อำเภอเมืองสุพรรณบุรี สุพรรณบุรี 72000 PEA VOLTA บางจาก เมืองสุพรรณบุรี #1<br>Latitude: 14.43198872<br>Longitude: 100.14301300<br>Provider: PEA,#icon-1899-DB4436-labelson,50 kW,ตำบล ท่าระหัด อำเภอเมืองสุพรรณบุรี สุพรรณบุรี 72000 PEA VOLTA บางจาก เมืองสุพรรณบุรี #1,14.43198872,100.14301300,PEA,"
            100.143013,14.43198872,0
          "
บางจาก สองพี่น้อง (ทุ่งคอก),Power: 50 kW<br>Description: ตำบล ทุ่งคอก อำเภอสองพี่น้อง สุพรรณบุรี 72110 PEA VOLTA บางจาก สองพี่น้อง (ทุ่งคอก) #1<br>Latitude: 14.17240334<br>Longitude: 99.95610809<br>Provider: PEA,#icon-1899-DB4436-labelson,50 kW,ตำบล ทุ่งคอก อำเภอสองพี่น้อง สุพรรณบุรี 72110 PEA VOLTA บางจาก สองพี่น้อง (ทุ่งคอก) #1,14.17240334,99.95610809,PEA,"
            99.95610809,14.17240334,0
          "
หาดใหญ่,Power: 25 kW<br>Description: 75 ถนน เพชรเกษม ซอย 15/2 ตำบล หาดใหญ่ อำเภอหาดใหญ่ สงขลา 90110 PEA VOLTA หาดใหญ่<br>Latitude: 7.01746988<br>Longitude: 100.49626923<br>Provider: PEA,#icon-1899-DB4436-labelson,25 kW,75 ถนน เพชรเกษม ซอย 15/2 ตำบล หาดใหญ่ อำเภอหาดใหญ่ สงขลา 90110 PEA VOLTA หาดใหญ่,7.01746988,100.49626923,PEA,"
            100.49626923,7.01746988,0
          "
ม่วงสามสิบ,Power: 25 kW<br>Description: ตำบล ม่วงสามสิบ อำเภอ ม่วงสามสิบ อุบลราชธานี 34140 PEA VOLTA ม่วงสามสิบ<br>Latitude: 15.52629185<br>Longitude: 104.71417236<br>Provider: PEA,#icon-1899-DB4436-labelson,25 kW,ตำบล ม่วงสามสิบ อำเภอ ม่วงสามสิบ อุบลราชธานี 34140 PEA VOLTA ม่วงสามสิบ,15.52629185,104.71417236,PEA,"
            104.71417236,15.52629185,0
          "
เมืองบุรีรัมย์,Power: 25 kW<br>Description: 190 หมู่ 8 ถนนบุรีรัมย์-พุทไธสง ตำบลชุมเห็ด อำเภอเมืองบุรีรัมย์ จังหวัดบุรีรัมย์ รหัสไปรษณีย์ 31000 PEA VOLTA เมืองบุรีรัมย์<br>Latitude: 15.03031445<br>Longitude: 103.10186768<br>Provider: PEA,#icon-1899-DB4436-labelson,25 kW,190 หมู่ 8 ถนนบุรีรัมย์-พุทไธสง ตำบลชุมเห็ด อำเภอเมืองบุรีรัมย์ จังหวัดบุรีรัมย์ รหัสไปรษณีย์ 31000 PEA VOLTA เมืองบุรีรัมย์,15.03031445,103.10186768,PEA,"
            103.10186768,15.03031445,0
          "
เมืองชัยภูมิ,Power: 25 kW<br>Description: 123 หมู่10 ถนนนิเวศรัตน์ ตำบลโพนทอง อำเภอเมืองชัยภูมิ จังหวัดชัยภูมิ 36000 PEA VOLTA เมืองชัยภูมิ<br>Latitude: 15.82796764<br>Longitude: 102.08486938<br>Provider: PEA,#icon-1899-DB4436-labelson,25 kW,123 หมู่10 ถนนนิเวศรัตน์ ตำบลโพนทอง อำเภอเมืองชัยภูมิ จังหวัดชัยภูมิ 36000 PEA VOLTA เมืองชัยภูมิ,15.82796764,102.08486938,PEA,"
            102.08486938,15.82796764,0
          "
เมืองสุรินทร์,Power: 25 kW<br>Description: สาขา 164 9 เทศบาล 4 ตำบล ในเมือง อำเภอเมืองสุรินทร์ สุรินทร์ 32000 PEA VOLTA เมืองสุรินทร์<br>Latitude: 14.90936279<br>Longitude: 103.50759888<br>Provider: PEA,#icon-1899-DB4436-labelson,25 kW,สาขา 164 9 เทศบาล 4 ตำบล ในเมือง อำเภอเมืองสุรินทร์ สุรินทร์ 32000 PEA VOLTA เมืองสุรินทร์,14.90936279,103.50759888,PEA,"
            103.50759888,14.90936279,0
          "
หางดง,Power: 25 kW<br>Description: 197 หมู่ที่ 8 ตำบล หนองแก๋ว อำเภอหางดง เชียงใหม่ 50230 PEA VOLTA หางดง<br>Latitude: 18.68805313<br>Longitude: 98.92817688<br>Provider: PEA,#icon-1899-DB4436-labelson,25 kW,197 หมู่ที่ 8 ตำบล หนองแก๋ว อำเภอหางดง เชียงใหม่ 50230 PEA VOLTA หางดง,18.68805313,98.92817688,PEA,"
            98.92817688,18.68805313,0
          "
แม่ริม,Power: 25 kW<br>Description: 107 ตำบล ริมเหนือ อำเภอแม่ริม เชียงใหม่ 50180 PEA VOLTA แม่ริม<br>Latitude: 18.92609978<br>Longitude: 98.93927765<br>Provider: PEA,#icon-1899-DB4436-labelson,25 kW,107 ตำบล ริมเหนือ อำเภอแม่ริม เชียงใหม่ 50180 PEA VOLTA แม่ริม,18.92609978,98.93927765,PEA,"
            98.93927765,18.92609978,0
          "
สันทราย,Power: 25 kW<br>Description: 151 หมู่ 4 ถนนสันทราย-พร้าว ตำบลป่าไผ่ อำเภอสันทราย จังหวัดเชียงใหม่ 50210 PEA VOLTA สันทราย<br>Latitude: 18.87583351<br>Longitude: 99.04486084<br>Provider: PEA,#icon-1899-DB4436-labelson,25 kW,151 หมู่ 4 ถนนสันทราย-พร้าว ตำบลป่าไผ่ อำเภอสันทราย จังหวัดเชียงใหม่ 50210 PEA VOLTA สันทราย,18.87583351,99.04486084,PEA,"
            99.04486084,18.87583351,0
          "
นครราชสีมา (หัวทะเล),Power: 25 kW<br>Description: หมู่ที่ 1 69 ถนน เพชรมาตุคลา ตำบล พะเนา อำเภอเมืองนครราชสีมา นครราชสีมา 30000 PEA VOLTA นครราชสีมา 2 (หัวทะเล)<br>Latitude: 14.98846817<br>Longitude: 102.19113922<br>Provider: PEA,#icon-1899-DB4436-labelson,25 kW,หมู่ที่ 1 69 ถนน เพชรมาตุคลา ตำบล พะเนา อำเภอเมืองนครราชสีมา นครราชสีมา 30000 PEA VOLTA นครราชสีมา 2 (หัวทะเล),14.98846817,102.19113922,PEA,"
            102.19113922,14.98846817,0
          "
บางเลน,Power: 25 kW<br>Description: 1/1 หมู่ 6 ถนนดอนตูม-บางเลน ต.บางเลน อ.บางเลน นครปฐม 73130 PEA VOLTA บางเลน<br>Latitude: 14.00584126<br>Longitude: 100.17254639<br>Provider: PEA,#icon-1899-DB4436-labelson,25 kW,1/1 หมู่ 6 ถนนดอนตูม-บางเลน ต.บางเลน อ.บางเลน นครปฐม 73130 PEA VOLTA บางเลน,14.00584126,100.17254639,PEA,"
            100.17254639,14.00584126,0
          "
นครนายก,Power: 25 kW<br>Description: 138 หมู่ที่ 5 ตำบลบ้านใหญ่ อำเภอเมืองนครนายก นครนายก 26000 PEA VOLTA นครนายก<br>Latitude: 14.21732998<br>Longitude: 101.22705078<br>Provider: PEA,#icon-1899-DB4436-labelson,25 kW,138 หมู่ที่ 5 ตำบลบ้านใหญ่ อำเภอเมืองนครนายก นครนายก 26000 PEA VOLTA นครนายก,14.21732998,101.22705078,PEA,"
            101.22705078,14.21732998,0
          "
ปทุมธานี,Power: 25 kW<br>Description: 21/42 หมู่3 ถนน รังสิต-ปทุมธานี ตำบล บางพูน อำเภอเมืองปทุมธานี ปทุมธานี 12000 PEA VOLTA ปทุมธานี 2<br>Latitude: 13.99131203<br>Longitude: 100.58168030<br>Provider: PEA,#icon-1899-DB4436-labelson,25 kW,21/42 หมู่3 ถนน รังสิต-ปทุมธานี ตำบล บางพูน อำเภอเมืองปทุมธานี ปทุมธานี 12000 PEA VOLTA ปทุมธานี 2,13.99131203,100.58168030,PEA,"
            100.5816803,13.99131203,0
          "
ธัญบุรี,Power: 25 kW<br>Description: 41/5 หมู่2 ถ.รังสิต-นครนายก ต.บึงยี่โถ อ.ธัญบุรี จ.ปธุมธานี 12130 PEA VOLTA ธัญบุรี<br>Latitude: 13.99793816<br>Longitude: 100.67383575<br>Provider: PEA,#icon-1899-DB4436-labelson,25 kW,41/5 หมู่2 ถ.รังสิต-นครนายก ต.บึงยี่โถ อ.ธัญบุรี จ.ปธุมธานี 12130 PEA VOLTA ธัญบุรี,13.99793816,100.67383575,PEA,"
            100.67383575,13.99793816,0
          "
บึงสามพัน,Power: 25 kW<br>Description: ตำบล ซับสมอทอด อำเภอบึงสามพัน เพชรบูรณ์ 67160 PEA VOLTA บึงสามพัน<br>Latitude: 15.81141567<br>Longitude: 101.00747681<br>Provider: PEA,#icon-1899-DB4436-labelson,25 kW,ตำบล ซับสมอทอด อำเภอบึงสามพัน เพชรบูรณ์ 67160 PEA VOLTA บึงสามพัน,15.81141567,101.00747681,PEA,"
            101.00747681,15.81141567,0
          "
ละงู,Power: 25 kW<br>Description: หมู่ที่ 1 323 ตำบล กำแพง อำเภอ ละงู สตูล 91110 PEA VOLTA ละงู<br>Latitude: 6.90512514<br>Longitude: 99.78910065<br>Provider: PEA,#icon-1899-DB4436-labelson,25 kW,หมู่ที่ 1 323 ตำบล กำแพง อำเภอ ละงู สตูล 91110 PEA VOLTA ละงู,6.90512514,99.78910065,PEA,"
            99.78910065,6.90512514,0
          "
เมืองชัยนาท,Power: 50 kW<br>Description: 345/6 ถ.พหลโยธิน ตำบล บ้านกล้วย อำเภอเมืองชัยนาท ชัยนาท 17000 PEA VOLTA เมืองชัยนาท #2<br>Latitude: 15.19277000<br>Longitude: 100.13533783<br>Provider: PEA,#icon-1899-DB4436-labelson,50 kW,345/6 ถ.พหลโยธิน ตำบล บ้านกล้วย อำเภอเมืองชัยนาท ชัยนาท 17000 PEA VOLTA เมืองชัยนาท #2,15.19277000,100.13533783,PEA,"
            100.13533783,15.19277,0
          "
เวียงสา,Power: 50 kW<br>Description: 301 หมู่ที่ 10 ตำบล กลางเวียง อำเภอเวียงสา น่าน 55110 PEA VOLTA เวียงสา #1<br>Latitude: 18.56295776<br>Longitude: 100.72535706<br>Provider: PEA,#icon-1899-DB4436-labelson,50 kW,301 หมู่ที่ 10 ตำบล กลางเวียง อำเภอเวียงสา น่าน 55110 PEA VOLTA เวียงสา #1,18.56295776,100.72535706,PEA,"
            100.72535706,18.56295776,0
          "
ปัว,Power: 50 kW<br>Description: 292 ม.1 ต.ปัว อ.ปัว จ.น่าน 55120 PEA VOLTA ปัว #1<br>Latitude: 19.18110466<br>Longitude: 100.89305878<br>Provider: PEA,#icon-1899-DB4436-labelson,50 kW,292 ม.1 ต.ปัว อ.ปัว จ.น่าน 55120 PEA VOLTA ปัว #1,19.18110466,100.89305878,PEA,"
            100.89305878,19.18110466,0
          "
เมืองอุตรดิตถ์,Power: 50 kW<br>Description: 174 บรมอาสน์ ถนน บรมอาสน์ ตำบล ท่าอิฐ อำเภอเมืองอุตรดิตถ์ อุตรดิตถ์ 53000 PEA VOLTA เมืองอุตรดิตถ์ #1<br>Latitude: 17.60806847<br>Longitude: 100.07946777<br>Provider: PEA,#icon-1899-DB4436-labelson,50 kW,174 บรมอาสน์ ถนน บรมอาสน์ ตำบล ท่าอิฐ อำเภอเมืองอุตรดิตถ์ อุตรดิตถ์ 53000 PEA VOLTA เมืองอุตรดิตถ์ #1,17.60806847,100.07946777,PEA,"
            100.07946777,17.60806847,0
          "
เมืองน่าน,Power: 50 kW<br>Description: 82/15 ถนน มหายศ ตำบล ในเวียง อำเภอเมืองน่าน น่าน 55000 PEA VOLTA เมืองน่าน #1<br>Latitude: 18.79540062<br>Longitude: 100.78266144<br>Provider: PEA,#icon-1899-DB4436-labelson,50 kW,82/15 ถนน มหายศ ตำบล ในเวียง อำเภอเมืองน่าน น่าน 55000 PEA VOLTA เมืองน่าน #1,18.79540062,100.78266144,PEA,"
            100.78266144,18.79540062,0
          "
บางจาก โนนสูง,Power: 50 kW<br>Description: ตำบล ดอนหวาย อำเภอโนนสูง นครราชสีมา 30160 PEA VOLTA บางจาก โนนสูง #2<br>Latitude: 15.09766102<br>Longitude: 102.27072144<br>Provider: PEA,#icon-1899-DB4436-labelson,50 kW,ตำบล ดอนหวาย อำเภอโนนสูง นครราชสีมา 30160 PEA VOLTA บางจาก โนนสูง #2,15.09766102,102.27072144,PEA,"
            102.27072144,15.09766102,0
          "
สันกำแพง,Power: 25 kW<br>Description: 93 ถนน เชียงใหม่- ดอยสะเก็ด ตำบล สันกำแพง อำเภอสันกำแพง เชียงใหม่ 50130 PEA VOLTA สันกำแพง<br>Latitude: 18.75284576<br>Longitude: 99.10469055<br>Provider: PEA,#icon-1899-DB4436-labelson,25 kW,93 ถนน เชียงใหม่- ดอยสะเก็ด ตำบล สันกำแพง อำเภอสันกำแพง เชียงใหม่ 50130 PEA VOLTA สันกำแพง,18.75284576,99.10469055,PEA,"
            99.10469055,18.75284576,0
          "
บางจาก เมืองบุรีรัมย์ (โฮมโปร),Power: 50 kW<br>Description: 500 หมู่9 ตำบล อิสาณ อำเภอเมืองบุรีรัมย์ บุรีรัมย์ 31000 PEA VOLTA บางจาก เมืองบุรีรัมย์ (โฮมโปร) #1<br>Latitude: 14.98336124<br>Longitude: 103.07962799<br>Provider: PEA,#icon-1899-DB4436-labelson,50 kW,500 หมู่9 ตำบล อิสาณ อำเภอเมืองบุรีรัมย์ บุรีรัมย์ 31000 PEA VOLTA บางจาก เมืองบุรีรัมย์ (โฮมโปร) #1,14.98336124,103.07962799,PEA,"
            103.07962799,14.98336124,0
          "
บางจาก บายพาสโคราช (กม.11),Power: 50 kW<br>Description: ตำบล หนองกระทุ่ม อำเภอเมืองนครราชสีมา นครราชสีมา 30000 PEA VOLTA บางจาก บายพาสโคราช (กม.11) #1<br>Latitude: 15.02720547<br>Longitude: 102.08203125<br>Provider: PEA,#icon-1899-DB4436-labelson,50 kW,ตำบล หนองกระทุ่ม อำเภอเมืองนครราชสีมา นครราชสีมา 30000 PEA VOLTA บางจาก บายพาสโคราช (กม.11) #1,15.02720547,102.08203125,PEA,"
            102.08203125,15.02720547,0
          "
พิบูลมังสาหาร,Power: 25 kW<br>Description: ตำบล กุดชมภู อำเภอ พิบูลมังสาหาร อุบลราชธานี 34110 PEA VOLTA พิบูลมังสาหาร<br>Latitude: 15.23124886<br>Longitude: 105.23967743<br>Provider: PEA,#icon-1899-DB4436-labelson,25 kW,ตำบล กุดชมภู อำเภอ พิบูลมังสาหาร อุบลราชธานี 34110 PEA VOLTA พิบูลมังสาหาร,15.23124886,105.23967743,PEA,"
            105.23967743,15.23124886,0
          "
เขื่องใน,Power: 25 kW<br>Description: ตำบล ยางขี้นก อำเภอ เขื่องใน อุบลราชธานี 34150 PEA VOLTA เขื่องใน<br>Latitude: 15.42167282<br>Longitude: 104.54030609<br>Provider: PEA,#icon-1899-DB4436-labelson,25 kW,ตำบล ยางขี้นก อำเภอ เขื่องใน อุบลราชธานี 34150 PEA VOLTA เขื่องใน,15.42167282,104.54030609,PEA,"
            104.54030609,15.42167282,0
          "
นครปฐม,Power: 25 kW<br>Description: 242/15 ถนน 25 มกรา ตําบล พระปฐมเจดีย์ อําเภอเมืองนครปฐม จังหวัดนครปฐม 73000 PEA VOLTA นครปฐม<br>Latitude: 13.82365704<br>Longitude: 100.06893158<br>Provider: PEA,#icon-1899-DB4436-labelson,25 kW,242/15 ถนน 25 มกรา ตําบล พระปฐมเจดีย์ อําเภอเมืองนครปฐม จังหวัดนครปฐม 73000 PEA VOLTA นครปฐม,13.82365704,100.06893158,PEA,"
            100.06893158,13.82365704,0
          "
มหาชนะชัย,Power: 25 kW<br>Description: 129 หมู่6 ตำบล คูเมือง อำเภอ มหาชนะชัย ยโสธร 35130 PEA VOLTA มหาชนะชัย<br>Latitude: 15.49993706<br>Longitude: 104.21760559<br>Provider: PEA,#icon-1899-DB4436-labelson,25 kW,129 หมู่6 ตำบล คูเมือง อำเภอ มหาชนะชัย ยโสธร 35130 PEA VOLTA มหาชนะชัย,15.49993706,104.21760559,PEA,"
            104.21760559,15.49993706,0
          "
อุดรธานี,Power: 25 kW<br>Description: 123 หมู่ 5 ถนน ช้างเผือก ตำบล นาดี อำเภอเมืองอุดรธานี อุดรธานี 41000 PEA VOLTA อุดรธานี<br>Latitude: 17.40585136<br>Longitude: 102.78028107<br>Provider: PEA,#icon-1899-DB4436-labelson,25 kW,123 หมู่ 5 ถนน ช้างเผือก ตำบล นาดี อำเภอเมืองอุดรธานี อุดรธานี 41000 PEA VOLTA อุดรธานี,17.40585136,102.78028107,PEA,"
            102.78028107,17.40585136,0
          "
บ้านไผ่,Power: 25 kW<br>Description: 65 หมู่ 2 ถ. มิตรภาพ ตำบล บ้านไผ่ ขอนแก่น 40110 PEA VOLTA บ้านไผ่<br>Latitude: 16.05342484<br>Longitude: 102.71610260<br>Provider: PEA,#icon-1899-DB4436-labelson,25 kW,65 หมู่ 2 ถ. มิตรภาพ ตำบล บ้านไผ่ ขอนแก่น 40110 PEA VOLTA บ้านไผ่,16.05342484,102.71610260,PEA,"
            102.7161026,16.05342484,0
          "
สวนผึ้ง,Power: 25 kW<br>Description: 174 หมู่5 ตำบลท่าเคย อำเภอสวนผึ้ง จังหวัดราชบุรี 70180 PEA VOLTA สวนผึ้ง<br>Latitude: 13.54117107<br>Longitude: 99.40319061<br>Provider: PEA,#icon-1899-DB4436-labelson,25 kW,174 หมู่5 ตำบลท่าเคย อำเภอสวนผึ้ง จังหวัดราชบุรี 70180 PEA VOLTA สวนผึ้ง,13.54117107,99.40319061,PEA,"
            99.40319061,13.54117107,0
          "
น้ำพอง,Power: 25 kW<br>Description: ตำบล วังชัย อำเภอน้ำพอง ขอนแก่น 40140 PEA VOLTA น้ำพอง<br>Latitude: 16.71722794<br>Longitude: 102.86939240<br>Provider: PEA,#icon-1899-DB4436-labelson,25 kW,ตำบล วังชัย อำเภอน้ำพอง ขอนแก่น 40140 PEA VOLTA น้ำพอง,16.71722794,102.86939240,PEA,"
            102.8693924,16.71722794,0
          "
ขอนแก่น,Power: 25 kW<br>Description: 44 ถนนกสิกรทุ่งสร้าง ตำบลในเมือง อำเภอเมืองขอนแก่น ขอนแก่น 40000 PEA VOLTA ขอนแก่น<br>Latitude: 16.44115829<br>Longitude: 102.84038544<br>Provider: PEA,#icon-1899-DB4436-labelson,25 kW,44 ถนนกสิกรทุ่งสร้าง ตำบลในเมือง อำเภอเมืองขอนแก่น ขอนแก่น 40000 PEA VOLTA ขอนแก่น,16.44115829,102.84038544,PEA,"
            102.84038544,16.44115829,0
          "
สว่างแดนดิน,Power: 50 kW<br>Description: 22 ตำบล สว่างแดนดิน อำเภอสว่างแดนดิน สกลนคร 47110 PEA VOLTA สว่างแดนดิน #1<br>Latitude: 17.46825790<br>Longitude: 103.49375153<br>Provider: PEA,#icon-1899-DB4436-labelson,50 kW,22 ตำบล สว่างแดนดิน อำเภอสว่างแดนดิน สกลนคร 47110 PEA VOLTA สว่างแดนดิน #1,17.46825790,103.49375153,PEA,"
            103.49375153,17.4682579,0
          "
เกาะสมุย,Power: 25 kW<br>Description: ตำบล อ่างทอง อำเภอเกาะสมุย สุราษฎร์ธานี 84140 PEA VOLTA เกาะสมุย<br>Latitude: 9.52032089<br>Longitude: 99.93880463<br>Provider: PEA,#icon-1899-DB4436-labelson,25 kW,ตำบล อ่างทอง อำเภอเกาะสมุย สุราษฎร์ธานี 84140 PEA VOLTA เกาะสมุย,9.52032089,99.93880463,PEA,"
            99.93880463,9.52032089,0
          "
แม่สะเรียง,Power: 50 kW<br>Description: 255/33 ตำบล บ้านกาด อำเภอแม่สะเรียง แม่ฮ่องสอน 58110 PEA VOLTA แม่สะเรียง #2<br>Latitude: 18.18303680<br>Longitude: 97.93423462<br>Provider: PEA,#icon-1899-DB4436-labelson,50 kW,255/33 ตำบล บ้านกาด อำเภอแม่สะเรียง แม่ฮ่องสอน 58110 PEA VOLTA แม่สะเรียง #2,18.18303680,97.93423462,PEA,"
            97.93423462,18.1830368,0
          "
เมืองอุทัยธานี,Power: 50 kW<br>Description: 228 ซอย ตั้งใจงาม ตำบล น้ำซึม อำเภอเมืองอุทัยธานี อุทัยธานี 61000 PEA VOLTA เมืองอุทัยธานี #2<br>Latitude: 15.36762238<br>Longitude: 100.01343536<br>Provider: PEA,#icon-1899-DB4436-labelson,50 kW,228 ซอย ตั้งใจงาม ตำบล น้ำซึม อำเภอเมืองอุทัยธานี อุทัยธานี 61000 PEA VOLTA เมืองอุทัยธานี #2,15.36762238,100.01343536,PEA,"
            100.01343536,15.36762238,0
          "
ปากคาด,Power: 50 kW<br>Description: ถนนชยางกูร ตำบล ปากคาด อำเภอ ปากคาด บึงกาฬ 38220 PEA VOLTA ปากคาด #2<br>Latitude: 18.31761932<br>Longitude: 103.31438446<br>Provider: PEA,#icon-1899-DB4436-labelson,50 kW,ถนนชยางกูร ตำบล ปากคาด อำเภอ ปากคาด บึงกาฬ 38220 PEA VOLTA ปากคาด #2,18.31761932,103.31438446,PEA,"
            103.31438446,18.31761932,0
          "
หนองไผ่,Power: 50 kW<br>Description: 999/1 หมู่ 3 ถนน สระบุรี-หล่มสัก ตำบล หนองไผ่ อำเภอหนองไผ่ เพชรบูรณ์ 67140 PEA VOLTA หนองไผ่ #2<br>Latitude: 15.99513721<br>Longitude: 101.06504822<br>Provider: PEA,#icon-1899-DB4436-labelson,50 kW,999/1 หมู่ 3 ถนน สระบุรี-หล่มสัก ตำบล หนองไผ่ อำเภอหนองไผ่ เพชรบูรณ์ 67140 PEA VOLTA หนองไผ่ #2,15.99513721,101.06504822,PEA,"
            101.06504822,15.99513721,0
          "
เมืองบึงกาฬ,Power: 50 kW<br>Description: ตำบล วิศิษฐ์ อำเภอเมืองบึงกาฬ บึงกาฬ 38000 PEA VOLTA เมืองบึงกาฬ #2<br>Latitude: 18.32321548<br>Longitude: 103.63355255<br>Provider: PEA,#icon-1899-DB4436-labelson,50 kW,ตำบล วิศิษฐ์ อำเภอเมืองบึงกาฬ บึงกาฬ 38000 PEA VOLTA เมืองบึงกาฬ #2,18.32321548,103.63355255,PEA,"
            103.63355255,18.32321548,0
          "
เมืองหนองบัวลำภู,"Power: 50 kW<br>Description: 255 หมู่ 10, ถนนอุดร - เลย, ตำบลลำภู อำเภอเมืองหนองบัวลำภู จังหวัดหนองบัวลำภู, 39000 PEA VOLTA เมืองหนองบัวลำภู #2<br>Latitude: 17.21117020<br>Longitude: 102.45436096<br>Provider: PEA",#icon-1899-DB4436-labelson,50 kW,"255 หมู่ 10, ถนนอุดร - เลย, ตำบลลำภู อำเภอเมืองหนองบัวลำภู จังหวัดหนองบัวลำภู, 39000 PEA VOLTA เมืองหนองบัวลำภู #2",17.21117020,102.45436096,PEA,"
            102.45436096,17.2111702,0
          "
ตะกั่วป่า,Power: 50 kW<br>Description: 23/19 ถนน เพชรเกษม หมู่ 1 โคกเคียน อำเภอตะกั่วป่า พังงา 82110 PEA VOLTA ตะกั่วป่า #1<br>Latitude: 8.87156200<br>Longitude: 98.36369324<br>Provider: PEA,#icon-1899-DB4436-labelson,50 kW,23/19 ถนน เพชรเกษม หมู่ 1 โคกเคียน อำเภอตะกั่วป่า พังงา 82110 PEA VOLTA ตะกั่วป่า #1,8.87156200,98.36369324,PEA,"
            98.36369324,8.871562,0
          "
บางจาก เมืองชัยภูมิ,Power: 50 kW<br>Description: ตำบล หนองนาแซง อำเภอเมืองชัยภูมิ ชัยภูมิ 36000 PEA VOLTA บางจาก เมืองชัยภูมิ #2<br>Latitude: 15.77116680<br>Longitude: 102.02561188<br>Provider: PEA,#icon-1899-DB4436-labelson,50 kW,ตำบล หนองนาแซง อำเภอเมืองชัยภูมิ ชัยภูมิ 36000 PEA VOLTA บางจาก เมืองชัยภูมิ #2,15.77116680,102.02561188,PEA,"
            102.02561188,15.7711668,0
          "
บางจาก เมืองนครพนม,Power: 50 kW<br>Description: ตำบล กุรุคุ อำเภอเมืองนครพนม นครพนม 48000 PEA VOLTA บางจาก เมืองนครพนม #2<br>Latitude: 17.32114983<br>Longitude: 104.55808258<br>Provider: PEA,#icon-1899-DB4436-labelson,50 kW,ตำบล กุรุคุ อำเภอเมืองนครพนม นครพนม 48000 PEA VOLTA บางจาก เมืองนครพนม #2,17.32114983,104.55808258,PEA,"
            104.55808258,17.32114983,0
          "
บางจาก เมืองอุดรธานี (บ้านขาว),Power: 50 kW<br>Description: ตำบล บ้านขาว อำเภอเมืองอุดรธานี อุดรธานี 41000 PEA VOLTA บางจาก เมืองอุดรธานี (บ้านขาว) #1<br>Latitude: 17.51766777<br>Longitude: 102.79991150<br>Provider: PEA,#icon-1899-DB4436-labelson,50 kW,ตำบล บ้านขาว อำเภอเมืองอุดรธานี อุดรธานี 41000 PEA VOLTA บางจาก เมืองอุดรธานี (บ้านขาว) #1,17.51766777,102.79991150,PEA,"
            102.7999115,17.51766777,0
          "
บางจาก เมืองอุดรธานี (สนามบิน),Power: 50 kW<br>Description: ตำบลเชียงพิณ อำเภอเมืองอุดรธานี อุดรธานี 41000 PEA VOLTA บางจาก เมืองอุดรธานี (สนามบิน) #1<br>Latitude: 17.39340210<br>Longitude: 102.76606750<br>Provider: PEA,#icon-1899-DB4436-labelson,50 kW,ตำบลเชียงพิณ อำเภอเมืองอุดรธานี อุดรธานี 41000 PEA VOLTA บางจาก เมืองอุดรธานี (สนามบิน) #1,17.39340210,102.76606750,PEA,"
            102.7660675,17.3934021,0
          "
บางจาก บายพาสสุราษฎร์ (กม.5),Power: 50 kW<br>Description: ตำบลมะขามเตี้ย อำเภอเมืองสุราษฎร์ธานี สุราษฎร์ธานี 84000 PEA VOLTA บางจาก บายพาสสุราษฎร์ (กม.5) #1<br>Latitude: 9.11515427<br>Longitude: 99.34633636<br>Provider: PEA,#icon-1899-DB4436-labelson,50 kW,ตำบลมะขามเตี้ย อำเภอเมืองสุราษฎร์ธานี สุราษฎร์ธานี 84000 PEA VOLTA บางจาก บายพาสสุราษฎร์ (กม.5) #1,9.11515427,99.34633636,PEA,"
            99.34633636,9.11515427,0
          "
บางจาก ปราสาท,Power: 50 kW<br>Description: ตำบล ตานี อำเภอปราสาท สุรินทร์ 32140 PEA VOLTA บางจาก ปราสาท #1<br>Latitude: 14.62068367<br>Longitude: 103.27776337<br>Provider: PEA,#icon-1899-DB4436-labelson,50 kW,ตำบล ตานี อำเภอปราสาท สุรินทร์ 32140 PEA VOLTA บางจาก ปราสาท #1,14.62068367,103.27776337,PEA,"
            103.27776337,14.62068367,0
          "
บางจาก สิชล,Power: 50 kW<br>Description: 3/1 หมู่ที่ 10 ถ. สุราษธานี - นครศรีธรรมราช ตำบล เปลี่ยน อำเภอ สิชล นครศรีธรรมราช 80120 PEA VOLTA บางจาก สิชล #1<br>Latitude: 8.84643841<br>Longitude: 99.90041351<br>Provider: PEA,#icon-1899-DB4436-labelson,50 kW,3/1 หมู่ที่ 10 ถ. สุราษธานี - นครศรีธรรมราช ตำบล เปลี่ยน อำเภอ สิชล นครศรีธรรมราช 80120 PEA VOLTA บางจาก สิชล #1,8.84643841,99.90041351,PEA,"
            99.90041351,8.84643841,0
          "
บางจาก อ่าวลึก,Power: 50 kW<br>Description: ตำบล อ่าวลึกเหนือ อำเภอ อ่าวลึก กระบี่ 81110 PEA VOLTA บางจาก อ่าวลึก #2<br>Latitude: 8.36372757<br>Longitude: 98.75108337<br>Provider: PEA,#icon-1899-DB4436-labelson,50 kW,ตำบล อ่าวลึกเหนือ อำเภอ อ่าวลึก กระบี่ 81110 PEA VOLTA บางจาก อ่าวลึก #2,8.36372757,98.75108337,PEA,"
            98.75108337,8.36372757,0
          "
พรรณานิคม,Power: 50 kW<br>Description: ตำบล ช้างมิ่ง อำเภอ พรรณานิคม สกลนคร 47130 PEA VOLTA พรรณานิคม #1<br>Latitude: 17.36588669<br>Longitude: 103.82588196<br>Provider: PEA,#icon-1899-DB4436-labelson,50 kW,ตำบล ช้างมิ่ง อำเภอ พรรณานิคม สกลนคร 47130 PEA VOLTA พรรณานิคม #1,17.36588669,103.82588196,PEA,"
            103.82588196,17.36588669,0
          "
บางจาก บางเลน,Power: 50 kW<br>Description: 9 /2 ตำบลบางภาษี อำเภอบางเลน นครปฐม 73130 PEA VOLTA บางจาก บางเลน #2<br>Latitude: 14.01179504<br>Longitude: 100.21183777<br>Provider: PEA,#icon-1899-DB4436-labelson,50 kW,9 /2 ตำบลบางภาษี อำเภอบางเลน นครปฐม 73130 PEA VOLTA บางจาก บางเลน #2,14.01179504,100.21183777,PEA,"
            100.21183777,14.01179504,0
          "
คาลเท็กซ์ สาขาน้ำมันดาวพนม,Power: 25 kW<br>Description: 654/5 หมู่ 1 ตำบลพนมสารคาม อำเภอพนมสารคาม จังหวัดฉะเชิงเทรา 24120 (เครือข่าย PEA VOLTA) คาลเท็กซ์ สาขาน้ำมันดาวพนม (เครือข่าย PEA VOLTA)<br>Latitude: 13.74804211<br>Longitude: 101.35907745<br>Provider: PEA,#icon-1899-DB4436-labelson,25 kW,654/5 หมู่ 1 ตำบลพนมสารคาม อำเภอพนมสารคาม จังหวัดฉะเชิงเทรา 24120 (เครือข่าย PEA VOLTA) คาลเท็กซ์ สาขาน้ำมันดาวพนม (เครือข่าย PEA VOLTA),13.74804211,101.35907745,PEA,"
            101.35907745,13.74804211,0
          "
บางจาก บางละมุง กม.149,Power: 50 kW<br>Description: ชลบุรี-พัทยา ตำบล โป่ง อำเภอบางละมุง ชลบุรี 20150 PEA VOLTA บางจาก บางละมุง กม.149 #2<br>Latitude: 12.89881039<br>Longitude: 100.89715576<br>Provider: PEA,#icon-1899-DB4436-labelson,50 kW,ชลบุรี-พัทยา ตำบล โป่ง อำเภอบางละมุง ชลบุรี 20150 PEA VOLTA บางจาก บางละมุง กม.149 #2,12.89881039,100.89715576,PEA,"
            100.89715576,12.89881039,0
          "
7-11 บาลีฮาย,Power: 360 kW<br>Description: 27/7 พัทยาใต้ 24 เมืองพัทยา อำเภอบางละมุง ชลบุรี 20150 PEA VOLTA 7-Eleven บาลีฮาย<br>Latitude: 12.92469692<br>Longitude: 100.86745453<br>Provider: PEA,#icon-1899-DB4436-labelson,360 kW,27/7 พัทยาใต้ 24 เมืองพัทยา อำเภอบางละมุง ชลบุรี 20150 PEA VOLTA 7-Eleven บาลีฮาย,12.92469692,100.86745453,PEA,"
            100.86745453,12.92469692,0
          "
กุยบุรี,Power: 50 kW<br>Description: ตำบลสามกระทาย อำเภอกุยบุรี ประจวบคีรีขันธ์ 77150 PEA VOLTA กุยบุรี #2<br>Latitude: 12.11046505<br>Longitude: 99.85279083<br>Provider: PEA,#icon-1899-DB4436-labelson,50 kW,ตำบลสามกระทาย อำเภอกุยบุรี ประจวบคีรีขันธ์ 77150 PEA VOLTA กุยบุรี #2,12.11046505,99.85279083,PEA,"
            99.85279083,12.11046505,0
          "
เมืองมุกดาหาร,"Power: 50 kW<br>Description: 106, ถนนเมืองใหม่, ตำบลมุกดาหาร อำเภอเมืองมุกดาหาร จังหวัดมุกดาหาร, 49000 PEA VOLTA เมืองมุกดาหาร #2<br>Latitude: 16.54371452<br>Longitude: 104.69395447<br>Provider: PEA",#icon-1899-DB4436-labelson,50 kW,"106, ถนนเมืองใหม่, ตำบลมุกดาหาร อำเภอเมืองมุกดาหาร จังหวัดมุกดาหาร, 49000 PEA VOLTA เมืองมุกดาหาร #2",16.54371452,104.69395447,PEA,"
            104.69395447,16.54371452,0
          "
บางจาก วังน้อย กม.71,Power: 50 kW<br>Description: ถ. พหลโยธิน ตำบล ชะแมบ อำเภอวังน้อย จังหวัดพระนครศรีอยุธยา 13170 PEA VOLTA บางจาก วังน้อย กม.71 #1<br>Latitude: 14.25499630<br>Longitude: 100.76755524<br>Provider: PEA,#icon-1899-DB4436-labelson,50 kW,ถ. พหลโยธิน ตำบล ชะแมบ อำเภอวังน้อย จังหวัดพระนครศรีอยุธยา 13170 PEA VOLTA บางจาก วังน้อย กม.71 #1,14.25499630,100.76755524,PEA,"
            100.76755524,14.2549963,0
          "
เมืองปัตตานี,Power: 50 kW<br>Description: ตำบล รูสะมิแล อำเภอเมืองปัตตานี ปัตตานี 94000 PEA VOLTA เมืองปัตตานี #2<br>Latitude: 6.88649607<br>Longitude: 101.24562073<br>Provider: PEA,#icon-1899-DB4436-labelson,50 kW,ตำบล รูสะมิแล อำเภอเมืองปัตตานี ปัตตานี 94000 PEA VOLTA เมืองปัตตานี #2,6.88649607,101.24562073,PEA,"
            101.24562073,6.88649607,0
          "
บางจาก เมืองนราธิวาส,Power: 50 kW<br>Description: ตำบล ลำภู อำเภอเมืองนราธิวาส นราธิวาส 96000 PEA VOLTA บางจาก เมืองนราธิวาส #2<br>Latitude: 6.40916204<br>Longitude: 101.79682922<br>Provider: PEA,#icon-1899-DB4436-labelson,50 kW,ตำบล ลำภู อำเภอเมืองนราธิวาส นราธิวาส 96000 PEA VOLTA บางจาก เมืองนราธิวาส #2,6.40916204,101.79682922,PEA,"
            101.79682922,6.40916204,0
          "
บางจาก เขาพนม,Power: 50 kW<br>Description: ตำบล พรุเตียว อำเภอ เขาพนม กระบี่ 81140 PEA VOLTA บางจาก เขาพนม #1<br>Latitude: 8.26574326<br>Longitude: 99.09516907<br>Provider: PEA,#icon-1899-DB4436-labelson,50 kW,ตำบล พรุเตียว อำเภอ เขาพนม กระบี่ 81140 PEA VOLTA บางจาก เขาพนม #1,8.26574326,99.09516907,PEA,"
            99.09516907,8.26574326,0
          "
เมืองยะลา,Power: 50 kW<br>Description: ตำบล สะเตงนอก อำเภอเมืองยะลา ยะลา 95000 PEA VOLTA เมืองยะลา #1<br>Latitude: 6.51528406<br>Longitude: 101.27098083<br>Provider: PEA,#icon-1899-DB4436-labelson,50 kW,ตำบล สะเตงนอก อำเภอเมืองยะลา ยะลา 95000 PEA VOLTA เมืองยะลา #1,6.51528406,101.27098083,PEA,"
            101.27098083,6.51528406,0
          "
บางจาก โพนทอง,Power: 50 kW<br>Description: 171 หมู่ 2 ตำบลสระนกแก้ว อำเภอ โพนทอง ร้อยเอ็ด 45110 PEA VOLTA บางจาก โพนทอง #2<br>Latitude: 16.29487610<br>Longitude: 103.97618866<br>Provider: PEA,#icon-1899-DB4436-labelson,50 kW,171 หมู่ 2 ตำบลสระนกแก้ว อำเภอ โพนทอง ร้อยเอ็ด 45110 PEA VOLTA บางจาก โพนทอง #2,16.29487610,103.97618866,PEA,"
            103.97618866,16.2948761,0
          "
เมืองอำนาจเจริญ,"Power: 50 kW<br>Description: 332 ม.8 อ.เมือง Chayangkun, ตำบล บุ่ง อำเภอเมืองอำนาจเจริญ อำนาจเจริญ 37000 PEA VOLTA เมืองอำนาจเจริญ #2<br>Latitude: 15.88847065<br>Longitude: 104.62494659<br>Provider: PEA",#icon-1899-DB4436-labelson,50 kW,"332 ม.8 อ.เมือง Chayangkun, ตำบล บุ่ง อำเภอเมืองอำนาจเจริญ อำนาจเจริญ 37000 PEA VOLTA เมืองอำนาจเจริญ #2",15.88847065,104.62494659,PEA,"
            104.62494659,15.88847065,0
          "
บางจาก สามโคก,Power: 50 kW<br>Description: ตำบล บางโพธิ์เหนือ อำเภอสามโคก ปทุมธานี 12160 PEA VOLTA บางจาก สามโคก #1<br>Latitude: 14.03939915<br>Longitude: 100.52560425<br>Provider: PEA,#icon-1899-DB4436-labelson,50 kW,ตำบล บางโพธิ์เหนือ อำเภอสามโคก ปทุมธานี 12160 PEA VOLTA บางจาก สามโคก #1,14.03939915,100.52560425,PEA,"
            100.52560425,14.03939915,0
          "
เมืองแม่ฮ่องสอน,Power: 50 kW<br>Description: 286/3 ถ.แม่ฮ่องสอน-ปาย ตำบล ปางหมู อำเภอเมืองแม่ฮ่องสอน แม่ฮ่องสอน 58000 PEA VOLTA เมืองแม่ฮ่องสอน #1<br>Latitude: 19.31517792<br>Longitude: 97.96572113<br>Provider: PEA,#icon-1899-DB4436-labelson,50 kW,286/3 ถ.แม่ฮ่องสอน-ปาย ตำบล ปางหมู อำเภอเมืองแม่ฮ่องสอน แม่ฮ่องสอน 58000 PEA VOLTA เมืองแม่ฮ่องสอน #1,19.31517792,97.96572113,PEA,"
            97.96572113,19.31517792,0
          "
เมืองยโสธร,Power: 50 kW<br>Description: 91 ถนน รัตนเขต ตำบลในเมือง อำเภอเมืองยโสธร ยโสธร 35000 PEA VOLTA เมืองยโสธร #1<br>Latitude: 15.79771805<br>Longitude: 104.14371490<br>Provider: PEA,#icon-1899-DB4436-labelson,50 kW,91 ถนน รัตนเขต ตำบลในเมือง อำเภอเมืองยโสธร ยโสธร 35000 PEA VOLTA เมืองยโสธร #1,15.79771805,104.14371490,PEA,"
            104.1437149,15.79771805,0
          "
บางจาก พยุหะคีรี กม.308,Power: 50 kW<br>Description: ตำบล ม่วงหัก อำเภอพยุหะคีรี นครสวรรค์ 60130 PEA VOLTA บางจาก พยุหะคีรี กม.308 #1<br>Latitude: 15.40701675<br>Longitude: 100.14772034<br>Provider: PEA,#icon-1899-DB4436-labelson,50 kW,ตำบล ม่วงหัก อำเภอพยุหะคีรี นครสวรรค์ 60130 PEA VOLTA บางจาก พยุหะคีรี กม.308 #1,15.40701675,100.14772034,PEA,"
            100.14772034,15.40701675,0
          "
บางจาก เมืองกาฬสินธุ์,"Power: 50 kW<br>Description: 33, 33/9 ถนน ถีนานนท์ 9 ถนน ถีนานนท์ กาฬสินธุ์ อำเภอเมืองกาฬสินธุ์ กาฬสินธุ์ 46000 PEA VOLTA บางจาก เมืองกาฬสินธุ์ #1<br>Latitude: 16.44244576<br>Longitude: 103.51954651<br>Provider: PEA",#icon-1899-DB4436-labelson,50 kW,"33, 33/9 ถนน ถีนานนท์ 9 ถนน ถีนานนท์ กาฬสินธุ์ อำเภอเมืองกาฬสินธุ์ กาฬสินธุ์ 46000 PEA VOLTA บางจาก เมืองกาฬสินธุ์ #1",16.44244576,103.51954651,PEA,"
            103.51954651,16.44244576,0
          "
บางจาก มหาสารคาม (แยกแก่งเลิงจาน),Power: 50 kW<br>Description: ตำบล แก่งเลิงจาน อำเภอเมืองมหาสารคาม มหาสารคาม 44000 PEA VOLTA บางจาก มหาสารคาม (แยกแก่งเลิงจาน) #1<br>Latitude: 16.16606712<br>Longitude: 103.28245544<br>Provider: PEA,#icon-1899-DB4436-labelson,50 kW,ตำบล แก่งเลิงจาน อำเภอเมืองมหาสารคาม มหาสารคาม 44000 PEA VOLTA บางจาก มหาสารคาม (แยกแก่งเลิงจาน) #1,16.16606712,103.28245544,PEA,"
            103.28245544,16.16606712,0
          "
บางจาก เมืองสุโขทัย,Power: 50 kW<br>Description: 41/3 หมู่ 2 ถนนจรดวิถีถ่อง ตำบลปากแคว อำเภอเมืองสุโขทัย สุโขทัย 64000 PEA VOLTA บางจาก เมืองสุโขทัย #1<br>Latitude: 17.03954315<br>Longitude: 99.82302094<br>Provider: PEA,#icon-1899-DB4436-labelson,50 kW,41/3 หมู่ 2 ถนนจรดวิถีถ่อง ตำบลปากแคว อำเภอเมืองสุโขทัย สุโขทัย 64000 PEA VOLTA บางจาก เมืองสุโขทัย #1,17.03954315,99.82302094,PEA,"
            99.82302094,17.03954315,0
          "
บางจาก เมืองอุบลราชธานี (ในเมือง),Power: 50 kW<br>Description: 258 ถ. แจ้งสนิท ตำบล ในเมือง อำเภอเมืองอุบลราชธานี อุบลราชธานี 34000 PEA VOLTA บางจาก เมืองอุบลราชธานี (ในเมือง) #1<br>Latitude: 15.25376225<br>Longitude: 104.83736420<br>Provider: PEA,#icon-1899-DB4436-labelson,50 kW,258 ถ. แจ้งสนิท ตำบล ในเมือง อำเภอเมืองอุบลราชธานี อุบลราชธานี 34000 PEA VOLTA บางจาก เมืองอุบลราชธานี (ในเมือง) #1,15.25376225,104.83736420,PEA,"
            104.8373642,15.25376225,0
          "
บางจาก เมืองอุบลราชธานี (หนองขอน),Power: 50 kW<br>Description: 274 หมู่ 2 ถนนสายอุบล-ตระการ ตำบลไร่น้อย อำเภอเมืองอุบลราชธานี อุบลราชธานี 34000 PEA VOLTA บางจาก เมืองอุบลราชธานี (หนองขอน) #1<br>Latitude: 15.30442905<br>Longitude: 104.75903320<br>Provider: PEA,#icon-1899-DB4436-labelson,50 kW,274 หมู่ 2 ถนนสายอุบล-ตระการ ตำบลไร่น้อย อำเภอเมืองอุบลราชธานี อุบลราชธานี 34000 PEA VOLTA บางจาก เมืองอุบลราชธานี (หนองขอน) #1,15.30442905,104.75903320,PEA,"
            104.7590332,15.30442905,0
          "
บางจาก แม่สอด,Power: 50 kW<br>Description: ตำบล แม่สอด อำเภอแม่สอด ตาก 63110 PEA VOLTA บางจาก แม่สอด #1<br>Latitude: 16.72518921<br>Longitude: 98.59481049<br>Provider: PEA,#icon-1899-DB4436-labelson,50 kW,ตำบล แม่สอด อำเภอแม่สอด ตาก 63110 PEA VOLTA บางจาก แม่สอด #1,16.72518921,98.59481049,PEA,"
            98.59481049,16.72518921,0
          "
บางจาก เมืองพัทลุง,Power: 50 kW<br>Description: 4 หมู่ 1 เขาเจียก เมือง พัทลุง 93000 PEA VOLTA บางจาก เมืองพัทลุง #1<br>Latitude: 7.61435795<br>Longitude: 100.05102539<br>Provider: PEA,#icon-1899-DB4436-labelson,50 kW,4 หมู่ 1 เขาเจียก เมือง พัทลุง 93000 PEA VOLTA บางจาก เมืองพัทลุง #1,7.61435795,100.05102539,PEA,"
            100.05102539,7.61435795,0
          "
บางจาก ท่าวุ้ง,Power: 50 kW<br>Description: 346 หมู่ 1 ถนนสายสิงห์บุรี-ลพบุรี ตำบลท่าวุ้ง อำเภอท่าวุ้ง ลพบุรี 15150 PEA VOLTA บางจาก ท่าวุ้ง #1<br>Latitude: 14.81724644<br>Longitude: 100.50871277<br>Provider: PEA,#icon-1899-DB4436-labelson,50 kW,346 หมู่ 1 ถนนสายสิงห์บุรี-ลพบุรี ตำบลท่าวุ้ง อำเภอท่าวุ้ง ลพบุรี 15150 PEA VOLTA บางจาก ท่าวุ้ง #1,14.81724644,100.50871277,PEA,"
            100.50871277,14.81724644,0
          "
บางจาก ไชโย,Power: 50 kW<br>Description: 66/7 ม.1 ต ตำบล จรเข้ร้อง อำเภอไชโย อ่างทอง PEA VOLTA บางจาก ไชโย #1<br>Latitude: 14.66522598<br>Longitude: 100.47261047<br>Provider: PEA,#icon-1899-DB4436-labelson,50 kW,66/7 ม.1 ต ตำบล จรเข้ร้อง อำเภอไชโย อ่างทอง PEA VOLTA บางจาก ไชโย #1,14.66522598,100.47261047,PEA,"
            100.47261047,14.66522598,0
          "
สะเดา (พังลา),Power: 50 kW<br>Description: 300/25 หมู่ที่5 ตำบล พังลา อำเภอสะเดา สงขลา 90170 PEA VOLTA สะเดา (พังลา) #2<br>Latitude: 6.82061911<br>Longitude: 100.45912933<br>Provider: PEA,#icon-1899-DB4436-labelson,50 kW,300/25 หมู่ที่5 ตำบล พังลา อำเภอสะเดา สงขลา 90170 PEA VOLTA สะเดา (พังลา) #2,6.82061911,100.45912933,PEA,"
            100.45912933,6.82061911,0
          "
เมืองระนอง,Power: 50 kW<br>Description: 6 202 หมู่ที่ 1 ถ. เพชรเกษม ตำบล บางนอน อำเภอเมืองระนอง ระนอง 85000 PEA VOLTA เมืองระนอง #2<br>Latitude: 10.00279236<br>Longitude: 98.65683746<br>Provider: PEA,#icon-1899-DB4436-labelson,50 kW,6 202 หมู่ที่ 1 ถ. เพชรเกษม ตำบล บางนอน อำเภอเมืองระนอง ระนอง 85000 PEA VOLTA เมืองระนอง #2,10.00279236,98.65683746,PEA,"
            98.65683746,10.00279236,0
          "
เมืองสงขลา,Power: 50 kW<br>Description: ตำบลพะวง อำเภอเมืองสงขลา สงขลา 90100 PEA VOLTA เมืองสงขลา #2<br>Latitude: 7.14549303<br>Longitude: 100.56394958<br>Provider: PEA,#icon-1899-DB4436-labelson,50 kW,ตำบลพะวง อำเภอเมืองสงขลา สงขลา 90100 PEA VOLTA เมืองสงขลา #2,7.14549303,100.56394958,PEA,"
            100.56394958,7.14549303,0
          "
บางจาก เมืองสตูล,Power: 50 kW<br>Description: ตำบล ควนโพธิ์ อำเภอเมืองสตูล สตูล 91140 PEA VOLTA บางจาก เมืองสตูล #1<br>Latitude: 6.74583387<br>Longitude: 100.03443909<br>Provider: PEA,#icon-1899-DB4436-labelson,50 kW,ตำบล ควนโพธิ์ อำเภอเมืองสตูล สตูล 91140 PEA VOLTA บางจาก เมืองสตูล #1,6.74583387,100.03443909,PEA,"
            100.03443909,6.74583387,0
          "
บางจาก ท่าใหม่ ขาเข้า กม.307,Power: 50 kW<br>Description: 61/4 หมู่ 3 ถนนสุขุมวิท ตำบลทุ่งเบญจา อำเภอท่าใหม่ จันทบุรี 22170 PEA VOLTA บางจาก ท่าใหม่ ขาเข้า กม.307 #1<br>Latitude: 12.71715832<br>Longitude: 101.97695160<br>Provider: PEA,#icon-1899-DB4436-labelson,50 kW,61/4 หมู่ 3 ถนนสุขุมวิท ตำบลทุ่งเบญจา อำเภอท่าใหม่ จันทบุรี 22170 PEA VOLTA บางจาก ท่าใหม่ ขาเข้า กม.307 #1,12.71715832,101.97695160,PEA,"
            101.9769516,12.71715832,0
          "
กระบุรี,Power: 50 kW<br>Description: ตำบล ปากจั่น อำเภอ กระบุรี ระนอง 85110 PEA VOLTA กระบุรี #1<br>Latitude: 10.50767136<br>Longitude: 98.82497406<br>Provider: PEA,#icon-1899-DB4436-labelson,50 kW,ตำบล ปากจั่น อำเภอ กระบุรี ระนอง 85110 PEA VOLTA กระบุรี #1,10.50767136,98.82497406,PEA,"
            98.82497406,10.50767136,0
          "
กะเปอร์,"Power: 50 kW<br>Description: Lot 1, 127 ถ. เพชรเกษม ตำบล กะเปอร์ อำเภอ กะเปอร์ ระนอง 85120 PEA VOLTA กะเปอร์ #1<br>Latitude: 9.58308697<br>Longitude: 98.59188080<br>Provider: PEA",#icon-1899-DB4436-labelson,50 kW,"Lot 1, 127 ถ. เพชรเกษม ตำบล กะเปอร์ อำเภอ กะเปอร์ ระนอง 85120 PEA VOLTA กะเปอร์ #1",9.58308697,98.59188080,PEA,"
            98.5918808,9.58308697,0
          "
ป่าบอน,Power: 50 kW<br>Description: 205 ตำบล ป่าบอน อำเภอ ป่าบอน พัทลุง 93170 PEA VOLTA ป่าบอน #1<br>Latitude: 7.26668882<br>Longitude: 100.17304993<br>Provider: PEA,#icon-1899-DB4436-labelson,50 kW,205 ตำบล ป่าบอน อำเภอ ป่าบอน พัทลุง 93170 PEA VOLTA ป่าบอน #1,7.26668882,100.17304993,PEA,"
            100.17304993,7.26668882,0
          "
บางจาก กระทุ่มแบน,Power: 50 kW<br>Description: 8/11 หมู่ 6 ถ. เพชรเกษม ตำบลอ้อมน้อย อำเภอกระทุ่มแบน สมุทรสาคร 74130 PEA VOLTA บางจาก กระทุ่มแบน #1<br>Latitude: 13.70516682<br>Longitude: 100.30725098<br>Provider: PEA,#icon-1899-DB4436-labelson,50 kW,8/11 หมู่ 6 ถ. เพชรเกษม ตำบลอ้อมน้อย อำเภอกระทุ่มแบน สมุทรสาคร 74130 PEA VOLTA บางจาก กระทุ่มแบน #1,13.70516682,100.30725098,PEA,"
            100.30725098,13.70516682,0
          "
บางจาก พานทอง,Power: 50 kW<br>Description: หมู่ที่ 1 105 ตำบล บ้านเก่า อำเภอพานทอง ชลบุรี 20160 PEA VOLTA บางจาก พานทอง #1<br>Latitude: 13.45387077<br>Longitude: 101.02370453<br>Provider: PEA,#icon-1899-DB4436-labelson,50 kW,หมู่ที่ 1 105 ตำบล บ้านเก่า อำเภอพานทอง ชลบุรี 20160 PEA VOLTA บางจาก พานทอง #1,13.45387077,101.02370453,PEA,"
            101.02370453,13.45387077,0
          "
บางจาก เมืองสมุทรสาคร,Power: 50 kW<br>Description: 99/1 ต.นาโคก อ.เมืองสมุทรสาคร สมุทรสาคร 74000 PEA VOLTA บางจาก เมืองสมุทรสาคร #2<br>Latitude: 13.46697330<br>Longitude: 100.10474396<br>Provider: PEA,#icon-1899-DB4436-labelson,50 kW,99/1 ต.นาโคก อ.เมืองสมุทรสาคร สมุทรสาคร 74000 PEA VOLTA บางจาก เมืองสมุทรสาคร #2,13.46697330,100.10474396,PEA,"
            100.10474396,13.4669733,0
          "
บางจาก ชะอำ ขาเข้า (กม.188),"Power: 50 kW<br>Description: 719, 52 ถ. เพชรเกษม ตำบล เขาใหญ่ อำเภอชะอำ เพชรบุรี 76120 PEA VOLTA บางจาก ชะอำ ขาเข้า (กม.188) #2<br>Latitude: 12.81254196<br>Longitude: 99.94229126<br>Provider: PEA",#icon-1899-DB4436-labelson,50 kW,"719, 52 ถ. เพชรเกษม ตำบล เขาใหญ่ อำเภอชะอำ เพชรบุรี 76120 PEA VOLTA บางจาก ชะอำ ขาเข้า (กม.188) #2",12.81254196,99.94229126,PEA,"
            99.94229126,12.81254196,0
          "
บางจาก ทุ่งใหญ่,Power: 50 kW<br>Description: ตำบล ทุ่งใหญ่ อำเภอ ทุ่งใหญ่ นครศรีธรรมราช 80240 PEA VOLTA บางจาก ทุ่งใหญ่ #2<br>Latitude: 8.37022209<br>Longitude: 99.41673279<br>Provider: PEA,#icon-1899-DB4436-labelson,50 kW,ตำบล ทุ่งใหญ่ อำเภอ ทุ่งใหญ่ นครศรีธรรมราช 80240 PEA VOLTA บางจาก ทุ่งใหญ่ #2,8.37022209,99.41673279,PEA,"
            99.41673279,8.37022209,0
          "
บางจาก ถลาง,Power: 50 kW<br>Description: ตำบล ไม้ขาว อำเภอถลาง ภูเก็ต 83110 PEA VOLTA บางจาก ถลาง #1<br>Latitude: 7.98455000<br>Longitude: 98.35947418<br>Provider: PEA,#icon-1899-DB4436-labelson,50 kW,ตำบล ไม้ขาว อำเภอถลาง ภูเก็ต 83110 PEA VOLTA บางจาก ถลาง #1,7.98455000,98.35947418,PEA,"
            98.35947418,7.98455,0
          "
บางจาก บางกล่ำ,Power: 50 kW<br>Description: 250 ตำบล ท่าช้าง อำเภอบางกล่ำ สงขลา 90110 PEA VOLTA บางจาก บางกล่ำ #1<br>Latitude: 7.02336311<br>Longitude: 100.40480804<br>Provider: PEA,#icon-1899-DB4436-labelson,50 kW,250 ตำบล ท่าช้าง อำเภอบางกล่ำ สงขลา 90110 PEA VOLTA บางจาก บางกล่ำ #1,7.02336311,100.40480804,PEA,"
            100.40480804,7.02336311,0
          "
สถานีโดมินิค คาร์วอซ บางแสน,Power: 40 kW<br>Description: 578 5 ถ. สุขุมวิท ตำบลแสนสุข อำเภอเมืองชลบุรี ชลบุรี 20130 สถานีโดมินิค คาร์วอซ บางแสน (เครือข่าย PEA VOLTA)<br>Latitude: 13.26145077<br>Longitude: 100.93330383<br>Provider: PEA,#icon-1899-DB4436-labelson,40 kW,578 5 ถ. สุขุมวิท ตำบลแสนสุข อำเภอเมืองชลบุรี ชลบุรี 20130 สถานีโดมินิค คาร์วอซ บางแสน (เครือข่าย PEA VOLTA),13.26145077,100.93330383,PEA,"
            100.93330383,13.26145077,0
          "
บางจาก สบปราบ,Power: 50 kW<br>Description: เลขที่ 149 หมู่ 15 149 ตำบล สบปราบ อำเภอสบปราบ ลำปาง 52170 PEA VOLTA บางจาก สบปราบ #1<br>Latitude: 17.90246201<br>Longitude: 99.34094238<br>Provider: PEA,#icon-1899-DB4436-labelson,50 kW,เลขที่ 149 หมู่ 15 149 ตำบล สบปราบ อำเภอสบปราบ ลำปาง 52170 PEA VOLTA บางจาก สบปราบ #1,17.90246201,99.34094238,PEA,"
            99.34094238,17.90246201,0
          "
บางจาก เมืองนครศรีธรรมราช (อ้อมค่าย),"Power: 50 kW<br>Description: 30 25, ตำบล ปากพูน เมือง, นครศรีธรรมราช 80000 PEA VOLTA บางจาก เมืองนครศรีธรรมราช (อ้อมค่าย) #1<br>Latitude: 8.45973206<br>Longitude: 99.96481323<br>Provider: PEA",#icon-1899-DB4436-labelson,50 kW,"30 25, ตำบล ปากพูน เมือง, นครศรีธรรมราช 80000 PEA VOLTA บางจาก เมืองนครศรีธรรมราช (อ้อมค่าย) #1",8.45973206,99.96481323,PEA,"
            99.96481323,8.45973206,0
          "
บางจาก เมืองสระบุรี (บีอเวนิว),Power: 50 kW<br>Description: 510 43 ถ. พหลโยธิน ตำบล ปากเพรียว อำเภอเมือง สระบุรี 18000 PEA VOLTA บางจาก เมืองสระบุรี (บี5 อเวนิว) #1<br>Latitude: 14.53968430<br>Longitude: 100.91047668<br>Provider: PEA,#icon-1899-DB4436-labelson,50 kW,510 43 ถ. พหลโยธิน ตำบล ปากเพรียว อำเภอเมือง สระบุรี 18000 PEA VOLTA บางจาก เมืองสระบุรี (บี5 อเวนิว) #1,14.53968430,100.91047668,PEA,"
            100.91047668,14.5396843,0
          "
บางจาก ลำลูกกา,Power: 50 kW<br>Description: ทางหลวง3004 ลำลูกกาคลอง7-ธัญบุรี ตำบล บึงคำพร้อย อำเภอลำลูกกา ปทุมธานี PEA VOLTA บางจาก ลำลูกกา #1<br>Latitude: 13.93445969<br>Longitude: 100.74487305<br>Provider: PEA,#icon-1899-DB4436-labelson,50 kW,ทางหลวง3004 ลำลูกกาคลอง7-ธัญบุรี ตำบล บึงคำพร้อย อำเภอลำลูกกา ปทุมธานี PEA VOLTA บางจาก ลำลูกกา #1,13.93445969,100.74487305,PEA,"
            100.74487305,13.93445969,0
          "
บางจาก ศรีราชา กม.,Power: 50 kW<br>Description: เทศบาลนครแหลมฉบัง อำเภอบางละมุง ชลบุรี PEA VOLTA บางจาก ศรีราชา กม.4 #1<br>Latitude: 13.12040138<br>Longitude: 101.02589417<br>Provider: PEA,#icon-1899-DB4436-labelson,50 kW,เทศบาลนครแหลมฉบัง อำเภอบางละมุง ชลบุรี PEA VOLTA บางจาก ศรีราชา กม.4 #1,13.12040138,101.02589417,PEA,"
            101.02589417,13.12040138,0
          "
บางจาก บางน้ำเปรี้ยว,Power: 50 kW<br>Description: 5/5 หมู่ 2 ตำบลหมอนทอง อำเภอบางน้ำเปรี้ยว ฉะเชิงเทรา 24150 PEA VOLTA บางจาก บางน้ำเปรี้ยว #1<br>Latitude: 13.87193966<br>Longitude: 101.04439545<br>Provider: PEA,#icon-1899-DB4436-labelson,50 kW,5/5 หมู่ 2 ตำบลหมอนทอง อำเภอบางน้ำเปรี้ยว ฉะเชิงเทรา 24150 PEA VOLTA บางจาก บางน้ำเปรี้ยว #1,13.87193966,101.04439545,PEA,"
            101.04439545,13.87193966,0
          "
บางจาก บางปะหัน,"Power: 50 kW<br>Description: 46 หมู่ 4 สายเอเซีย กม.39, อำเภอบางปะหัน PEA VOLTA บางจาก บางปะหัน #1<br>Latitude: 14.49155426<br>Longitude: 100.52460480<br>Provider: PEA",#icon-1899-DB4436-labelson,50 kW,"46 หมู่ 4 สายเอเซีย กม.39, อำเภอบางปะหัน PEA VOLTA บางจาก บางปะหัน #1",14.49155426,100.52460480,PEA,"
            100.5246048,14.49155426,0
          "
บางจาก เมืองกระบี่ กม.949,Power: 50 kW<br>Description: 169/1 หมู่ 4 ตำบลเขาคราม อำเภอเมืองกระบี่ กระบี่ 81000 PEA VOLTA บางจาก เมืองกระบี่ กม.949 #1<br>Latitude: 8.26291084<br>Longitude: 98.80643463<br>Provider: PEA,#icon-1899-DB4436-labelson,50 kW,169/1 หมู่ 4 ตำบลเขาคราม อำเภอเมืองกระบี่ กระบี่ 81000 PEA VOLTA บางจาก เมืองกระบี่ กม.949 #1,8.26291084,98.80643463,PEA,"
            98.80643463,8.26291084,0
          "
บางจาก เมืองขอนแก่น (ถ.มะลิวัลย์),Power: 50 kW<br>Description: 298 ถนนมลิวรรณ ตำบลบ้านเป็ด อำเภอเมืองขอนแก่น ขอนแก่น 40000 PEA VOLTA บางจาก เมืองขอนแก่น (ถ.มะลิวัลย์) #1<br>Latitude: 16.44989014<br>Longitude: 102.75696564<br>Provider: PEA,#icon-1899-DB4436-labelson,50 kW,298 ถนนมลิวรรณ ตำบลบ้านเป็ด อำเภอเมืองขอนแก่น ขอนแก่น 40000 PEA VOLTA บางจาก เมืองขอนแก่น (ถ.มะลิวัลย์) #1,16.44989014,102.75696564,PEA,"
            102.75696564,16.44989014,0
          "
บางจาก เมืองเชียงราย,Power: 50 kW<br>Description: ตำบลสันทราย อำเภอเมืองเชียงราย เชียงราย 57000 PEA VOLTA บางจาก เมืองเชียงราย #1<br>Latitude: 19.83996773<br>Longitude: 99.79504395<br>Provider: PEA,#icon-1899-DB4436-labelson,50 kW,ตำบลสันทราย อำเภอเมืองเชียงราย เชียงราย 57000 PEA VOLTA บางจาก เมืองเชียงราย #1,19.83996773,99.79504395,PEA,"
            99.79504395,19.83996773,0
          "
เชียงดาว,Power: 50 kW<br>Description: 429 หมู่ 1 ตำบล แม่นะ อำเภอเชียงดาว เชียงใหม่ 50170 PEA VOLTA เชียงดาว #1<br>Latitude: 19.34524155<br>Longitude: 98.96035767<br>Provider: PEA,#icon-1899-DB4436-labelson,50 kW,429 หมู่ 1 ตำบล แม่นะ อำเภอเชียงดาว เชียงใหม่ 50170 PEA VOLTA เชียงดาว #1,19.34524155,98.96035767,PEA,"
            98.96035767,19.34524155,0
          "
บางจาก นาวัง,Power: 50 kW<br>Description: 99 หมู่ 6 ตำบลเทพคีรี อำเภอ นาวัง หนองบัวลำภู 39170 PEA VOLTA บางจาก นาวัง #1<br>Latitude: 17.32109261<br>Longitude: 102.10904694<br>Provider: PEA,#icon-1899-DB4436-labelson,50 kW,99 หมู่ 6 ตำบลเทพคีรี อำเภอ นาวัง หนองบัวลำภู 39170 PEA VOLTA บางจาก นาวัง #1,17.32109261,102.10904694,PEA,"
            102.10904694,17.32109261,0
          "
หัวหิน,Power: 50 kW<br>Description: 2/7 ถ.เพชรเกษม ต.หนองแก อ.หัวหิน จ.ประจวบคีรีขันธ์ 77110 Tel: 0-3251-2215  Fax :  PEA VOLTA หัวหิน<br>Latitude: 12.55186462<br>Longitude: 99.96103668<br>Provider: PEA,#icon-1899-DB4436-labelson,50 kW,2/7 ถ.เพชรเกษม ต.หนองแก อ.หัวหิน จ.ประจวบคีรีขันธ์ 77110 Tel: 0-3251-2215  Fax :  PEA VOLTA หัวหิน,12.55186462,99.96103668,PEA,"
            99.96103668,12.55186462,0
          "
สถานีชาร์จ พาข้าวโคราช,Power: 40 kW<br>Description: ห้างสรรพสินค้า พาข้าวโคราช 399 ถนนมิตรภาพ-หนองคาย ต.ในเมือง อ.เมืองนครราชสีมา จ.นครราชสีมา 30000 (ร่วมเครือข่าย PEA VOLTA) สถานีชาร์จ พาข้าวโคราช #1 (เครือข่าย PEA VOLTA)<br>Latitude: 14.98742294<br>Longitude: 102.09421539<br>Provider: PEA,#icon-1899-DB4436-labelson,40 kW,ห้างสรรพสินค้า พาข้าวโคราช 399 ถนนมิตรภาพ-หนองคาย ต.ในเมือง อ.เมืองนครราชสีมา จ.นครราชสีมา 30000 (ร่วมเครือข่าย PEA VOLTA) สถานีชาร์จ พาข้าวโคราช #1 (เครือข่าย PEA VOLTA),14.98742294,102.09421539,PEA,"
            102.09421539,14.98742294,0
          "
อ่างทอง,Power: 25 kW<br>Description: ตำบล โพสะ อำเภอเมืองอ่างทอง อ่างทอง 14000 PEA VOLTA อ่างทอง<br>Latitude: 14.58588791<br>Longitude: 100.45501709<br>Provider: PEA,#icon-1899-DB4436-labelson,25 kW,ตำบล โพสะ อำเภอเมืองอ่างทอง อ่างทอง 14000 PEA VOLTA อ่างทอง,14.58588791,100.45501709,PEA,"
            100.45501709,14.58588791,0
          "
ศรีราชา,Power: 25 kW<br>Description: 65 ถ. สุขุมวิท อำเภอศรีราชา ชลบุรี 20110 PEA VOLTA ศรีราชา<br>Latitude: 13.17165947<br>Longitude: 100.93170929<br>Provider: PEA,#icon-1899-DB4436-labelson,25 kW,65 ถ. สุขุมวิท อำเภอศรีราชา ชลบุรี 20110 PEA VOLTA ศรีราชา,13.17165947,100.93170929,PEA,"
            100.93170929,13.17165947,0
          "
สังขละบุรี,Power: 25 kW<br>Description: ตำบลหนองลู อำเภอสังขละบุรี จังหวัดกาญจนบุรี 71240 PEA VOLTA สังขละบุรี<br>Latitude: 15.15727901<br>Longitude: 98.44969177<br>Provider: PEA,#icon-1899-DB4436-labelson,25 kW,ตำบลหนองลู อำเภอสังขละบุรี จังหวัดกาญจนบุรี 71240 PEA VOLTA สังขละบุรี,15.15727901,98.44969177,PEA,"
            98.44969177,15.15727901,0
          "
ทองผาภูมิ,Power: 25 kW<br>Description: 160/6 หมู่ที่ 1 ตำบลท่าขนุน อำเภอทองผาภูมิ จังหวัดกาจนบุรี 71180 PEA VOLTA ทองผาภูมิ<br>Latitude: 14.74965954<br>Longitude: 98.62330627<br>Provider: PEA,#icon-1899-DB4436-labelson,25 kW,160/6 หมู่ที่ 1 ตำบลท่าขนุน อำเภอทองผาภูมิ จังหวัดกาจนบุรี 71180 PEA VOLTA ทองผาภูมิ,14.74965954,98.62330627,PEA,"
            98.62330627,14.74965954,0
          "
ศรีมหาโพธิ,Power: 25 kW<br>Description: หมู่ที่ 9 145 ตำบล ศรีมหาโพธิ อำเภอศรีมหาโพธิ ปราจีนบุรี 25140 PEA VOLTA ศรีมหาโพธิ<br>Latitude: 13.94896221<br>Longitude: 101.51259613<br>Provider: PEA,#icon-1899-DB4436-labelson,25 kW,หมู่ที่ 9 145 ตำบล ศรีมหาโพธิ อำเภอศรีมหาโพธิ ปราจีนบุรี 25140 PEA VOLTA ศรีมหาโพธิ,13.94896221,101.51259613,PEA,"
            101.51259613,13.94896221,0
          "
ขลุง,Power: 25 kW<br>Description: 3 ตำบล ขลุง อำเภอ ขลุง จันทบุรี 22110 PEA VOLTA ขลุง<br>Latitude: 12.45309639<br>Longitude: 102.24195099<br>Provider: PEA,#icon-1899-DB4436-labelson,25 kW,3 ตำบล ขลุง อำเภอ ขลุง จันทบุรี 22110 PEA VOLTA ขลุง,12.45309639,102.24195099,PEA,"
            102.24195099,12.45309639,0
          "
แกลง,Power: 25 kW<br>Description: ตำบลทุ่งควายกิน อำเภอแกลง ระยอง 21110 PEA VOLTA แกลง<br>Latitude: 12.78307819<br>Longitude: 101.68789673<br>Provider: PEA,#icon-1899-DB4436-labelson,25 kW,ตำบลทุ่งควายกิน อำเภอแกลง ระยอง 21110 PEA VOLTA แกลง,12.78307819,101.68789673,PEA,"
            101.68789673,12.78307819,0
          "
บึง,Power: 25 kW<br>Description: บึง อำเภอศรีราชา ชลบุรี 20230 PEA VOLTA บึง<br>Latitude: 13.07476902<br>Longitude: 101.02250671<br>Provider: PEA,#icon-1899-DB4436-labelson,25 kW,บึง อำเภอศรีราชา ชลบุรี 20230 PEA VOLTA บึง,13.07476902,101.02250671,PEA,"
            101.02250671,13.07476902,0
          "
บางปะกง,Power: 25 kW<br>Description: ตำบล บางปะกง อำเภอบางปะกง ฉะเชิงเทรา 24130 PEA VOLTA บางปะกง<br>Latitude: 13.50337219<br>Longitude: 100.99400330<br>Provider: PEA,#icon-1899-DB4436-labelson,25 kW,ตำบล บางปะกง อำเภอบางปะกง ฉะเชิงเทรา 24130 PEA VOLTA บางปะกง,13.50337219,100.99400330,PEA,"
            100.9940033,13.50337219,0
          "
เสนา,"Power: 25 kW<br>Description: ตำบล บางนมโค วิเชียรบุรี, จังหวัดพระนครศรีอยุธยา 13110 PEA VOLTA เสนา<br>Latitude: 14.31366444<br>Longitude: 100.41654968<br>Provider: PEA",#icon-1899-DB4436-labelson,25 kW,"ตำบล บางนมโค วิเชียรบุรี, จังหวัดพระนครศรีอยุธยา 13110 PEA VOLTA เสนา",14.31366444,100.41654968,PEA,"
            100.41654968,14.31366444,0
          "
อู่ทอง,Power: 25 kW<br>Description: ตำบล อู่ทอง อำเภออู่ทอง สุพรรณบุรี 72160 PEA VOLTA อู่ทอง<br>Latitude: 14.35463524<br>Longitude: 99.87766266<br>Provider: PEA,#icon-1899-DB4436-labelson,25 kW,ตำบล อู่ทอง อำเภออู่ทอง สุพรรณบุรี 72160 PEA VOLTA อู่ทอง,14.35463524,99.87766266,PEA,"
            99.87766266,14.35463524,0
          "
สามชุก,Power: 25 kW<br>Description: ตำบล สามชุก อำเภอสามชุก สุพรรณบุรี 72130 PEA VOLTA สามชุก<br>Latitude: 14.75414658<br>Longitude: 100.09754944<br>Provider: PEA,#icon-1899-DB4436-labelson,25 kW,ตำบล สามชุก อำเภอสามชุก สุพรรณบุรี 72130 PEA VOLTA สามชุก,14.75414658,100.09754944,PEA,"
            100.09754944,14.75414658,0
          "
ดำเนินสะดวก,Power: 25 kW<br>Description: ตำบล ดำเนินสะดวก อำเภอดำเนินสะดวก ราชบุรี 70130 PEA VOLTA ดำเนินสะดวก<br>Latitude: 13.52127647<br>Longitude: 99.96343994<br>Provider: PEA,#icon-1899-DB4436-labelson,25 kW,ตำบล ดำเนินสะดวก อำเภอดำเนินสะดวก ราชบุรี 70130 PEA VOLTA ดำเนินสะดวก,13.52127647,99.96343994,PEA,"
            99.96343994,13.52127647,0
          "
ปากน้ำชุมพร,"Power: 25 kW<br>Description: 339/44, 86120, ตำบล ปากน้ำ อำเภอเมืองชุมพร ชุมพร 86120 PEA VOLTA ปากน้ำชุมพร<br>Latitude: 10.42825985<br>Longitude: 99.24240112<br>Provider: PEA",#icon-1899-DB4436-labelson,25 kW,"339/44, 86120, ตำบล ปากน้ำ อำเภอเมืองชุมพร ชุมพร 86120 PEA VOLTA ปากน้ำชุมพร",10.42825985,99.24240112,PEA,"
            99.24240112,10.42825985,0
          "
โคกขาม,Power: 25 kW<br>Description: ตำบล โคกขาม อำเภอเมืองสมุทรสาคร สมุทรสาคร 74000 PEA VOLTA โคกขาม<br>Latitude: 13.55939007<br>Longitude: 100.31420898<br>Provider: PEA,#icon-1899-DB4436-labelson,25 kW,ตำบล โคกขาม อำเภอเมืองสมุทรสาคร สมุทรสาคร 74000 PEA VOLTA โคกขาม,13.55939007,100.31420898,PEA,"
            100.31420898,13.55939007,0
          "
ปราจีนบุรี,Power: 25 kW<br>Description: ตำบลหน้าเมือง อำเภอเมืองปราจีนบุรี ปราจีนบุรี 25000 PEA VOLTA ปราจีนบุรี<br>Latitude: 14.05461025<br>Longitude: 101.35501862<br>Provider: PEA,#icon-1899-DB4436-labelson,25 kW,ตำบลหน้าเมือง อำเภอเมืองปราจีนบุรี ปราจีนบุรี 25000 PEA VOLTA ปราจีนบุรี,14.05461025,101.35501862,PEA,"
            101.35501862,14.05461025,0
          "
พานทอง,Power: 25 kW<br>Description: 1 ตำบล พานทอง อำเภอพานทอง ชลบุรี 20160 PEA VOLTA พานทอง<br>Latitude: 13.47099018<br>Longitude: 101.09517670<br>Provider: PEA,#icon-1899-DB4436-labelson,25 kW,1 ตำบล พานทอง อำเภอพานทอง ชลบุรี 20160 PEA VOLTA พานทอง,13.47099018,101.09517670,PEA,"
            101.0951767,13.47099018,0
          "
บางปะอิน,Power: 25 kW<br>Description:  308 ตำบล คลองจิก อำเภอบางปะอิน จังหวัดพระนครศรีอยุธยา 13160 PEA VOLTA บางปะอิน<br>Latitude: 14.21169567<br>Longitude: 100.58769989<br>Provider: PEA,#icon-1899-DB4436-labelson,25 kW, 308 ตำบล คลองจิก อำเภอบางปะอิน จังหวัดพระนครศรีอยุธยา 13160 PEA VOLTA บางปะอิน,14.21169567,100.58769989,PEA,"
            100.58769989,14.21169567,0
          "
พนัสนิคม,Power: 25 kW<br>Description: ตำบล บ้านช้าง อำเภอพนัสนิคม ชลบุรี 20140 PEA VOLTA พนัสนิคม<br>Latitude: 13.45590878<br>Longitude: 101.19628906<br>Provider: PEA,#icon-1899-DB4436-labelson,25 kW,ตำบล บ้านช้าง อำเภอพนัสนิคม ชลบุรี 20140 PEA VOLTA พนัสนิคม,13.45590878,101.19628906,PEA,"
            101.19628906,13.45590878,0
          "
บ่อทอง,Power: 25 kW<br>Description: 268 ตำบล บ่อทอง อำเภอบ่อทอง ชลบุรี 20270 PEA VOLTA บ่อทอง<br>Latitude: 13.26551247<br>Longitude: 101.43793488<br>Provider: PEA,#icon-1899-DB4436-labelson,25 kW,268 ตำบล บ่อทอง อำเภอบ่อทอง ชลบุรี 20270 PEA VOLTA บ่อทอง,13.26551247,101.43793488,PEA,"
            101.43793488,13.26551247,0
          "
บางแสน,"Power: 25 kW<br>Description: ถนนบางแสนสาย 2, ตำบลแสนสุข อำเภอเมืองชลบุรี ชลบุรี 20130 PEA VOLTA บางแสน<br>Latitude: 13.29052162<br>Longitude: 100.91259003<br>Provider: PEA",#icon-1899-DB4436-labelson,25 kW,"ถนนบางแสนสาย 2, ตำบลแสนสุข อำเภอเมืองชลบุรี ชลบุรี 20130 PEA VOLTA บางแสน",13.29052162,100.91259003,PEA,"
            100.91259003,13.29052162,0
          "
ปลวกแดง,Power: 25 kW<br>Description: ตำบล ปลวกแดง อำเภอปลวกแดง ระยอง 21140 PEA VOLTA ปลวกแดง<br>Latitude: 12.97140598<br>Longitude: 101.21376038<br>Provider: PEA,#icon-1899-DB4436-labelson,25 kW,ตำบล ปลวกแดง อำเภอปลวกแดง ระยอง 21140 PEA VOLTA ปลวกแดง,12.97140598,101.21376038,PEA,"
            101.21376038,12.97140598,0
          "
บ้านบึง,Power: 25 kW<br>Description:  ตำบล บ้านบึง อำเภอบ้านบึง ชลบุรี 20170 PEA VOLTA บ้านบึง<br>Latitude: 13.29687977<br>Longitude: 101.12441254<br>Provider: PEA,#icon-1899-DB4436-labelson,25 kW, ตำบล บ้านบึง อำเภอบ้านบึง ชลบุรี 20170 PEA VOLTA บ้านบึง,13.29687977,101.12441254,PEA,"
            101.12441254,13.29687977,0
          "
ระยอง,Power: 25 kW<br>Description: 143 หมู่ 2 ถ. สุขุมวิท ตำบลเนินพระ อำเภอเมืองระยอง ระยอง 21000 PEA VOLTA ระยอง<br>Latitude: 12.68315125<br>Longitude: 101.22422028<br>Provider: PEA,#icon-1899-DB4436-labelson,25 kW,143 หมู่ 2 ถ. สุขุมวิท ตำบลเนินพระ อำเภอเมืองระยอง ระยอง 21000 PEA VOLTA ระยอง,12.68315125,101.22422028,PEA,"
            101.22422028,12.68315125,0
          "
มาบตาพุด,Power: 25 kW<br>Description: 18 ถนนมาบตาพุดเมืองใหม่สาย7 ตำบล ห้วยโป่ง อำเภอเมืองระยอง ระยอง 21150 PEA VOLTA มาบตาพุด<br>Latitude: 12.72266674<br>Longitude: 101.12828827<br>Provider: PEA,#icon-1899-DB4436-labelson,25 kW,18 ถนนมาบตาพุดเมืองใหม่สาย7 ตำบล ห้วยโป่ง อำเภอเมืองระยอง ระยอง 21150 PEA VOLTA มาบตาพุด,12.72266674,101.12828827,PEA,"
            101.12828827,12.72266674,0
          "
เพ,Power: 25 kW<br>Description: ซอย 1/2 ตำบลเพ อำเภอเมืองระยอง ระยอง 21160 PEA VOLTA เพ<br>Latitude: 12.62326622<br>Longitude: 101.42577362<br>Provider: PEA,#icon-1899-DB4436-labelson,25 kW,ซอย 1/2 ตำบลเพ อำเภอเมืองระยอง ระยอง 21160 PEA VOLTA เพ,12.62326622,101.42577362,PEA,"
            101.42577362,12.62326622,0
          "
วังน้อย,Power: 25 kW<br>Description: ตำบล ลำตาเสา อำเภอวังน้อย จังหวัดพระนครศรีอยุธยา 13170 PEA VOLTA วังน้อย<br>Latitude: 14.24962902<br>Longitude: 100.70307159<br>Provider: PEA,#icon-1899-DB4436-labelson,25 kW,ตำบล ลำตาเสา อำเภอวังน้อย จังหวัดพระนครศรีอยุธยา 13170 PEA VOLTA วังน้อย,14.24962902,100.70307159,PEA,"
            100.70307159,14.24962902,0
          "
หนองแค,Power: 25 kW<br>Description: ตำบล หนองปลาหมอ อำเภอหนองแค สระบุรี 18140 PEA VOLTA หนองแค<br>Latitude: 14.35058498<br>Longitude: 100.85531616<br>Provider: PEA,#icon-1899-DB4436-labelson,25 kW,ตำบล หนองปลาหมอ อำเภอหนองแค สระบุรี 18140 PEA VOLTA หนองแค,14.35058498,100.85531616,PEA,"
            100.85531616,14.35058498,0
          "
ชุมแพ,Power: 25 kW<br>Description: ตำบล ชุมแพ อำเภอชุมแพ ขอนแก่น 40130 PEA VOLTA ชุมแพ<br>Latitude: 16.55112076<br>Longitude: 102.08540344<br>Provider: PEA,#icon-1899-DB4436-labelson,25 kW,ตำบล ชุมแพ อำเภอชุมแพ ขอนแก่น 40130 PEA VOLTA ชุมแพ,16.55112076,102.08540344,PEA,"
            102.08540344,16.55112076,0
          "
วังสะพุง,Power: 25 kW<br>Description: ตำบล เขาหลวง อำเภอวังสะพุง เลย 42130 PEA VOLTA วังสะพุง<br>Latitude: 17.33830452<br>Longitude: 101.75547028<br>Provider: PEA,#icon-1899-DB4436-labelson,25 kW,ตำบล เขาหลวง อำเภอวังสะพุง เลย 42130 PEA VOLTA วังสะพุง,17.33830452,101.75547028,PEA,"
            101.75547028,17.33830452,0
          "
บ้านแพง,Power: 25 kW<br>Description: ตำบล บ้านแพง อำเภอ บ้านแพง นครพนม 48140 PEA VOLTA บ้านแพง<br>Latitude: 17.97113228<br>Longitude: 104.21341705<br>Provider: PEA,#icon-1899-DB4436-labelson,25 kW,ตำบล บ้านแพง อำเภอ บ้านแพง นครพนม 48140 PEA VOLTA บ้านแพง,17.97113228,104.21341705,PEA,"
            104.21341705,17.97113228,0
          "
นครราชสีมา,Power: 25 kW<br>Description: ตำบลในเมือง อำเภอเมืองนครราชสีมา นครราชสีมา 30000 PEA VOLTA นครราชสีมา #2<br>Latitude: 14.97412491<br>Longitude: 102.08364868<br>Provider: PEA,#icon-1899-DB4436-labelson,25 kW,ตำบลในเมือง อำเภอเมืองนครราชสีมา นครราชสีมา 30000 PEA VOLTA นครราชสีมา #2,14.97412491,102.08364868,PEA,"
            102.08364868,14.97412491,0
          "
จอมเทียน,Power: 25 kW<br>Description:  PEA VOLTA จอมเทียน<br>Latitude: 12.86489582<br>Longitude: 100.94518280<br>Provider: PEA,#icon-1899-DB4436-labelson,25 kW, PEA VOLTA จอมเทียน,12.86489582,100.94518280,PEA,"
            100.9451828,12.86489582,0
          "
บ้านค่าย,Power: 25 kW<br>Description: ตำบล บ้านค่าย อำเภอบ้านค่าย ระยอง 21120 PEA VOLTA บ้านค่าย<br>Latitude: 12.77228642<br>Longitude: 101.29211426<br>Provider: PEA,#icon-1899-DB4436-labelson,25 kW,ตำบล บ้านค่าย อำเภอบ้านค่าย ระยอง 21120 PEA VOLTA บ้านค่าย,12.77228642,101.29211426,PEA,"
            101.29211426,12.77228642,0
          "
ปราณบุรี,Power: 25 kW<br>Description: ตำบล หนองตาแต้ม อำเภอปราณบุรี ประจวบคีรีขันธ์ 77120 PEA VOLTA ปราณบุรี<br>Latitude: 12.36238575<br>Longitude: 99.88574982<br>Provider: PEA,#icon-1899-DB4436-labelson,25 kW,ตำบล หนองตาแต้ม อำเภอปราณบุรี ประจวบคีรีขันธ์ 77120 PEA VOLTA ปราณบุรี,12.36238575,99.88574982,PEA,"
            99.88574982,12.36238575,0
          "
ชะอำ,Power: 25 kW<br>Description: ตำบล ชะอำ อำเภอชะอำ เพชรบุรี 76120 PEA VOLTA ชะอำ<br>Latitude: 12.71772289<br>Longitude: 99.92845154<br>Provider: PEA,#icon-1899-DB4436-labelson,25 kW,ตำบล ชะอำ อำเภอชะอำ เพชรบุรี 76120 PEA VOLTA ชะอำ,12.71772289,99.92845154,PEA,"
            99.92845154,12.71772289,0
          "
โพนพิสัย,Power: 25 kW<br>Description: ตำบล จุมพล อำเภอ โพนพิสัย หนองคาย 43120 PEA VOLTA โพนพิสัย<br>Latitude: 18.02464676<br>Longitude: 103.10359955<br>Provider: PEA,#icon-1899-DB4436-labelson,25 kW,ตำบล จุมพล อำเภอ โพนพิสัย หนองคาย 43120 PEA VOLTA โพนพิสัย,18.02464676,103.10359955,PEA,"
            103.10359955,18.02464676,0
          "
อ้อมน้อย,Power: 25 kW<br>Description: 72 106 หมู่ที่ 9 ถ. พุทธมณฑลสาย 5 ตำบล ไร่ขิง อำเภอสามพราน นครปฐม 73210 PEA VOLTA อ้อมน้อย<br>Latitude: 13.72295570<br>Longitude: 100.29792786<br>Provider: PEA,#icon-1899-DB4436-labelson,25 kW,72 106 หมู่ที่ 9 ถ. พุทธมณฑลสาย 5 ตำบล ไร่ขิง อำเภอสามพราน นครปฐม 73210 PEA VOLTA อ้อมน้อย,13.72295570,100.29792786,PEA,"
            100.29792786,13.7229557,0
          "
สามพราน,Power: 25 kW<br>Description: 33/1 หมู่1 ถ. เพชรเกษม ตำบลท่าตลาด อำเภอสามพราน นครปฐม 73110 PEA VOLTA สามพราน<br>Latitude: 13.74312115<br>Longitude: 100.21258545<br>Provider: PEA,#icon-1899-DB4436-labelson,25 kW,33/1 หมู่1 ถ. เพชรเกษม ตำบลท่าตลาด อำเภอสามพราน นครปฐม 73110 PEA VOLTA สามพราน,13.74312115,100.21258545,PEA,"
            100.21258545,13.74312115,0
          "
ปักธงชัย,Power: 25 kW<br>Description: ตำบลเมืองปัก อำเภอปักธงชัย นครราชสีมา 30150 PEA VOLTA ปักธงชัย<br>Latitude: 14.73450947<br>Longitude: 102.02924347<br>Provider: PEA,#icon-1899-DB4436-labelson,25 kW,ตำบลเมืองปัก อำเภอปักธงชัย นครราชสีมา 30150 PEA VOLTA ปักธงชัย,14.73450947,102.02924347,PEA,"
            102.02924347,14.73450947,0
          "
สระบุรี,Power: 25 kW<br>Description: ตำบล ปากเพรียว อำเภอเมืองสระบุรี สระบุรี 18000 PEA VOLTA สระบุรี<br>Latitude: 14.53803825<br>Longitude: 100.91025543<br>Provider: PEA,#icon-1899-DB4436-labelson,25 kW,ตำบล ปากเพรียว อำเภอเมืองสระบุรี สระบุรี 18000 PEA VOLTA สระบุรี,14.53803825,100.91025543,PEA,"
            100.91025543,14.53803825,0
          "
บ้านโป่ง,Power: 25 kW<br>Description: 22 ตำบล ปากแรต อำเภอบ้านโป่ง ราชบุรี 70110 PEA VOLTA บ้านโป่ง<br>Latitude: 13.83493519<br>Longitude: 99.87091064<br>Provider: PEA,#icon-1899-DB4436-labelson,25 kW,22 ตำบล ปากแรต อำเภอบ้านโป่ง ราชบุรี 70110 PEA VOLTA บ้านโป่ง,13.83493519,99.87091064,PEA,"
            99.87091064,13.83493519,0
          "
กบินทร์บุรี,Power: 25 kW<br>Description: 28 3 ตำบล เมืองเก่า อำเภอกบินทร์บุรี ปราจีนบุรี 25240 PEA VOLTA กบินทร์บุรี<br>Latitude: 13.97805500<br>Longitude: 101.75205231<br>Provider: PEA,#icon-1899-DB4436-labelson,25 kW,28 3 ตำบล เมืองเก่า อำเภอกบินทร์บุรี ปราจีนบุรี 25240 PEA VOLTA กบินทร์บุรี,13.97805500,101.75205231,PEA,"
            101.75205231,13.978055,0
          "
รัตภูมิ,Power: 25 kW<br>Description: 436 ถนน ยนตรการกำธร ตำบล ท่าชะมวง อำเภอรัตภูมิ สงขลา 90180 PEA VOLTA รัตภูมิ<br>Latitude: 7.12478495<br>Longitude: 100.23781586<br>Provider: PEA,#icon-1899-DB4436-labelson,25 kW,436 ถนน ยนตรการกำธร ตำบล ท่าชะมวง อำเภอรัตภูมิ สงขลา 90180 PEA VOLTA รัตภูมิ,7.12478495,100.23781586,PEA,"
            100.23781586,7.12478495,0
          "
สตูล,"Power: 25 kW<br>Description: 104, 6 ซอย สฤษดิ์ภูมินารถ อำเภอเมืองสตูล สตูล 91000 PEA VOLTA สตูล<br>Latitude: 6.61106920<br>Longitude: 100.07357788<br>Provider: PEA",#icon-1899-DB4436-labelson,25 kW,"104, 6 ซอย สฤษดิ์ภูมินารถ อำเภอเมืองสตูล สตูล 91000 PEA VOLTA สตูล",6.61106920,100.07357788,PEA,"
            100.07357788,6.6110692,0
          "
สทิงพระ,Power: 25 kW<br>Description: ตำบล จะทิ้งพระ อำเภอ สทิงพระ สงขลา 90190 PEA VOLTA สทิงพระ<br>Latitude: 7.48578215<br>Longitude: 100.43576050<br>Provider: PEA,#icon-1899-DB4436-labelson,25 kW,ตำบล จะทิ้งพระ อำเภอ สทิงพระ สงขลา 90190 PEA VOLTA สทิงพระ,7.48578215,100.43576050,PEA,"
            100.4357605,7.48578215,0
          "
ลำพูน,Power: 25 kW<br>Description: ถนน ลำพูน-ป่าซาง ตำบล ในเมือง อำเภอเมืองลำพูน ลำพูน PEA VOLTA ลำพูน<br>Latitude: 18.56887054<br>Longitude: 98.99656677<br>Provider: PEA,#icon-1899-DB4436-labelson,25 kW,ถนน ลำพูน-ป่าซาง ตำบล ในเมือง อำเภอเมืองลำพูน ลำพูน PEA VOLTA ลำพูน,18.56887054,98.99656677,PEA,"
            98.99656677,18.56887054,0
          "
พร้าว,Power: 25 kW<br>Description: ตำบล เวียง อำเภอพร้าว เชียงใหม่ 50190 PEA VOLTA พร้าว<br>Latitude: 19.36980247<br>Longitude: 99.19470215<br>Provider: PEA,#icon-1899-DB4436-labelson,25 kW,ตำบล เวียง อำเภอพร้าว เชียงใหม่ 50190 PEA VOLTA พร้าว,19.36980247,99.19470215,PEA,"
            99.19470215,19.36980247,0
          "
ตากใบ,Power: 25 kW<br>Description: 29/14 ตำบล เจ๊ะเห อำเภอ ตากใบ นราธิวาส 96110 PEA VOLTA ตากใบ<br>Latitude: 6.25482798<br>Longitude: 102.04001617<br>Provider: PEA,#icon-1899-DB4436-labelson,25 kW,29/14 ตำบล เจ๊ะเห อำเภอ ตากใบ นราธิวาส 96110 PEA VOLTA ตากใบ,6.25482798,102.04001617,PEA,"
            102.04001617,6.25482798,0
          "
สศช.,Power: 120 kW<br>Description: 962 ถ. กรุงเกษม แขวงวัดโสมนัส เขตป้อมปราบศัตรูพ่าย กรุงเทพมหานคร 10100 PEA VOLTA สศช.<br>Latitude: 13.75687885<br>Longitude: 100.51401520<br>Provider: PEA,#icon-1899-DB4436-labelson,120 kW,962 ถ. กรุงเกษม แขวงวัดโสมนัส เขตป้อมปราบศัตรูพ่าย กรุงเทพมหานคร 10100 PEA VOLTA สศช.,13.75687885,100.51401520,PEA,"
            100.5140152,13.75687885,0
          "
คาลเท็กซ์ เมืองขอนแก่น,Power: 120 kW<br>Description: ตำบลบึงเนียม อำเภอเมืองขอนแก่น ขอนแก่น PEA VOLTA คาลเท็กซ์ เมืองขอนแก่น<br>Latitude: 16.43793488<br>Longitude: 102.92613983<br>Provider: PEA,#icon-1899-DB4436-labelson,120 kW,ตำบลบึงเนียม อำเภอเมืองขอนแก่น ขอนแก่น PEA VOLTA คาลเท็กซ์ เมืองขอนแก่น,16.43793488,102.92613983,PEA,"
            102.92613983,16.43793488,0
          "
สถานีชาร์จ ฮูลิแกน คาเฟ่ (เครือข่าย VOLTA),Power: 40 kW<br>Description: 6002 ตำบล ตะกาดเง้า อำเภอท่าใหม่ จันทบุรี 22120 สถานีชาร์จ ฮูลิแกน คาเฟ่ (เครือข่าย VOLTA)<br>Latitude: 12.61459160<br>Longitude: 101.99621582<br>Provider: PEA,#icon-1899-DB4436-labelson,40 kW,6002 ตำบล ตะกาดเง้า อำเภอท่าใหม่ จันทบุรี 22120 สถานีชาร์จ ฮูลิแกน คาเฟ่ (เครือข่าย VOLTA),12.61459160,101.99621582,PEA,"
            101.99621582,12.6145916,0
          "
สุราษฎร์ธานี,Power: 120 kW<br>Description: 147 ถนนดอนนก ตำบลตลาด อำเภอเมืองสุราษฎร์ธานี จังหวัดสุราษฎร์ธานี 84000 PEA VOLTA สุราษฎร์ธานี<br>Latitude: 9.13449287<br>Longitude: 99.33189392<br>Provider: PEA,#icon-1899-DB4436-labelson,120 kW,147 ถนนดอนนก ตำบลตลาด อำเภอเมืองสุราษฎร์ธานี จังหวัดสุราษฎร์ธานี 84000 PEA VOLTA สุราษฎร์ธานี,9.13449287,99.33189392,PEA,"
            99.33189392,9.13449287,0
          "
คาลเท็กซ์ ศรีราชา (หนองขาม),Power: 120 kW<br>Description: 6/37 ม.2 บายพาส 331 อำเภอศรีราชา ชลบุรี 20110 PEA VOLTA คาลเท็กซ์ ศรีราชา 2 (หนองขาม)<br>Latitude: 13.11799812<br>Longitude: 101.03105927<br>Provider: PEA,#icon-1899-DB4436-labelson,120 kW,6/37 ม.2 บายพาส 331 อำเภอศรีราชา ชลบุรี 20110 PEA VOLTA คาลเท็กซ์ ศรีราชา 2 (หนองขาม),13.11799812,101.03105927,PEA,"
            101.03105927,13.11799812,0
          "
คาลเท็กซ์ หนองหาน,Power: 120 kW<br>Description: 99 ตำบล หนองเม็ก อำเภอหนองสองห้อง อุดรธานี 41130 PEA VOLTA คาลเท็กซ์ หนองหาน<br>Latitude: 17.36236382<br>Longitude: 103.15239716<br>Provider: PEA,#icon-1899-DB4436-labelson,120 kW,99 ตำบล หนองเม็ก อำเภอหนองสองห้อง อุดรธานี 41130 PEA VOLTA คาลเท็กซ์ หนองหาน,17.36236382,103.15239716,PEA,"
            103.15239716,17.36236382,0
          "
บ้านดุง,Power: 25 kW<br>Description: 2022 ตำบล บ้านดุง อำเภอ บ้านดุง อุดรธานี 41190 PEA VOLTA บ้านดุง<br>Latitude: 17.67753601<br>Longitude: 103.25028229<br>Provider: PEA,#icon-1899-DB4436-labelson,25 kW,2022 ตำบล บ้านดุง อำเภอ บ้านดุง อุดรธานี 41190 PEA VOLTA บ้านดุง,17.67753601,103.25028229,PEA,"
            103.25028229,17.67753601,0
          "
คาลเท็กซ์ ศรีราชา (เขาคันทรง),Power: 120 kW<br>Description: ทางหลวงยุทธศาสตร์ สัตหีบ - พนมสารคาม ตำบล เขาคันทรง อำเภอศรีราชา ชลบุรี 20110 PEA VOLTA คาลเท็กซ์ ศรีราชา 1 (เขาคันทรง)<br>Latitude: 13.10760880<br>Longitude: 101.14517212<br>Provider: PEA,#icon-1899-DB4436-labelson,120 kW,ทางหลวงยุทธศาสตร์ สัตหีบ - พนมสารคาม ตำบล เขาคันทรง อำเภอศรีราชา ชลบุรี 20110 PEA VOLTA คาลเท็กซ์ ศรีราชา 1 (เขาคันทรง),13.10760880,101.14517212,PEA,"
            101.14517212,13.1076088,0
          "
คาลเท็กซ์ โนนสะอาด,Power: 120 kW<br>Description: ตำบล โนนสะอาด อำเภอโนนสะอาด อุดรธานี 41240 PEA VOLTA คาลเท็กซ์ โนนสะอาด<br>Latitude: 16.98781586<br>Longitude: 102.89325714<br>Provider: PEA,#icon-1899-DB4436-labelson,120 kW,ตำบล โนนสะอาด อำเภอโนนสะอาด อุดรธานี 41240 PEA VOLTA คาลเท็กซ์ โนนสะอาด,16.98781586,102.89325714,PEA,"
            102.89325714,16.98781586,0
          "
คาลเท็กซ์ บ้านนาเดิม,"Power: 120 kW<br>Description: 416/14  ต บ้านนา อ บ้านนาเดิม, สุราษฎร์ธานี, 84240 PEA VOLTA คาลเท็กซ์ บ้านนาเดิม<br>Latitude: 8.88339996<br>Longitude: 99.29445648<br>Provider: PEA",#icon-1899-DB4436-labelson,120 kW,"416/14  ต บ้านนา อ บ้านนาเดิม, สุราษฎร์ธานี, 84240 PEA VOLTA คาลเท็กซ์ บ้านนาเดิม",8.88339996,99.29445648,PEA,"
            99.29445648,8.88339996,0
          "
เลย,Power: 25 kW<br>Description: ตำบลกุดป่อง อำเภอเมืองเลย เลย 42000 PEA VOLTA เลย<br>Latitude: 17.48475647<br>Longitude: 101.72724152<br>Provider: PEA,#icon-1899-DB4436-labelson,25 kW,ตำบลกุดป่อง อำเภอเมืองเลย เลย 42000 PEA VOLTA เลย,17.48475647,101.72724152,PEA,"
            101.72724152,17.48475647,0
          "
บางจาก พนัสนิคม,Power: 120 kW<br>Description: นาวังหิน พนัสนิคม ชลบุรี PEA VOLTA บางจาก พนัสนิคม<br>Latitude: 13.43572426<br>Longitude: 101.28262329<br>Provider: PEA,#icon-1899-DB4436-labelson,120 kW,นาวังหิน พนัสนิคม ชลบุรี PEA VOLTA บางจาก พนัสนิคม,13.43572426,101.28262329,PEA,"
            101.28262329,13.43572426,0
          "
คาลเท็กซ์ โนนศิลา,Power: 120 kW<br>Description: ตำบลโนนแดง อำเภอโนนศิลา ขอนแก่น 40110 PEA VOLTA คาลเท็กซ์ โนนศิลา<br>Latitude: 16.00981712<br>Longitude: 102.70428467<br>Provider: PEA,#icon-1899-DB4436-labelson,120 kW,ตำบลโนนแดง อำเภอโนนศิลา ขอนแก่น 40110 PEA VOLTA คาลเท็กซ์ โนนศิลา,16.00981712,102.70428467,PEA,"
            102.70428467,16.00981712,0
          "
เชียงคาน,Power: 25 kW<br>Description:  PEA VOLTA เชียงคาน<br>Latitude: 17.87599564<br>Longitude: 101.65517426<br>Provider: PEA,#icon-1899-DB4436-labelson,25 kW, PEA VOLTA เชียงคาน,17.87599564,101.65517426,PEA,"
            101.65517426,17.87599564,0
          "
7-11 ปลายพระยา,Power: 120 kW<br>Description: ต.ปลายพระยา อ.ปลายพระยา จ.กระบี่ 81160 PEA VOLTA 7-Eleven ปลายพระยา<br>Latitude: 8.49898815<br>Longitude: 98.88202667<br>Provider: PEA,#icon-1899-DB4436-labelson,120 kW,ต.ปลายพระยา อ.ปลายพระยา จ.กระบี่ 81160 PEA VOLTA 7-Eleven ปลายพระยา,8.49898815,98.88202667,PEA,"
            98.88202667,8.49898815,0
          "
จัตุรัส,Power: 25 kW<br>Description: ถนน ชัยภูมิ - สีคิ้ว ตำบล กุดน้ำใส อำเภอจัตุรัส ชัยภูมิ 36130 PEA VOLTA จัตุรัส<br>Latitude: 15.54472733<br>Longitude: 101.83874512<br>Provider: PEA,#icon-1899-DB4436-labelson,25 kW,ถนน ชัยภูมิ - สีคิ้ว ตำบล กุดน้ำใส อำเภอจัตุรัส ชัยภูมิ 36130 PEA VOLTA จัตุรัส,15.54472733,101.83874512,PEA,"
            101.83874512,15.54472733,0
          "
ตรัง,Power: 120 kW<br>Description: 240 หมู่ 5 ถนนเพชรเกษม ตำบลนาท่ามเหนือ อำเภอเมืองตรัง จังหวัดตรัง 92000 PEA VOLTA ตรัง<br>Latitude: 7.60705233<br>Longitude: 99.59906769<br>Provider: PEA,#icon-1899-DB4436-labelson,120 kW,240 หมู่ 5 ถนนเพชรเกษม ตำบลนาท่ามเหนือ อำเภอเมืองตรัง จังหวัดตรัง 92000 PEA VOLTA ตรัง,7.60705233,99.59906769,PEA,"
            99.59906769,7.60705233,0
          "
ประทาย,Power: 25 kW<br>Description: ตำบล กระทุ่มราย อำเภอ ประทาย นครราชสีมา 30180 PEA VOLTA ประทาย<br>Latitude: 15.52530384<br>Longitude: 102.70632172<br>Provider: PEA,#icon-1899-DB4436-labelson,25 kW,ตำบล กระทุ่มราย อำเภอ ประทาย นครราชสีมา 30180 PEA VOLTA ประทาย,15.52530384,102.70632172,PEA,"
            102.70632172,15.52530384,0
          "
บางจาก คลองหลวง,Power: 120 kW<br>Description: คลองหนึ่ง ตำบล คลองหนึ่ง อำเภอคลองหลวง ปทุมธานี 12120 PEA VOLTA บางจาก คลองหลวง<br>Latitude: 14.00048637<br>Longitude: 100.61315155<br>Provider: PEA,#icon-1899-DB4436-labelson,120 kW,คลองหนึ่ง ตำบล คลองหนึ่ง อำเภอคลองหลวง ปทุมธานี 12120 PEA VOLTA บางจาก คลองหลวง,14.00048637,100.61315155,PEA,"
            100.61315155,14.00048637,0
          "
บางจาก ปราณบุรี,Power: 120 kW<br>Description: 625/3 หมู่ที่ 1 ตำบลเขาน้อย อำเภอปราณบุรี จ.ประจวบคีรีขันธ์ 77120 PEA VOLTA บางจาก ปราณบุรี<br>Latitude: 12.37836170<br>Longitude: 99.89122772<br>Provider: PEA,#icon-1899-DB4436-labelson,120 kW,625/3 หมู่ที่ 1 ตำบลเขาน้อย อำเภอปราณบุรี จ.ประจวบคีรีขันธ์ 77120 PEA VOLTA บางจาก ปราณบุรี,12.37836170,99.89122772,PEA,"
            99.89122772,12.3783617,0
          "
คาลเท็กซ์ เขาย้อย,"Power: 120 kW<br>Description: 79/8 ต.บางเค็ม อ.เขาย้อย, เพชรบุรี, 76140 PEA VOLTA คาลเท็กซ์ เขาย้อย<br>Latitude: 13.28295517<br>Longitude: 99.82014465<br>Provider: PEA",#icon-1899-DB4436-labelson,120 kW,"79/8 ต.บางเค็ม อ.เขาย้อย, เพชรบุรี, 76140 PEA VOLTA คาลเท็กซ์ เขาย้อย",13.28295517,99.82014465,PEA,"
            99.82014465,13.28295517,0
          "
คาลเท็กซ์ นิคมพัฒนา,Power: 120 kW<br>Description: มะขามคู่ นิคมพัฒนา ระยอง PEA VOLTA คาลเท็กซ์ นิคมพัฒนา<br>Latitude: 12.84209824<br>Longitude: 101.11863708<br>Provider: PEA,#icon-1899-DB4436-labelson,120 kW,มะขามคู่ นิคมพัฒนา ระยอง PEA VOLTA คาลเท็กซ์ นิคมพัฒนา,12.84209824,101.11863708,PEA,"
            101.11863708,12.84209824,0
          "
คาลเท็กซ์ บ้านฉาง,Power: 120 kW<br>Description: 2 หมู่ 6 ถนนสุขุมวิท ตำบลบ้านฉาง อำเภอบ้านฉาง ระยอง 21130 PEA VOLTA คาลเท็กซ์ บ้านฉาง<br>Latitude: 12.74680042<br>Longitude: 101.09854889<br>Provider: PEA,#icon-1899-DB4436-labelson,120 kW,2 หมู่ 6 ถนนสุขุมวิท ตำบลบ้านฉาง อำเภอบ้านฉาง ระยอง 21130 PEA VOLTA คาลเท็กซ์ บ้านฉาง,12.74680042,101.09854889,PEA,"
            101.09854889,12.74680042,0
          "
เอสโซ่ สอยดาว,Power: 120 kW<br>Description: ทรายขาว สอยดาว จันทบุรี PEA VOLTA เอสโซ่ สอยดาว<br>Latitude: 13.11003685<br>Longitude: 102.22493744<br>Provider: PEA,#icon-1899-DB4436-labelson,120 kW,ทรายขาว สอยดาว จันทบุรี PEA VOLTA เอสโซ่ สอยดาว,13.11003685,102.22493744,PEA,"
            102.22493744,13.11003685,0
          "
7-11 ตะพานหิน,Power: 120 kW<br>Description: ตำบล ตะพานหิน อำเภอ ตะพานหิน พิจิตร 66110 PEA VOLTA 7-Eleven ตะพานหิน<br>Latitude: 16.21565056<br>Longitude: 100.43859863<br>Provider: PEA,#icon-1899-DB4436-labelson,120 kW,ตำบล ตะพานหิน อำเภอ ตะพานหิน พิจิตร 66110 PEA VOLTA 7-Eleven ตะพานหิน,16.21565056,100.43859863,PEA,"
            100.43859863,16.21565056,0
          "
จันทบุรี,Power: 120 kW<br>Description: 1166 ถนน ท่าแฉลบ ตำบล ตลาด อำเภอเมืองจันทบุรี จันทบุรี 22000 PEA VOLTA จันทบุรี<br>Latitude: 12.59599876<br>Longitude: 102.09552765<br>Provider: PEA,#icon-1899-DB4436-labelson,120 kW,1166 ถนน ท่าแฉลบ ตำบล ตลาด อำเภอเมืองจันทบุรี จันทบุรี 22000 PEA VOLTA จันทบุรี,12.59599876,102.09552765,PEA,"
            102.09552765,12.59599876,0
          "
7-11 พรหมพิราม,Power: 120 kW<br>Description: ตำบล ดงประคำ อำเภอ พรหมพิราม พิษณุโลก 65180 PEA VOLTA 7-Eleven พรหมพิราม<br>Latitude: 17.19698524<br>Longitude: 100.26509857<br>Provider: PEA,#icon-1899-DB4436-labelson,120 kW,ตำบล ดงประคำ อำเภอ พรหมพิราม พิษณุโลก 65180 PEA VOLTA 7-Eleven พรหมพิราม,17.19698524,100.26509857,PEA,"
            100.26509857,17.19698524,0
          "
คาลเท็กซ์ ขาณุวรลักษบุรี,Power: 120 kW<br>Description: ตำบล สลกบาตร อำเภอขาณุวรลักษบุรี กำแพงเพชร 62140 PEA VOLTA คาลเท็กซ์ ขาณุวรลักษบุรี<br>Latitude: 16.00706482<br>Longitude: 99.79769135<br>Provider: PEA,#icon-1899-DB4436-labelson,120 kW,ตำบล สลกบาตร อำเภอขาณุวรลักษบุรี กำแพงเพชร 62140 PEA VOLTA คาลเท็กซ์ ขาณุวรลักษบุรี,16.00706482,99.79769135,PEA,"
            99.79769135,16.00706482,0
          "
บางจาก เมืองนครสวรรค์,Power: 120 kW<br>Description: 125/14 หมู่ที่ 10 ตำบลวัดไทรย์ อำเภอเมืองนครสวรรค์ จ.นครสวรรค์ PEA VOLTA บางจาก เมืองนครสวรรค์<br>Latitude: 15.70757294<br>Longitude: 100.08807373<br>Provider: PEA,#icon-1899-DB4436-labelson,120 kW,125/14 หมู่ที่ 10 ตำบลวัดไทรย์ อำเภอเมืองนครสวรรค์ จ.นครสวรรค์ PEA VOLTA บางจาก เมืองนครสวรรค์,15.70757294,100.08807373,PEA,"
            100.08807373,15.70757294,0
          "
ลี้,Power: 25 kW<br>Description: 333 หมู่ 4 ตำบล ลี้ อำเภอลี้ ลำพูน 51110 PEA VOLTA ลี้<br>Latitude: 17.79114532<br>Longitude: 98.95233154<br>Provider: PEA,#icon-1899-DB4436-labelson,25 kW,333 หมู่ 4 ตำบล ลี้ อำเภอลี้ ลำพูน 51110 PEA VOLTA ลี้,17.79114532,98.95233154,PEA,"
            98.95233154,17.79114532,0
          "
แม่สาย,Power: 25 kW<br>Description: 226 หมู่ 8 ตำบล แม่สาย อำเภอแม่สาย เชียงราย 57130 PEA VOLTA แม่สาย<br>Latitude: 20.42733002<br>Longitude: 99.88751221<br>Provider: PEA,#icon-1899-DB4436-labelson,25 kW,226 หมู่ 8 ตำบล แม่สาย อำเภอแม่สาย เชียงราย 57130 PEA VOLTA แม่สาย,20.42733002,99.88751221,PEA,"
            99.88751221,20.42733002,0
          "
บันนังสตา,Power: 25 kW<br>Description: ตำบล บันนังสตา อำเภอ บันนังสตา ยะลา 95130 PEA VOLTA บันนังสตา<br>Latitude: 6.25653791<br>Longitude: 101.24871063<br>Provider: PEA,#icon-1899-DB4436-labelson,25 kW,ตำบล บันนังสตา อำเภอ บันนังสตา ยะลา 95130 PEA VOLTA บันนังสตา,6.25653791,101.24871063,PEA,"
            101.24871063,6.25653791,0
          "
คาลเท็กซ์ ปราณบุรี,Power: 120 kW<br>Description: ตำบลหนองตาแต้ม อำเภอปราณบุรี จังหวัดประจวบคีรีขันธ์ 77120 PEA VOLTA คาลเท็กซ์ ปราณบุรี<br>Latitude: 12.35778427<br>Longitude: 99.88494110<br>Provider: PEA,#icon-1899-DB4436-labelson,120 kW,ตำบลหนองตาแต้ม อำเภอปราณบุรี จังหวัดประจวบคีรีขันธ์ 77120 PEA VOLTA คาลเท็กซ์ ปราณบุรี,12.35778427,99.88494110,PEA,"
            99.8849411,12.35778427,0
          "
บางจาก ชัยบาดาล,Power: 120 kW<br>Description: 8/1 หมู่ที่ 5 ต.นิคมลำนารายณ์ อ.ชัยบาดาล จ.ลพบุรี 15130 PEA VOLTA บางจาก ชัยบาดาล<br>Latitude: 15.22600460<br>Longitude: 101.12749481<br>Provider: PEA,#icon-1899-DB4436-labelson,120 kW,8/1 หมู่ที่ 5 ต.นิคมลำนารายณ์ อ.ชัยบาดาล จ.ลพบุรี 15130 PEA VOLTA บางจาก ชัยบาดาล,15.22600460,101.12749481,PEA,"
            101.12749481,15.2260046,0
          "
7-11 เมืองประจวบคีรีขันธ์,Power: 120 kW<br>Description: ถ.สุขใจ ต.ประจวบคีรีขันธ์ อ.เมืองประจวบคีรีขันธ์ ประจวบคีรีขันธ์ PEA VOLTA 7-Eleven เมืองประจวบคีรีขันธ์<br>Latitude: 11.80021954<br>Longitude: 99.79222107<br>Provider: PEA,#icon-1899-DB4436-labelson,120 kW,ถ.สุขใจ ต.ประจวบคีรีขันธ์ อ.เมืองประจวบคีรีขันธ์ ประจวบคีรีขันธ์ PEA VOLTA 7-Eleven เมืองประจวบคีรีขันธ์,11.80021954,99.79222107,PEA,"
            99.79222107,11.80021954,0
          "
คาลเท็กซ์ พนมสารคาม,Power: 120 kW<br>Description: ตำบลเมืองเก่า อำเภอพนมสารคาม ฉะเชิงเทรา 24120 PEA VOLTA คาลเท็กซ์ พนมสารคาม<br>Latitude: 13.72176456<br>Longitude: 101.31787109<br>Provider: PEA,#icon-1899-DB4436-labelson,120 kW,ตำบลเมืองเก่า อำเภอพนมสารคาม ฉะเชิงเทรา 24120 PEA VOLTA คาลเท็กซ์ พนมสารคาม,13.72176456,101.31787109,PEA,"
            101.31787109,13.72176456,0
          "
เขตพระนครศรีอยุธยา,Power: 120 kW<br>Description: 46 หมู่ 6 ถ.สายเอเชีย ต.หันตรา อำเภอ พระนครศรีอยุธยา จังหวัดพระนครศรีอยุธยา 13000 PEA VOLTA เขตพระนครศรีอยุธยา<br>Latitude: 14.38348198<br>Longitude: 100.60335541<br>Provider: PEA,#icon-1899-DB4436-labelson,120 kW,46 หมู่ 6 ถ.สายเอเชีย ต.หันตรา อำเภอ พระนครศรีอยุธยา จังหวัดพระนครศรีอยุธยา 13000 PEA VOLTA เขตพระนครศรีอยุธยา,14.38348198,100.60335541,PEA,"
            100.60335541,14.38348198,0
          "
ท่ามะกา,Power: 25 kW<br>Description:  PEA VOLTA ท่ามะกา<br>Latitude: 13.90371323<br>Longitude: 99.74560547<br>Provider: PEA,#icon-1899-DB4436-labelson,25 kW, PEA VOLTA ท่ามะกา,13.90371323,99.74560547,PEA,"
            99.74560547,13.90371323,0
          "
บางจาก สามพราน (บางกระทึก),Power: 120 kW<br>Description: ถ. พุทธมณฑลสาย 5 ตำบล บางกระทึก อำเภอสามพราน นครปฐม 73210 PEA VOLTA บางจาก สามพราน 2 (บางกระทึก)<br>Latitude: 13.75924587<br>Longitude: 100.30167389<br>Provider: PEA,#icon-1899-DB4436-labelson,120 kW,ถ. พุทธมณฑลสาย 5 ตำบล บางกระทึก อำเภอสามพราน นครปฐม 73210 PEA VOLTA บางจาก สามพราน 2 (บางกระทึก),13.75924587,100.30167389,PEA,"
            100.30167389,13.75924587,0
          "
7-11 ย่านตาขาว,Power: 120 kW<br>Description:  ตำบล ย่านตาขาว อำเภอ ย่านตาขาว จ. ตรัง&#13;&#10;&#13;&#10; PEA VOLTA 7-Eleven ย่านตาขาว<br>Latitude: 7.37824297<br>Longitude: 99.67483521<br>Provider: PEA,#icon-1899-DB4436-labelson,120 kW, ตำบล ย่านตาขาว อำเภอ ย่านตาขาว จ. ตรัง&#13;&#10;&#13;&#10; PEA VOLTA 7-Eleven ย่านตาขาว,7.37824297,99.67483521,PEA,"
            99.67483521,7.37824297,0
          "
คาลเท็กซ์ เมืองตรัง,"Power: 120 kW<br>Description: 221/12 ถ.ท่ากลาง ต.ทับเที่ยง อ.เมือง, ตรัง, 92000 PEA VOLTA คาลเท็กซ์ เมืองตรัง<br>Latitude: 7.56078815<br>Longitude: 99.59434509<br>Provider: PEA",#icon-1899-DB4436-labelson,120 kW,"221/12 ถ.ท่ากลาง ต.ทับเที่ยง อ.เมือง, ตรัง, 92000 PEA VOLTA คาลเท็กซ์ เมืองตรัง",7.56078815,99.59434509,PEA,"
            99.59434509,7.56078815,0
          "
บางจาก เมืองสมุทรสาคร (บางกระเจ้า),Power: 120 kW<br>Description: ตำบลบางกระเจ้า อำเภอเมืองสมุทรสาคร สมุทรสาคร 74000 PEA VOLTA บางจาก เมืองสมุทรสาคร 2 (บางกระเจ้า)<br>Latitude: 13.53953838<br>Longitude: 100.23036957<br>Provider: PEA,#icon-1899-DB4436-labelson,120 kW,ตำบลบางกระเจ้า อำเภอเมืองสมุทรสาคร สมุทรสาคร 74000 PEA VOLTA บางจาก เมืองสมุทรสาคร 2 (บางกระเจ้า),13.53953838,100.23036957,PEA,"
            100.23036957,13.53953838,0
          "
คาลเท็กซ์ กระทุ่มแบน,Power: 120 kW<br>Description: ตำบล อ้อมน้อย อำเภอกระทุ่มแบน สมุทรสาคร 74130 PEA VOLTA คาลเท็กซ์ กระทุ่มแบน<br>Latitude: 13.70517540<br>Longitude: 100.31701660<br>Provider: PEA,#icon-1899-DB4436-labelson,120 kW,ตำบล อ้อมน้อย อำเภอกระทุ่มแบน สมุทรสาคร 74130 PEA VOLTA คาลเท็กซ์ กระทุ่มแบน,13.70517540,100.31701660,PEA,"
            100.3170166,13.7051754,0
          "
พังงา,Power: 120 kW<br>Description: 76/1 หมู่3 ตาบลถ้าน้าผุด อาเภอเมือง จังหวัดพังงา. การไฟฟ้าส่วนภูมิภาคจังหวัดพังงา. PEA VOLTA พังงา<br>Latitude: 8.44794273<br>Longitude: 98.53263092<br>Provider: PEA,#icon-1899-DB4436-labelson,120 kW,76/1 หมู่3 ตาบลถ้าน้าผุด อาเภอเมือง จังหวัดพังงา. การไฟฟ้าส่วนภูมิภาคจังหวัดพังงา. PEA VOLTA พังงา,8.44794273,98.53263092,PEA,"
            98.53263092,8.44794273,0
          "
ฮอด,Power: 25 kW<br>Description: ตำบล หางดง อำเภอฮอด เชียงใหม่ 50240 PEA VOLTA ฮอด<br>Latitude: 18.17254257<br>Longitude: 98.61086273<br>Provider: PEA,#icon-1899-DB4436-labelson,25 kW,ตำบล หางดง อำเภอฮอด เชียงใหม่ 50240 PEA VOLTA ฮอด,18.17254257,98.61086273,PEA,"
            98.61086273,18.17254257,0
          "
มหาวิทยาลัยมหิดล วิทยาเขตกาญจนบุรี,Power: 120 kW<br>Description: ตำบล ลุ่มสุ่ม อำเภอไทรโยค กาญจนบุรี 71150 PEA VOLTA มหาวิทยาลัยมหิดล วิทยาเขตกาญจนบุรี<br>Latitude: 14.13148499<br>Longitude: 99.16014099<br>Provider: PEA,#icon-1899-DB4436-labelson,120 kW,ตำบล ลุ่มสุ่ม อำเภอไทรโยค กาญจนบุรี 71150 PEA VOLTA มหาวิทยาลัยมหิดล วิทยาเขตกาญจนบุรี,14.13148499,99.16014099,PEA,"
            99.16014099,14.13148499,0
          "
พิษณุโลก,Power: 120 kW<br>Description: 350/9 ถนนมิตรภาพ ตำบลสมอแข อำเภอเมืองพิษณุโลก จังหวัดพิษณุโลก 65000 PEA VOLTA พิษณุโลก<br>Latitude: 16.81752777<br>Longitude: 100.32225037<br>Provider: PEA,#icon-1899-DB4436-labelson,120 kW,350/9 ถนนมิตรภาพ ตำบลสมอแข อำเภอเมืองพิษณุโลก จังหวัดพิษณุโลก 65000 PEA VOLTA พิษณุโลก,16.81752777,100.32225037,PEA,"
            100.32225037,16.81752777,0
          "
ป่าตอง,Power: 120 kW<br>Description: 187/15 ถ.ราษฎร์อุทิศ200ปี ต.ป่าตอง อ.กะทู้ จ.ภูเก็ต 83150 PEA VOLTA ป่าตอง<br>Latitude: 7.89057636<br>Longitude: 98.29814911<br>Provider: PEA,#icon-1899-DB4436-labelson,120 kW,187/15 ถ.ราษฎร์อุทิศ200ปี ต.ป่าตอง อ.กะทู้ จ.ภูเก็ต 83150 PEA VOLTA ป่าตอง,7.89057636,98.29814911,PEA,"
            98.29814911,7.89057636,0
          "
เชียงใหม่,Power: 25 kW<br>Description: ถ. เชียงใหม่-ลำพูน ตำบลวัดเกต อำเภอเมืองเชียงใหม่ เชียงใหม่ 50000 PEA VOLTA เชียงใหม่<br>Latitude: 18.77384377<br>Longitude: 99.00720978<br>Provider: PEA,#icon-1899-DB4436-labelson,25 kW,ถ. เชียงใหม่-ลำพูน ตำบลวัดเกต อำเภอเมืองเชียงใหม่ เชียงใหม่ 50000 PEA VOLTA เชียงใหม่,18.77384377,99.00720978,PEA,"
            99.00720978,18.77384377,0
          "
แม่แตง,Power: 25 kW<br>Description: 162 ตำบล สันมหาพน อำเภอแม่แตง เชียงใหม่ 50150 PEA VOLTA แม่แตง<br>Latitude: 19.11118126<br>Longitude: 98.93791962<br>Provider: PEA,#icon-1899-DB4436-labelson,25 kW,162 ตำบล สันมหาพน อำเภอแม่แตง เชียงใหม่ 50150 PEA VOLTA แม่แตง,19.11118126,98.93791962,PEA,"
            98.93791962,19.11118126,0
          "
คาลเท็กซ์ สบปราบ,"Power: 120 kW<br>Description: 167 หมู่ที่ 15 ถนนพหลโยธิน ตำบลสบปราบ อำเภอสบปราบ, ลำปาง, 52170 PEA VOLTA คาลเท็กซ์ สบปราบ<br>Latitude: 17.90705681<br>Longitude: 99.34196472<br>Provider: PEA",#icon-1899-DB4436-labelson,120 kW,"167 หมู่ที่ 15 ถนนพหลโยธิน ตำบลสบปราบ อำเภอสบปราบ, ลำปาง, 52170 PEA VOLTA คาลเท็กซ์ สบปราบ",17.90705681,99.34196472,PEA,"
            99.34196472,17.90705681,0
          "
เขาค้อ,Power: 120 kW<br>Description: 173 หมู่1 ตำบล เขาค้อ อำเภอเขาค้อ เพชรบูรณ์ 67270 PEA VOLTA เขาค้อ<br>Latitude: 16.63161469<br>Longitude: 100.99673462<br>Provider: PEA,#icon-1899-DB4436-labelson,120 kW,173 หมู่1 ตำบล เขาค้อ อำเภอเขาค้อ เพชรบูรณ์ 67270 PEA VOLTA เขาค้อ,16.63161469,100.99673462,PEA,"
            100.99673462,16.63161469,0
          "
เชียงราย,Power: 25 kW<br>Description: ถนน ราชเดชดำรงค์ ตำบล รอบเวียง อำเภอเมืองเชียงราย เชียงราย 57000 PEA VOLTA เชียงราย<br>Latitude: 19.91152382<br>Longitude: 99.82334137<br>Provider: PEA,#icon-1899-DB4436-labelson,25 kW,ถนน ราชเดชดำรงค์ ตำบล รอบเวียง อำเภอเมืองเชียงราย เชียงราย 57000 PEA VOLTA เชียงราย,19.91152382,99.82334137,PEA,"
            99.82334137,19.91152382,0
          "
แจ่มฟ้า เมืองลำพูน,Power: 120 kW<br>Description: ตำบล เวียงยอง อำเภอเมืองลำพูน ลำพูน 51000 PEA VOLTA แจ่มฟ้า เมืองลำพูน<br>Latitude: 18.55843925<br>Longitude: 99.03946686<br>Provider: PEA,#icon-1899-DB4436-labelson,120 kW,ตำบล เวียงยอง อำเภอเมืองลำพูน ลำพูน 51000 PEA VOLTA แจ่มฟ้า เมืองลำพูน,18.55843925,99.03946686,PEA,"
            99.03946686,18.55843925,0
          "
เกาะลันตา,Power: 25 kW<br>Description: ม.2 ต.เกาะลันตาใหญ่ อำเภอเกาะลันตา กระบี่ PEA VOLTA เกาะลันตา<br>Latitude: 7.52970982<br>Longitude: 99.09133148<br>Provider: PEA,#icon-1899-DB4436-labelson,25 kW,ม.2 ต.เกาะลันตาใหญ่ อำเภอเกาะลันตา กระบี่ PEA VOLTA เกาะลันตา,7.52970982,99.09133148,PEA,"
            99.09133148,7.52970982,0
          "
แม่จัน,Power: 25 kW<br>Description:  PEA VOLTA แม่จัน<br>Latitude: 20.13821793<br>Longitude: 99.84252930<br>Provider: PEA,#icon-1899-DB4436-labelson,25 kW, PEA VOLTA แม่จัน,20.13821793,99.84252930,PEA,"
            99.8425293,20.13821793,0
          "
บางจาก หางดง,Power: 120 kW<br>Description: 110 ต.หนองควาย อ.หางดง จ. เชียงใหม่ 50230 PEA VOLTA บางจาก หางดง<br>Latitude: 18.71303177<br>Longitude: 98.92556763<br>Provider: PEA,#icon-1899-DB4436-labelson,120 kW,110 ต.หนองควาย อ.หางดง จ. เชียงใหม่ 50230 PEA VOLTA บางจาก หางดง,18.71303177,98.92556763,PEA,"
            98.92556763,18.71303177,0
          "
บางจาก กุมภวาปี,Power: 120 kW<br>Description: 299 หมู่1 อำเภอกุมภวาปี อุดรธานี 41110 PEA VOLTA บางจาก กุมภวาปี<br>Latitude: 17.11879158<br>Longitude: 102.98889923<br>Provider: PEA,#icon-1899-DB4436-labelson,120 kW,299 หมู่1 อำเภอกุมภวาปี อุดรธานี 41110 PEA VOLTA บางจาก กุมภวาปี,17.11879158,102.98889923,PEA,"
            102.98889923,17.11879158,0
          "
คาลเท็กซ์ แม่แตง,Power: 120 kW<br>Description: 1095  ต.สบเปิง อ.แม่แตง จ.เชียงใหม่ PEA VOLTA คาลเท็กซ์ แม่แตง<br>Latitude: 19.09432793<br>Longitude: 98.85349274<br>Provider: PEA,#icon-1899-DB4436-labelson,120 kW,1095  ต.สบเปิง อ.แม่แตง จ.เชียงใหม่ PEA VOLTA คาลเท็กซ์ แม่แตง,19.09432793,98.85349274,PEA,"
            98.85349274,19.09432793,0
          "
คาลเท็กซ์ เวียงป่าเป้า,Power: 120 kW<br>Description: 179 ตำบล ป่างิ้ว อำเภอเวียงป่าเป้า เชียงราย 57170 PEA VOLTA คาลเท็กซ์ เวียงป่าเป้า<br>Latitude: 19.27036285<br>Longitude: 99.51170349<br>Provider: PEA,#icon-1899-DB4436-labelson,120 kW,179 ตำบล ป่างิ้ว อำเภอเวียงป่าเป้า เชียงราย 57170 PEA VOLTA คาลเท็กซ์ เวียงป่าเป้า,19.27036285,99.51170349,PEA,"
            99.51170349,19.27036285,0
          "
บางจาก หนองจิก,Power: 120 kW<br>Description: 200/1 หมู่ 8 ถนนสายเอเซีย (ปัตตานี-หาดใหญ่) ตำบลบ่อทอง จังหวัดปัตตานี 94170 PEA VOLTA บางจาก หนองจิก<br>Latitude: 6.80325985<br>Longitude: 101.14037323<br>Provider: PEA,#icon-1899-DB4436-labelson,120 kW,200/1 หมู่ 8 ถนนสายเอเซีย (ปัตตานี-หาดใหญ่) ตำบลบ่อทอง จังหวัดปัตตานี 94170 PEA VOLTA บางจาก หนองจิก,6.80325985,101.14037323,PEA,"
            101.14037323,6.80325985,0
          "
บางจาก เมืองหนองคาย (โพธิ์ชัย),"Power: 120 kW<br>Description: หมู่ที่9, 778, ตำบล โพธิ์ชัย อำเภอเมืองหนองคาย หนองคาย 43000 PEA VOLTA บางจาก เมืองหนองคาย 2 (โพธิ์ชัย)<br>Latitude: 17.86168098<br>Longitude: 102.74945831<br>Provider: PEA",#icon-1899-DB4436-labelson,120 kW,"หมู่ที่9, 778, ตำบล โพธิ์ชัย อำเภอเมืองหนองคาย หนองคาย 43000 PEA VOLTA บางจาก เมืองหนองคาย 2 (โพธิ์ชัย)",17.86168098,102.74945831,PEA,"
            102.74945831,17.86168098,0
          "
เขตอุดรธานี,Power: 120 kW<br>Description: 123 หมู่ 5 ถนน ช้างเผือก ตำบล นาดี อำเภอเมืองอุดรธานี อุดรธานี 41000 PEA VOLTA เขตอุดรธานี<br>Latitude: 17.36808968<br>Longitude: 102.75982666<br>Provider: PEA,#icon-1899-DB4436-labelson,120 kW,123 หมู่ 5 ถนน ช้างเผือก ตำบล นาดี อำเภอเมืองอุดรธานี อุดรธานี 41000 PEA VOLTA เขตอุดรธานี,17.36808968,102.75982666,PEA,"
            102.75982666,17.36808968,0
          "
แอนดาซ พัทยา จอมเทียน บีซ,Power: 40 kW<br>Description: 345 หมู่ 3 ต.นาจอมเทียน อ.สัตหีบ จ.จังหวัดชลบุรี 20250 ประเทศไทย แอนดาซ พัทยา จอมเทียน บีซ (เครือข่าย PEA VOLTA) #1<br>Latitude: 12.79167747<br>Longitude: 100.91093445<br>Provider: PEA,#icon-1899-DB4436-labelson,40 kW,345 หมู่ 3 ต.นาจอมเทียน อ.สัตหีบ จ.จังหวัดชลบุรี 20250 ประเทศไทย แอนดาซ พัทยา จอมเทียน บีซ (เครือข่าย PEA VOLTA) #1,12.79167747,100.91093445,PEA,"
            100.91093445,12.79167747,0
          "
ชีจรรย์ กอล์ฟ รีสอร์ท,Power: 40 kW<br>Description: เลขที่ 108/18 หมู่ 6 ตำบลนาจอมเทียน อำเภอสัตหีบ จังหวัดชลบุรี 20250 ชีจรรย์ กอล์ฟ รีสอร์ท (เครือข่าย PEA VOLTA) #1<br>Latitude: 12.77104568<br>Longitude: 100.96531677<br>Provider: PEA,#icon-1899-DB4436-labelson,40 kW,เลขที่ 108/18 หมู่ 6 ตำบลนาจอมเทียน อำเภอสัตหีบ จังหวัดชลบุรี 20250 ชีจรรย์ กอล์ฟ รีสอร์ท (เครือข่าย PEA VOLTA) #1,12.77104568,100.96531677,PEA,"
            100.96531677,12.77104568,0
          "
ร้องกวาง,Power: 25 kW<br>Description: ตำบล ร้องเข็ม อำเภอ ร้องกวาง แพร่ 54140 PEA VOLTA ร้องกวาง<br>Latitude: 18.31223488<br>Longitude: 100.29913330<br>Provider: PEA,#icon-1899-DB4436-labelson,25 kW,ตำบล ร้องเข็ม อำเภอ ร้องกวาง แพร่ 54140 PEA VOLTA ร้องกวาง,18.31223488,100.29913330,PEA,"
            100.2991333,18.31223488,0
          "
สวรรคโลก,Power: 25 kW<br>Description: 1180 ตำบล ในเมือง อำเภอ สวรรคโลก สุโขทัย 64110 PEA VOLTA สวรรคโลก<br>Latitude: 17.34454918<br>Longitude: 99.87569427<br>Provider: PEA,#icon-1899-DB4436-labelson,25 kW,1180 ตำบล ในเมือง อำเภอ สวรรคโลก สุโขทัย 64110 PEA VOLTA สวรรคโลก,17.34454918,99.87569427,PEA,"
            99.87569427,17.34454918,0
          "
บางจาก เมืองขอนแก่น (หน้า มข.),Power: 120 kW<br>Description: ตำบลในเมือง อำเภอเมืองขอนแก่น ขอนแก่น 40000 PEA VOLTA บางจาก เมืองขอนแก่น (หน้า มข.)<br>Latitude: 16.46076202<br>Longitude: 102.83218384<br>Provider: PEA,#icon-1899-DB4436-labelson,120 kW,ตำบลในเมือง อำเภอเมืองขอนแก่น ขอนแก่น 40000 PEA VOLTA บางจาก เมืองขอนแก่น (หน้า มข.),16.46076202,102.83218384,PEA,"
            102.83218384,16.46076202,0
          "
ปาย,Power: 120 kW<br>Description: 334 ม.8 ต.เวียงใต้ อ.ปาย จ.แม่ฮ่องสอน 58130 PEA VOLTA ปาย<br>Latitude: 19.36255455<br>Longitude: 98.42513275<br>Provider: PEA,#icon-1899-DB4436-labelson,120 kW,334 ม.8 ต.เวียงใต้ อ.ปาย จ.แม่ฮ่องสอน 58130 PEA VOLTA ปาย,19.36255455,98.42513275,PEA,"
            98.42513275,19.36255455,0
          "
ทุ่งเสลี่ยม,Power: 25 kW<br>Description:  PEA VOLTA ทุ่งเสลี่ยม<br>Latitude: 17.32690430<br>Longitude: 99.52598572<br>Provider: PEA,#icon-1899-DB4436-labelson,25 kW, PEA VOLTA ทุ่งเสลี่ยม,17.32690430,99.52598572,PEA,"
            99.52598572,17.3269043,0
          "
ถลาง,Power: 25 kW<br>Description: 12/29 ถ. เทพกระษัตรี ตำบล ศรีสุนทร อำเภอถลาง ภูเก็ต 83110 PEA VOLTA ถลาง<br>Latitude: 7.99268913<br>Longitude: 98.35411835<br>Provider: PEA,#icon-1899-DB4436-labelson,25 kW,12/29 ถ. เทพกระษัตรี ตำบล ศรีสุนทร อำเภอถลาง ภูเก็ต 83110 PEA VOLTA ถลาง,7.99268913,98.35411835,PEA,"
            98.35411835,7.99268913,0
          "
ภูเก็ต,Power: 25 kW<br>Description: ถ.พังงา ตำบลตลาดใหญ่ อำเภอเมืองภูเก็ต ภูเก็ต PEA VOLTA ภูเก็ต<br>Latitude: 7.88406181<br>Longitude: 98.39764404<br>Provider: PEA,#icon-1899-DB4436-labelson,25 kW,ถ.พังงา ตำบลตลาดใหญ่ อำเภอเมืองภูเก็ต ภูเก็ต PEA VOLTA ภูเก็ต,7.88406181,98.39764404,PEA,"
            98.39764404,7.88406181,0
          "
กำแพงเพชร,Power: 25 kW<br>Description: ตำบล ในเมือง อำเภอเมืองกำแพงเพชร กำแพงเพชร 62000 PEA VOLTA กำแพงเพชร<br>Latitude: 16.48969650<br>Longitude: 99.51087952<br>Provider: PEA,#icon-1899-DB4436-labelson,25 kW,ตำบล ในเมือง อำเภอเมืองกำแพงเพชร กำแพงเพชร 62000 PEA VOLTA กำแพงเพชร,16.48969650,99.51087952,PEA,"
            99.51087952,16.4896965,0
          "
ลาดยาว,Power: 25 kW<br>Description: 1072 ตำบล ลาดยาว อำเภอลาดยาว นครสวรรค์ 60150 PEA VOLTA ลาดยาว<br>Latitude: 15.75485039<br>Longitude: 99.77091217<br>Provider: PEA,#icon-1899-DB4436-labelson,25 kW,1072 ตำบล ลาดยาว อำเภอลาดยาว นครสวรรค์ 60150 PEA VOLTA ลาดยาว,15.75485039,99.77091217,PEA,"
            99.77091217,15.75485039,0
          "
สุไหงโก-ลก,"Power: 120 kW<br>Description: 831, ถนนประชาวิวัฒน์, ตำบลสุไหงโก-ลก อำเภอสุไหงโก-ลก จังหวัดนราธิวาส PEA VOLTA สุไหงโก-ลก<br>Latitude: 6.02049112<br>Longitude: 101.94438934<br>Provider: PEA",#icon-1899-DB4436-labelson,120 kW,"831, ถนนประชาวิวัฒน์, ตำบลสุไหงโก-ลก อำเภอสุไหงโก-ลก จังหวัดนราธิวาส PEA VOLTA สุไหงโก-ลก",6.02049112,101.94438934,PEA,"
            101.94438934,6.02049112,0
          "
สิชล,Power: 25 kW<br>Description: ตำบล ทุ่งปรัง อำเภอ สิชล นครศรีธรรมราช 80120 PEA VOLTA สิชล<br>Latitude: 8.97097492<br>Longitude: 99.89410400<br>Provider: PEA,#icon-1899-DB4436-labelson,25 kW,ตำบล ทุ่งปรัง อำเภอ สิชล นครศรีธรรมราช 80120 PEA VOLTA สิชล,8.97097492,99.89410400,PEA,"
            99.894104,8.97097492,0
          "
คาลเท็กซ์ เทิง,Power: 120 kW<br>Description: 216 ตำบล เวียง อำเภอ เทิง เชียงราย 57160 PEA VOLTA คาลเท็กซ์ เทิง<br>Latitude: 19.69166946<br>Longitude: 100.16025543<br>Provider: PEA,#icon-1899-DB4436-labelson,120 kW,216 ตำบล เวียง อำเภอ เทิง เชียงราย 57160 PEA VOLTA คาลเท็กซ์ เทิง,19.69166946,100.16025543,PEA,"
            100.16025543,19.69166946,0
          "
นครสวรรค์,Power: 25 kW<br>Description: ตำบลปากน้ำโพ อำเภอเมืองนครสวรรค์ นครสวรรค์ 60000 PEA VOLTA นครสวรรค์<br>Latitude: 15.70951939<br>Longitude: 100.11528015<br>Provider: PEA,#icon-1899-DB4436-labelson,25 kW,ตำบลปากน้ำโพ อำเภอเมืองนครสวรรค์ นครสวรรค์ 60000 PEA VOLTA นครสวรรค์,15.70951939,100.11528015,PEA,"
            100.11528015,15.70951939,0
          "
ปากพนัง,Power: 25 kW<br>Description: ตำบล ปากพนัง อำเภอ ปากพนัง นครศรีธรรมราช 80140 PEA VOLTA ปากพนัง<br>Latitude: 8.33770275<br>Longitude: 100.20203400<br>Provider: PEA,#icon-1899-DB4436-labelson,25 kW,ตำบล ปากพนัง อำเภอ ปากพนัง นครศรีธรรมราช 80140 PEA VOLTA ปากพนัง,8.33770275,100.20203400,PEA,"
            100.202034,8.33770275,0
          "
โรงพยาบาลพริ้นซ์ ศรีสะเกษ,Power: 120 kW<br>Description: ตำบล หญ้าปล้อง อำเภอเมืองศรีสะเกษ ศรีสะเกษ 33000 PEA VOLTA โรงพยาบาลพริ้นซ์ ศรีสะเกษ<br>Latitude: 15.12257767<br>Longitude: 104.30356598<br>Provider: PEA,#icon-1899-DB4436-labelson,120 kW,ตำบล หญ้าปล้อง อำเภอเมืองศรีสะเกษ ศรีสะเกษ 33000 PEA VOLTA โรงพยาบาลพริ้นซ์ ศรีสะเกษ,15.12257767,104.30356598,PEA,"
            104.30356598,15.12257767,0
          "
โรงแรมริเวอร์ทรีรีสอร์ท เชียงคาน,"Power: 120 kW<br>Description: Chiangkhan-Talee, ตำบล เชียงคาน อำเภอ เชียงคาน เลย PEA VOLTA โรงแรมริเวอร์ทรีรีสอร์ท เชียงคาน<br>Latitude: 17.89175415<br>Longitude: 101.64338684<br>Provider: PEA",#icon-1899-DB4436-labelson,120 kW,"Chiangkhan-Talee, ตำบล เชียงคาน อำเภอ เชียงคาน เลย PEA VOLTA โรงแรมริเวอร์ทรีรีสอร์ท เชียงคาน",17.89175415,101.64338684,PEA,"
            101.64338684,17.89175415,0
          "
หนองบัว,Power: 25 kW<br>Description: ตำบล หนองกลับ อำเภอ หนองบัว นครสวรรค์ 60110 PEA VOLTA หนองบัว<br>Latitude: 15.86330128<br>Longitude: 100.62041473<br>Provider: PEA,#icon-1899-DB4436-labelson,25 kW,ตำบล หนองกลับ อำเภอ หนองบัว นครสวรรค์ 60110 PEA VOLTA หนองบัว,15.86330128,100.62041473,PEA,"
            100.62041473,15.86330128,0
          "
ทุ่งสง,Power: 25 kW<br>Description: ตำบล ชะมาย อำเภอทุ่งสง นครศรีธรรมราช PEA VOLTA ทุ่งสง<br>Latitude: 8.13296700<br>Longitude: 99.67276001<br>Provider: PEA,#icon-1899-DB4436-labelson,25 kW,ตำบล ชะมาย อำเภอทุ่งสง นครศรีธรรมราช PEA VOLTA ทุ่งสง,8.13296700,99.67276001,PEA,"
            99.67276001,8.132967,0
          "
คาลเท็กซ์ ชะอวด,Power: 120 kW<br>Description: 28/2 หมู่ที่ 1 ต.เขาพระทอง อ.ชะอวด จ.นครศรีธรรมราช PEA VOLTA คาลเท็กซ์ ชะอวด<br>Latitude: 7.96088219<br>Longitude: 99.91290283<br>Provider: PEA,#icon-1899-DB4436-labelson,120 kW,28/2 หมู่ที่ 1 ต.เขาพระทอง อ.ชะอวด จ.นครศรีธรรมราช PEA VOLTA คาลเท็กซ์ ชะอวด,7.96088219,99.91290283,PEA,"
            99.91290283,7.96088219,0
          "
บางจาก เมืองอุบลราชธานี (ขามใหญ่),Power: 120 kW<br>Description: 234 ม.26 ต ตำบล ขามใหญ่ อ.เมือง อุบลราชธานี 34000 PEA VOLTA บางจาก เมืองอุบลราชธานี 3 (ขามใหญ่)<br>Latitude: 15.29936886<br>Longitude: 104.83710480<br>Provider: PEA,#icon-1899-DB4436-labelson,120 kW,234 ม.26 ต ตำบล ขามใหญ่ อ.เมือง อุบลราชธานี 34000 PEA VOLTA บางจาก เมืองอุบลราชธานี 3 (ขามใหญ่),15.29936886,104.83710480,PEA,"
            104.8371048,15.29936886,0
          "
เขตนครศรีธรรมราช,Power: 120 kW<br>Description: 167 ถนนสายเอเซีย ตำบลนาสาร อำเภอพระพรหม จังหวัดนครศรีธรรมราช PEA VOLTA เขตนครศรีธรรมราช<br>Latitude: 8.35619545<br>Longitude: 99.91693115<br>Provider: PEA,#icon-1899-DB4436-labelson,120 kW,167 ถนนสายเอเซีย ตำบลนาสาร อำเภอพระพรหม จังหวัดนครศรีธรรมราช PEA VOLTA เขตนครศรีธรรมราช,8.35619545,99.91693115,PEA,"
            99.91693115,8.35619545,0
          "
อู่เชิดชัย เมืองนครราชสีมา,Power: 300 kW<br>Description: 1069 ถนนมิตรภาพ ตำบลในเมือง อำเภอเมืองนครราชสีมา จังหวัดนครราชสีมา 30000 PEA VOLTA อู่เชิดชัย เมืองนครราชสีมา<br>Latitude: 14.96187401<br>Longitude: 102.06191254<br>Provider: PEA,#icon-1899-DB4436-labelson,300 kW,1069 ถนนมิตรภาพ ตำบลในเมือง อำเภอเมืองนครราชสีมา จังหวัดนครราชสีมา 30000 PEA VOLTA อู่เชิดชัย เมืองนครราชสีมา,14.96187401,102.06191254,PEA,"
            102.06191254,14.96187401,0
          "
บางจาก เมืองนครศรีธรรมราช (นาทราย),Power: 120 kW<br>Description: ตำบล ท่างิ้ว อำเภอเมืองนครศรีธรรมราช นครศรีธรรมราช 80280 PEA VOLTA บางจาก เมืองนครศรีธรรมราช 2 (นาทราย)<br>Latitude: 8.48398018<br>Longitude: 99.92530823<br>Provider: PEA,#icon-1899-DB4436-labelson,120 kW,ตำบล ท่างิ้ว อำเภอเมืองนครศรีธรรมราช นครศรีธรรมราช 80280 PEA VOLTA บางจาก เมืองนครศรีธรรมราช 2 (นาทราย),8.48398018,99.92530823,PEA,"
            99.92530823,8.48398018,0
          "
คาลเท็กซ์ เมืองนครศรีธรรมราช,"Power: 120 kW<br>Description: 154/2 หมู่ 1 ตำบลท่างิ้ว อำเภอเมืองนครศรีธรรมราช, นครศรีธรรมราช, 80280 PEA VOLTA คาลเท็กซ์ เมืองนครศรีธรรมราช<br>Latitude: 8.48549271<br>Longitude: 99.92604828<br>Provider: PEA",#icon-1899-DB4436-labelson,120 kW,"154/2 หมู่ 1 ตำบลท่างิ้ว อำเภอเมืองนครศรีธรรมราช, นครศรีธรรมราช, 80280 PEA VOLTA คาลเท็กซ์ เมืองนครศรีธรรมราช",8.48549271,99.92604828,PEA,"
            99.92604828,8.48549271,0
          "
คาลเท็กซ์ นาแก,Power: 120 kW<br>Description: 550 หมู่ 4 ตำบล นาแก อำเภอ นาแก นครพนม 48130 PEA VOLTA คาลเท็กซ์ นาแก<br>Latitude: 16.95018005<br>Longitude: 104.50267029<br>Provider: PEA,#icon-1899-DB4436-labelson,120 kW,550 หมู่ 4 ตำบล นาแก อำเภอ นาแก นครพนม 48130 PEA VOLTA คาลเท็กซ์ นาแก,16.95018005,104.50267029,PEA,"
            104.50267029,16.95018005,0
          "
บางจาก หาดใหญ่ (คอหงส์),Power: 120 kW<br>Description: 497/19 ถนนนวลแก้วอุทิศ ตำบลคอหงส์ อำเภอหาดใหญ่ จ.สงขลา 90110 PEA VOLTA บางจาก หาดใหญ่ 2 (คอหงส์)<br>Latitude: 7.02998543<br>Longitude: 100.49954224<br>Provider: PEA,#icon-1899-DB4436-labelson,120 kW,497/19 ถนนนวลแก้วอุทิศ ตำบลคอหงส์ อำเภอหาดใหญ่ จ.สงขลา 90110 PEA VOLTA บางจาก หาดใหญ่ 2 (คอหงส์),7.02998543,100.49954224,PEA,"
            100.49954224,7.02998543,0
          "
บางจาก วิหารแดง,Power: 120 kW<br>Description: 95 ม.4 ถ. สุวรรณศร ต.บ้านลำ อำเภอวิหารแดง สระบุรี 18150 PEA VOLTA บางจาก วิหารแดง<br>Latitude: 14.37963867<br>Longitude: 100.95669556<br>Provider: PEA,#icon-1899-DB4436-labelson,120 kW,95 ม.4 ถ. สุวรรณศร ต.บ้านลำ อำเภอวิหารแดง สระบุรี 18150 PEA VOLTA บางจาก วิหารแดง,14.37963867,100.95669556,PEA,"
            100.95669556,14.37963867,0
          "
7-11 เมืองนครพนม,Power: 120 kW<br>Description: 197 ศรีเทพ ตำบล ในเมือง อำเภอเมืองนครพนม นครพนม 48000 PEA VOLTA 7-Eleven เมืองนครพนม<br>Latitude: 17.39771652<br>Longitude: 104.78907776<br>Provider: PEA,#icon-1899-DB4436-labelson,120 kW,197 ศรีเทพ ตำบล ในเมือง อำเภอเมืองนครพนม นครพนม 48000 PEA VOLTA 7-Eleven เมืองนครพนม,17.39771652,104.78907776,PEA,"
            104.78907776,17.39771652,0
          "
คาลเท็กซ์ เมืองนครนายก,"Power: 120 kW<br>Description: Hwy 3049, Sarika, Mueang Nakhon Nayok District, Nakhon Nayok 26000 PEA VOLTA คาลเท็กซ์ เมืองนครนายก<br>Latitude: 14.26997185<br>Longitude: 101.27327728<br>Provider: PEA",#icon-1899-DB4436-labelson,120 kW,"Hwy 3049, Sarika, Mueang Nakhon Nayok District, Nakhon Nayok 26000 PEA VOLTA คาลเท็กซ์ เมืองนครนายก",14.26997185,101.27327728,PEA,"
            101.27327728,14.26997185,0
          "
คาลเท็กซ์ นากลาง,Power: 120 kW<br>Description: โนนแดง ตำบล นากลาง อำเภอ นากลาง หนองบัวลำภู 39170 PEA VOLTA คาลเท็กซ์ นากลาง<br>Latitude: 17.29247856<br>Longitude: 102.24264526<br>Provider: PEA,#icon-1899-DB4436-labelson,120 kW,โนนแดง ตำบล นากลาง อำเภอ นากลาง หนองบัวลำภู 39170 PEA VOLTA คาลเท็กซ์ นากลาง,17.29247856,102.24264526,PEA,"
            102.24264526,17.29247856,0
          "
คาลเท็กซ์ วังจันทร์,Power: 120 kW<br>Description: ตำบล ชุมแสง อำเภอวังจันทร์ ระยอง 21210 PEA VOLTA คาลเท็กซ์ วังจันทร์<br>Latitude: 12.92071629<br>Longitude: 101.52860260<br>Provider: PEA,#icon-1899-DB4436-labelson,120 kW,ตำบล ชุมแสง อำเภอวังจันทร์ ระยอง 21210 PEA VOLTA คาลเท็กซ์ วังจันทร์,12.92071629,101.52860260,PEA,"
            101.5286026,12.92071629,0
          "
บางจาก ถลาง (ไม้ขาว),Power: 120 kW<br>Description: ตำบล ไม้ขาว อำเภอถลาง ภูเก็ต 83110 PEA VOLTA บางจาก ถลาง 2 (ไม้ขาว)<br>Latitude: 8.17181110<br>Longitude: 98.29897308<br>Provider: PEA,#icon-1899-DB4436-labelson,120 kW,ตำบล ไม้ขาว อำเภอถลาง ภูเก็ต 83110 PEA VOLTA บางจาก ถลาง 2 (ไม้ขาว),8.17181110,98.29897308,PEA,"
            98.29897308,8.1718111,0
          "
คาลเท็กซ์ บ้านค่าย,Power: 120 kW<br>Description: 15 หมู่ 2 ตำบล บางบุตร อำเภอบ้านค่าย ระยอง 21120 PEA VOLTA คาลเท็กซ์ บ้านค่าย<br>Latitude: 12.80512524<br>Longitude: 101.30152893<br>Provider: PEA,#icon-1899-DB4436-labelson,120 kW,15 หมู่ 2 ตำบล บางบุตร อำเภอบ้านค่าย ระยอง 21120 PEA VOLTA คาลเท็กซ์ บ้านค่าย,12.80512524,101.30152893,PEA,"
            101.30152893,12.80512524,0
          "
คาลเท็กซ์ คุระบุรี,Power: 120 kW<br>Description: 69/3 หมู่ 3 ตำบลคุระ อำเภอ คุระบุรี พังงา 82150 PEA VOLTA คาลเท็กซ์ คุระบุรี<br>Latitude: 9.22546864<br>Longitude: 98.38592529<br>Provider: PEA,#icon-1899-DB4436-labelson,120 kW,69/3 หมู่ 3 ตำบลคุระ อำเภอ คุระบุรี พังงา 82150 PEA VOLTA คาลเท็กซ์ คุระบุรี,9.22546864,98.38592529,PEA,"
            98.38592529,9.22546864,0
          "
เชลล์ ปลวกแดง,Power: 120 kW<br>Description: 432 หมู่5 ตำบล แม่น้ำคู้ อำเภอปลวกแดง ระยอง 21140 PEA VOLTA เชลล์ ปลวกแดง<br>Latitude: 12.92553234<br>Longitude: 101.24941254<br>Provider: PEA,#icon-1899-DB4436-labelson,120 kW,432 หมู่5 ตำบล แม่น้ำคู้ อำเภอปลวกแดง ระยอง 21140 PEA VOLTA เชลล์ ปลวกแดง,12.92553234,101.24941254,PEA,"
            101.24941254,12.92553234,0
          "
จุน,Power: 25 kW<br>Description: ตำบล ห้วยข้าวก่ำ อำเภอ จุน พะเยา 56150 PEA VOLTA จุน<br>Latitude: 19.34420776<br>Longitude: 100.13085938<br>Provider: PEA,#icon-1899-DB4436-labelson,25 kW,ตำบล ห้วยข้าวก่ำ อำเภอ จุน พะเยา 56150 PEA VOLTA จุน,19.34420776,100.13085938,PEA,"
            100.13085938,19.34420776,0
          "
บางจาก ละแม (สวนแตง),Power: 120 kW<br>Description: ต.ละแม อ.ละแม จ.ชุมพร 86170 PEA VOLTA บางจาก ละแม 2 (สวนแตง)<br>Latitude: 9.74022961<br>Longitude: 99.10220337<br>Provider: PEA,#icon-1899-DB4436-labelson,120 kW,ต.ละแม อ.ละแม จ.ชุมพร 86170 PEA VOLTA บางจาก ละแม 2 (สวนแตง),9.74022961,99.10220337,PEA,"
            99.10220337,9.74022961,0
          "
เชียงคำ,Power: 25 kW<br>Description: ตำบล หย่วน อำเภอ เชียงคำ พะเยา PEA VOLTA เชียงคำ<br>Latitude: 19.52779770<br>Longitude: 100.31149292<br>Provider: PEA,#icon-1899-DB4436-labelson,25 kW,ตำบล หย่วน อำเภอ เชียงคำ พะเยา PEA VOLTA เชียงคำ,19.52779770,100.31149292,PEA,"
            100.31149292,19.5277977,0
          "
บางจาก ทุ่งตะโก,Power: 120 kW<br>Description: 29 ตำบลทุ่งตะไคร อำเภอทุ่งตะโก ชุมพร 86220 PEA VOLTA บางจาก ทุ่งตะโก<br>Latitude: 10.15501881<br>Longitude: 99.09619141<br>Provider: PEA,#icon-1899-DB4436-labelson,120 kW,29 ตำบลทุ่งตะไคร อำเภอทุ่งตะโก ชุมพร 86220 PEA VOLTA บางจาก ทุ่งตะโก,10.15501881,99.09619141,PEA,"
            99.09619141,10.15501881,0
          "
7-11 สตึก,Power: 120 kW<br>Description:  ตำบล นิคม อำเภอ สตึก บุรีรัมย์ 31150 PEA VOLTA 7-Eleven สตึก<br>Latitude: 15.29474926<br>Longitude: 103.29510498<br>Provider: PEA,#icon-1899-DB4436-labelson,120 kW, ตำบล นิคม อำเภอ สตึก บุรีรัมย์ 31150 PEA VOLTA 7-Eleven สตึก,15.29474926,103.29510498,PEA,"
            103.29510498,15.29474926,0
          "
เชียงแสน,Power: 25 kW<br>Description: ตำบล เวียง อำเภอ เชียงแสน เชียงราย 57150 PEA VOLTA เชียงแสน<br>Latitude: 20.27716637<br>Longitude: 100.08069611<br>Provider: PEA,#icon-1899-DB4436-labelson,25 kW,ตำบล เวียง อำเภอ เชียงแสน เชียงราย 57150 PEA VOLTA เชียงแสน,20.27716637,100.08069611,PEA,"
            100.08069611,20.27716637,0
          "
คาลเท็กซ์ เมืองชุมพร,Power: 120 kW<br>Description: ตำบล วิสัยเหนือ อำเภอเมืองชุมพร ชุมพร 86100 PEA VOLTA คาลเท็กซ์ เมืองชุมพร<br>Latitude: 10.35582829<br>Longitude: 99.11738586<br>Provider: PEA,#icon-1899-DB4436-labelson,120 kW,ตำบล วิสัยเหนือ อำเภอเมืองชุมพร ชุมพร 86100 PEA VOLTA คาลเท็กซ์ เมืองชุมพร,10.35582829,99.11738586,PEA,"
            99.11738586,10.35582829,0
          "
เขตลพบุรี,Power: 120 kW<br>Description: 13 ถนนพหลโยธิน ตำบลทะเลชุบศร อำเภอเมืองลพบุรี จังหวัดลพบุรี PEA VOLTA เขตลพบุรี<br>Latitude: 14.80246544<br>Longitude: 100.65340424<br>Provider: PEA,#icon-1899-DB4436-labelson,120 kW,13 ถนนพหลโยธิน ตำบลทะเลชุบศร อำเภอเมืองลพบุรี จังหวัดลพบุรี PEA VOLTA เขตลพบุรี,14.80246544,100.65340424,PEA,"
            100.65340424,14.80246544,0
          "
เอสโซ่ เมืองบุรีรัมย์,Power: 120 kW<br>Description: 74/1 ม.9 ถนน อิสาณ อำเภอเมืองบุรีรัมย์ บุรีรัมย์ 31000 PEA VOLTA เอสโซ่ เมืองบุรีรัมย์<br>Latitude: 14.98360729<br>Longitude: 103.07913208<br>Provider: PEA,#icon-1899-DB4436-labelson,120 kW,74/1 ม.9 ถนน อิสาณ อำเภอเมืองบุรีรัมย์ บุรีรัมย์ 31000 PEA VOLTA เอสโซ่ เมืองบุรีรัมย์,14.98360729,103.07913208,PEA,"
            103.07913208,14.98360729,0
          "
พาน,Power: 25 kW<br>Description: ตำบล เมืองพาน อำเภอ พาน เชียงราย PEA VOLTA พาน<br>Latitude: 19.55426979<br>Longitude: 99.73746490<br>Provider: PEA,#icon-1899-DB4436-labelson,25 kW,ตำบล เมืองพาน อำเภอ พาน เชียงราย PEA VOLTA พาน,19.55426979,99.73746490,PEA,"
            99.7374649,19.55426979,0
          "
เขมราฐ,Power: 25 kW<br>Description: อรุณประเสริฐ ตำบล เขมราฐ อำเภอ เขมราฐ อุบลราชธานี PEA VOLTA เขมราฐ<br>Latitude: 16.03849792<br>Longitude: 105.21595764<br>Provider: PEA,#icon-1899-DB4436-labelson,25 kW,อรุณประเสริฐ ตำบล เขมราฐ อำเภอ เขมราฐ อุบลราชธานี PEA VOLTA เขมราฐ,16.03849792,105.21595764,PEA,"
            105.21595764,16.03849792,0
          "
7-11 บางสะพานน้อย,Power: 120 kW<br>Description: ต.ช้างแรก อ.บางสะพานน้อย ประจวบคีรีขันธ์ PEA VOLTA 7-Eleven บางสะพานน้อย<br>Latitude: 11.07234383<br>Longitude: 99.37448883<br>Provider: PEA,#icon-1899-DB4436-labelson,120 kW,ต.ช้างแรก อ.บางสะพานน้อย ประจวบคีรีขันธ์ PEA VOLTA 7-Eleven บางสะพานน้อย,11.07234383,99.37448883,PEA,"
            99.37448883,11.07234383,0
          "
เลิงนกทา,Power: 25 kW<br>Description: สามแยก อำเภอ เลิงนกทา ยโสธร 35120 PEA VOLTA เลิงนกทา<br>Latitude: 16.20137787<br>Longitude: 104.54438782<br>Provider: PEA,#icon-1899-DB4436-labelson,25 kW,สามแยก อำเภอ เลิงนกทา ยโสธร 35120 PEA VOLTA เลิงนกทา,16.20137787,104.54438782,PEA,"
            104.54438782,16.20137787,0
          "
คาลเท็กซ์ บางระกำ,"Power: 120 kW<br>Description: 59 หมู่ 2 ต บ่อทอง อ บางระกำ, พิษณุโลก, 65140 PEA VOLTA คาลเท็กซ์ บางระกำ<br>Latitude: 16.63413048<br>Longitude: 100.14861298<br>Provider: PEA",#icon-1899-DB4436-labelson,120 kW,"59 หมู่ 2 ต บ่อทอง อ บางระกำ, พิษณุโลก, 65140 PEA VOLTA คาลเท็กซ์ บางระกำ",16.63413048,100.14861298,PEA,"
            100.14861298,16.63413048,0
          "
เขตเพชรบุรี,Power: 120 kW<br>Description: 86 หมู่ 5 ถนนเพชรบุรี ตำบลโพไร่หวาน อำเภอเมืองเพชรบุรี จังหวัดเพชรบุรี 76000 PEA VOLTA เขตเพชรบุรี<br>Latitude: 13.06008434<br>Longitude: 99.98253632<br>Provider: PEA,#icon-1899-DB4436-labelson,120 kW,86 หมู่ 5 ถนนเพชรบุรี ตำบลโพไร่หวาน อำเภอเมืองเพชรบุรี จังหวัดเพชรบุรี 76000 PEA VOLTA เขตเพชรบุรี,13.06008434,99.98253632,PEA,"
            99.98253632,13.06008434,0
          "
คาลเท็กซ์ พระทองคำ,Power: 120 kW<br>Description: 426 1 ตำบล สระพระ อำเภอ พระทองคำ นครราชสีมา 30220 PEA VOLTA คาลเท็กซ์ พระทองคำ<br>Latitude: 15.30297756<br>Longitude: 101.97544098<br>Provider: PEA,#icon-1899-DB4436-labelson,120 kW,426 1 ตำบล สระพระ อำเภอ พระทองคำ นครราชสีมา 30220 PEA VOLTA คาลเท็กซ์ พระทองคำ,15.30297756,101.97544098,PEA,"
            101.97544098,15.30297756,0
          "
อุบลราชธานี,Power: 25 kW<br>Description: อำเภอเมืองอุบลราชธานี อุบลราชธานี PEA VOLTA อุบลราชธานี 2<br>Latitude: 15.27339268<br>Longitude: 104.85026550<br>Provider: PEA,#icon-1899-DB4436-labelson,25 kW,อำเภอเมืองอุบลราชธานี อุบลราชธานี PEA VOLTA อุบลราชธานี 2,15.27339268,104.85026550,PEA,"
            104.8502655,15.27339268,0
          "
เอสโซ่ เขาย้อย,Power: 120 kW<br>Description: 168 หมู่ที่ 3 ถนนเพชรเกษม ตำบลห้วยโรง อำเภอเขาย้อย จังหวัดเพชรบุรี 76140 PEA VOLTA เอสโซ่ เขาย้อย<br>Latitude: 13.30309486<br>Longitude: 99.82516479<br>Provider: PEA,#icon-1899-DB4436-labelson,120 kW,168 หมู่ที่ 3 ถนนเพชรเกษม ตำบลห้วยโรง อำเภอเขาย้อย จังหวัดเพชรบุรี 76140 PEA VOLTA เอสโซ่ เขาย้อย,13.30309486,99.82516479,PEA,"
            99.82516479,13.30309486,0
          "
เขตนครราชสีมา,Power: 120 kW<br>Description: ตำบล บ้านใหม่ อำเภอเมืองนครราชสีมา นครราชสีมา 30000 PEA VOLTA เขตนครราชสีมา<br>Latitude: 14.94853401<br>Longitude: 102.01602173<br>Provider: PEA,#icon-1899-DB4436-labelson,120 kW,ตำบล บ้านใหม่ อำเภอเมืองนครราชสีมา นครราชสีมา 30000 PEA VOLTA เขตนครราชสีมา,14.94853401,102.01602173,PEA,"
            102.01602173,14.94853401,0
          "
PEA_Roming,Power: 50 kW<br>Description: ทดสอบระบบ roaming ไม่เปิดให้บริการ PEA_Roming<br>Latitude: 13.72967148<br>Longitude: 100.77614594<br>Provider: PEA,#icon-1899-DB4436-labelson,50 kW,ทดสอบระบบ roaming ไม่เปิดให้บริการ PEA_Roming,13.72967148,100.77614594,PEA,"
            100.77614594,13.72967148,0
          "
บางจาก จอมบึง,"Power: 120 kW<br>Description: 41, ตำบล จอมบึง จอมบึง, ราชบุรี PEA VOLTA บางจาก จอมบึง<br>Latitude: 13.62552261<br>Longitude: 99.61380768<br>Provider: PEA",#icon-1899-DB4436-labelson,120 kW,"41, ตำบล จอมบึง จอมบึง, ราชบุรี PEA VOLTA บางจาก จอมบึง",13.62552261,99.61380768,PEA,"
            99.61380768,13.62552261,0
          "
เพชรบูรณ์,Power: 25 kW<br>Description: ถนน สนามชัย ตำบล สะเดียง อำเภอเมืองเพชรบูรณ์ เพชรบูรณ์ PEA VOLTA เพชรบูรณ์<br>Latitude: 16.42377472<br>Longitude: 101.16255188<br>Provider: PEA,#icon-1899-DB4436-labelson,25 kW,ถนน สนามชัย ตำบล สะเดียง อำเภอเมืองเพชรบูรณ์ เพชรบูรณ์ PEA VOLTA เพชรบูรณ์,16.42377472,101.16255188,PEA,"
            101.16255188,16.42377472,0
          "
สุวรรณภูมิ,Power: 25 kW<br>Description: ตำบล สระคู อำเภอ สุวรรณภูมิ ร้อยเอ็ด PEA VOLTA สุวรรณภูมิ<br>Latitude: 15.61715126<br>Longitude: 103.79020691<br>Provider: PEA,#icon-1899-DB4436-labelson,25 kW,ตำบล สระคู อำเภอ สุวรรณภูมิ ร้อยเอ็ด PEA VOLTA สุวรรณภูมิ,15.61715126,103.79020691,PEA,"
            103.79020691,15.61715126,0
          "
วาปีปทุม,Power: 25 kW<br>Description: ตำบล หนองแสง อำเภอ วาปีปทุม มหาสารคาม PEA VOLTA วาปีปทุม<br>Latitude: 15.84942913<br>Longitude: 103.37344360<br>Provider: PEA,#icon-1899-DB4436-labelson,25 kW,ตำบล หนองแสง อำเภอ วาปีปทุม มหาสารคาม PEA VOLTA วาปีปทุม,15.84942913,103.37344360,PEA,"
            103.3734436,15.84942913,0
          "
7-11 ลาดบัวหลวง,Power: 120 kW<br>Description: 340 ตำบลสามเมือง อำเภอลาดบัวหลวง จังหวัดพระนครศรีอยุธยา 13230 PEA VOLTA 7-Eleven ลาดบัวหลวง<br>Latitude: 14.15711212<br>Longitude: 100.29029083<br>Provider: PEA,#icon-1899-DB4436-labelson,120 kW,340 ตำบลสามเมือง อำเภอลาดบัวหลวง จังหวัดพระนครศรีอยุธยา 13230 PEA VOLTA 7-Eleven ลาดบัวหลวง,14.15711212,100.29029083,PEA,"
            100.29029083,14.15711212,0
          "
คาลเท็กซ์ ตะกั่วทุ่ง,Power: 120 kW<br>Description: 402 ถ. โคกกลอย-ท่านุ่น ต โคกกลอย อ ตะกั่วทุ่ง จ พังงา 82140 PEA VOLTA คาลเท็กซ์ ตะกั่วทุ่ง<br>Latitude: 8.26801205<br>Longitude: 98.33322906<br>Provider: PEA,#icon-1899-DB4436-labelson,120 kW,402 ถ. โคกกลอย-ท่านุ่น ต โคกกลอย อ ตะกั่วทุ่ง จ พังงา 82140 PEA VOLTA คาลเท็กซ์ ตะกั่วทุ่ง,8.26801205,98.33322906,PEA,"
            98.33322906,8.26801205,0
          "
ฝาง,Power: 25 kW<br>Description: ตำบล สันทราย อำเภอ ฝาง เชียงใหม่ 50110 PEA VOLTA ฝาง<br>Latitude: 19.92057610<br>Longitude: 99.20917511<br>Provider: PEA,#icon-1899-DB4436-labelson,25 kW,ตำบล สันทราย อำเภอ ฝาง เชียงใหม่ 50110 PEA VOLTA ฝาง,19.92057610,99.20917511,PEA,"
            99.20917511,19.9205761,0
          "
ลำปาง,Power: 25 kW<br>Description: ตำบล ชมพู อำเภอเมืองลำปาง ลำปาง PEA VOLTA ลำปาง<br>Latitude: 18.25030708<br>Longitude: 99.45291901<br>Provider: PEA,#icon-1899-DB4436-labelson,25 kW,ตำบล ชมพู อำเภอเมืองลำปาง ลำปาง PEA VOLTA ลำปาง,18.25030708,99.45291901,PEA,"
            99.45291901,18.25030708,0
          "
แม่อาย,Power: 25 kW<br>Description: ตำบล แม่อาย อำเภอ แม่อาย เชียงใหม่ 50280 PEA VOLTA แม่อาย<br>Latitude: 20.04159355<br>Longitude: 99.32946777<br>Provider: PEA,#icon-1899-DB4436-labelson,25 kW,ตำบล แม่อาย อำเภอ แม่อาย เชียงใหม่ 50280 PEA VOLTA แม่อาย,20.04159355,99.32946777,PEA,"
            99.32946777,20.04159355,0
          "
แคมป์สน,Power: 25 kW<br>Description: หมู่9 ตำบล แคมป์สน อำเภอเขาค้อ เพชรบูรณ์ PEA VOLTA แคมป์สน<br>Latitude: 16.75957108<br>Longitude: 101.02339172<br>Provider: PEA,#icon-1899-DB4436-labelson,25 kW,หมู่9 ตำบล แคมป์สน อำเภอเขาค้อ เพชรบูรณ์ PEA VOLTA แคมป์สน,16.75957108,101.02339172,PEA,"
            101.02339172,16.75957108,0
          "
ศูนย์การค้าอยุธยาซิตี้พาร์ค,Power: 120 kW<br>Description: เลขที่ 126 หมู่ 3 ต.คลองสวนพลู  อ.พระศรีอยุธยา 13000 PEA VOLTA ศูนย์การค้าอยุธยาซิตี้พาร์ค<br>Latitude: 14.33611012<br>Longitude: 100.60863495<br>Provider: PEA,#icon-1899-DB4436-labelson,120 kW,เลขที่ 126 หมู่ 3 ต.คลองสวนพลู  อ.พระศรีอยุธยา 13000 PEA VOLTA ศูนย์การค้าอยุธยาซิตี้พาร์ค,14.33611012,100.60863495,PEA,"
            100.60863495,14.33611012,0
          "
คาลเท็กซ์ ทับปุด,Power: 120 kW<br>Description: 37/2 ม.2 ต.บ่อแสน อ.ทับปุด จ.พังงา PEA VOLTA คาลเท็กซ์ ทับปุด<br>Latitude: 8.47618198<br>Longitude: 98.61043549<br>Provider: PEA,#icon-1899-DB4436-labelson,120 kW,37/2 ม.2 ต.บ่อแสน อ.ทับปุด จ.พังงา PEA VOLTA คาลเท็กซ์ ทับปุด,8.47618198,98.61043549,PEA,"
            98.61043549,8.47618198,0
          "
สมเด็จ,Power: 25 kW<br>Description: ตำบล สมเด็จ อำเภอ สมเด็จ กาฬสินธุ์ PEA VOLTA สมเด็จ<br>Latitude: 16.69511414<br>Longitude: 103.74997711<br>Provider: PEA,#icon-1899-DB4436-labelson,25 kW,ตำบล สมเด็จ อำเภอ สมเด็จ กาฬสินธุ์ PEA VOLTA สมเด็จ,16.69511414,103.74997711,PEA,"
            103.74997711,16.69511414,0
          "
คาลเท็กซ์ เมืองชลบุรี,Power: 120 kW<br>Description: 6/37 ซอย เทศบาลตำบลบ้านสวน 9 ตำบล บ้านสวน อำเภอเมืองชลบุรี ชลบุรี 20000 PEA VOLTA คาลเท็กซ์ เมืองชลบุรี<br>Latitude: 13.34212589<br>Longitude: 100.99552917<br>Provider: PEA,#icon-1899-DB4436-labelson,120 kW,6/37 ซอย เทศบาลตำบลบ้านสวน 9 ตำบล บ้านสวน อำเภอเมืองชลบุรี ชลบุรี 20000 PEA VOLTA คาลเท็กซ์ เมืองชลบุรี,13.34212589,100.99552917,PEA,"
            100.99552917,13.34212589,0
          "
บางจาก หนองใหญ่,Power: 120 kW<br>Description: ตำบล หนองใหญ่ อำเภอหนองใหญ่ ชลบุรี 20190 PEA VOLTA บางจาก หนองใหญ่<br>Latitude: 13.12619686<br>Longitude: 101.35947418<br>Provider: PEA,#icon-1899-DB4436-labelson,120 kW,ตำบล หนองใหญ่ อำเภอหนองใหญ่ ชลบุรี 20190 PEA VOLTA บางจาก หนองใหญ่,13.12619686,101.35947418,PEA,"
            101.35947418,13.12619686,0
          "
บางจาก เมืองชลบุรี (แสนสุข),Power: 120 kW<br>Description: 171/9 ถ. เทศบาลพัฒนา 1 ตำบลแสนสุข อำเภอเมืองชลบุรี ชลบุรี 20130 PEA VOLTA บางจาก เมืองชลบุรี 3 (แสนสุข)<br>Latitude: 13.26204395<br>Longitude: 100.94097900<br>Provider: PEA,#icon-1899-DB4436-labelson,120 kW,171/9 ถ. เทศบาลพัฒนา 1 ตำบลแสนสุข อำเภอเมืองชลบุรี ชลบุรี 20130 PEA VOLTA บางจาก เมืองชลบุรี 3 (แสนสุข),13.26204395,100.94097900,PEA,"
            100.940979,13.26204395,0
          "
บางจาก ศรีราชา (ทุ่งสุขลา),"Power: 120 kW<br>Description: 60/16 หมู่ 5 ทุ่งสุขลา, อำเภอศรีราชา ชลบุรี 20230 PEA VOLTA บางจาก ศรีราชา 2 (ทุ่งสุขลา)<br>Latitude: 13.07429123<br>Longitude: 100.92089081<br>Provider: PEA",#icon-1899-DB4436-labelson,120 kW,"60/16 หมู่ 5 ทุ่งสุขลา, อำเภอศรีราชา ชลบุรี 20230 PEA VOLTA บางจาก ศรีราชา 2 (ทุ่งสุขลา)",13.07429123,100.92089081,PEA,"
            100.92089081,13.07429123,0
          "
บางจาก ไทรโยค,Power: 120 kW<br>Description: 14 หมู่ 5 ถนนสายกาญจนบุรี-ไทรโยค ตำบลสิงห์ อำเภอเมืองกาญจนบุรี กาญจนบุรี 71150 PEA VOLTA บางจาก ไทรโยค<br>Latitude: 14.08925438<br>Longitude: 99.28090668<br>Provider: PEA,#icon-1899-DB4436-labelson,120 kW,14 หมู่ 5 ถนนสายกาญจนบุรี-ไทรโยค ตำบลสิงห์ อำเภอเมืองกาญจนบุรี กาญจนบุรี 71150 PEA VOLTA บางจาก ไทรโยค,14.08925438,99.28090668,PEA,"
            99.28090668,14.08925438,0
          "
เอสโซ่ เมืองกาญจนบุรี,Power: 120 kW<br>Description: ตำบล ท่ามะขาม อำเภอเมืองกาญจนบุรี กาญจนบุรี 71000 PEA VOLTA เอสโซ่ เมืองกาญจนบุรี<br>Latitude: 14.05166721<br>Longitude: 99.50518036<br>Provider: PEA,#icon-1899-DB4436-labelson,120 kW,ตำบล ท่ามะขาม อำเภอเมืองกาญจนบุรี กาญจนบุรี 71000 PEA VOLTA เอสโซ่ เมืองกาญจนบุรี,14.05166721,99.50518036,PEA,"
            99.50518036,14.05166721,0
          "
C2314A001A,Power: 120 kW<br>Description:  C2314A001A0<br>Latitude: 13.85178089<br>Longitude: 100.55917358<br>Provider: PEA,#icon-1899-DB4436-labelson,120 kW, C2314A001A0,13.85178089,100.55917358,PEA,"
            100.55917358,13.85178089,0
          "
สิงห์บุรี,Power: 25 kW<br>Description: 49/5 หมู่ที่ 3 ตำบล บางมัญ อำเภอเมืองสิงห์บุรี สิงห์บุรี PEA VOLTA สิงห์บุรี<br>Latitude: 14.90698147<br>Longitude: 100.40972900<br>Provider: PEA,#icon-1899-DB4436-labelson,25 kW,49/5 หมู่ที่ 3 ตำบล บางมัญ อำเภอเมืองสิงห์บุรี สิงห์บุรี PEA VOLTA สิงห์บุรี,14.90698147,100.40972900,PEA,"
            100.409729,14.90698147,0
          "
คาลเท็กซ์ พนัสนิคม,Power: 120 kW<br>Description: 30/2 หมู่ที่ 11 ตำบล ไร่หลักทอง อำเภอพนัสนิคม ชลบุรี 20140 PEA VOLTA คาลเท็กซ์ พนัสนิคม<br>Latitude: 13.46545219<br>Longitude: 101.17270660<br>Provider: PEA,#icon-1899-DB4436-labelson,120 kW,30/2 หมู่ที่ 11 ตำบล ไร่หลักทอง อำเภอพนัสนิคม ชลบุรี 20140 PEA VOLTA คาลเท็กซ์ พนัสนิคม,13.46545219,101.17270660,PEA,"
            101.1727066,13.46545219,0
          "
บางจาก สูงเนิน,Power: 120 kW<br>Description: ถ. มิตรภาพ ตำบล นากลาง อำเภอสูงเนิน นครราชสีมา 30380 PEA VOLTA บางจาก สูงเนิน<br>Latitude: 14.90173149<br>Longitude: 101.90744019<br>Provider: PEA,#icon-1899-DB4436-labelson,120 kW,ถ. มิตรภาพ ตำบล นากลาง อำเภอสูงเนิน นครราชสีมา 30380 PEA VOLTA บางจาก สูงเนิน,14.90173149,101.90744019,PEA,"
            101.90744019,14.90173149,0
          "
บางจาก เมืองเชียงใหม่ (แม่เหียะ),"Power: 120 kW<br>Description: 128, หมู่ที่ 5 ต.แม่เหียะ อ.เมือง  จ.เชียงใหม่ 50100 PEA VOLTA บางจาก เมืองเชียงใหม่ (แม่เหียะ)<br>Latitude: 18.74054527<br>Longitude: 98.96505737<br>Provider: PEA",#icon-1899-DB4436-labelson,120 kW,"128, หมู่ที่ 5 ต.แม่เหียะ อ.เมือง  จ.เชียงใหม่ 50100 PEA VOLTA บางจาก เมืองเชียงใหม่ (แม่เหียะ)",18.74054527,98.96505737,PEA,"
            98.96505737,18.74054527,0
          "
คาลเท็กซ์ เมืองเชียงราย (รอบเวียง),Power: 120 kW<br>Description: 57/20 หมู่ 22 ต.รอบเวียง อ.เมืองเชียงราย จ.เชียงราย 57000 PEA VOLTA คาลเท็กซ์ เมืองเชียงราย (รอบเวียง)<br>Latitude: 19.86104202<br>Longitude: 99.78424072<br>Provider: PEA,#icon-1899-DB4436-labelson,120 kW,57/20 หมู่ 22 ต.รอบเวียง อ.เมืองเชียงราย จ.เชียงราย 57000 PEA VOLTA คาลเท็กซ์ เมืองเชียงราย (รอบเวียง),19.86104202,99.78424072,PEA,"
            99.78424072,19.86104202,0
          "
คาลเท็กซ์ เมืองเชียงราย (ป่าอ้อดอนไชย),Power: 120 kW<br>Description: 131 ต.ป่าอ้อดอนชัย อ.เมือง จ.เชียงราย 57000 PEA VOLTA คาลเท็กซ์ เมืองเชียงราย 2 (ป่าอ้อดอนไชย)<br>Latitude: 19.85861778<br>Longitude: 99.77441406<br>Provider: PEA,#icon-1899-DB4436-labelson,120 kW,131 ต.ป่าอ้อดอนชัย อ.เมือง จ.เชียงราย 57000 PEA VOLTA คาลเท็กซ์ เมืองเชียงราย 2 (ป่าอ้อดอนไชย),19.85861778,99.77441406,PEA,"
            99.77441406,19.85861778,0
          "
7-11 เชียงม่วน,Power: 120 kW<br>Description: ถ.เชียงม่วน-ปง ต.เชียงม่วน อ.เชียงม่วน พะเยา 56160 PEA VOLTA 7-Eleven เชียงม่วน<br>Latitude: 18.88806725<br>Longitude: 100.28584290<br>Provider: PEA,#icon-1899-DB4436-labelson,120 kW,ถ.เชียงม่วน-ปง ต.เชียงม่วน อ.เชียงม่วน พะเยา 56160 PEA VOLTA 7-Eleven เชียงม่วน,18.88806725,100.28584290,PEA,"
            100.2858429,18.88806725,0
          "
ลพบุรี,Power: 25 kW<br>Description: 13 ถนนพหลโยธิน ตำบลทะเลชุบศร อำเภอเมืองลพบุรี จังหวัดลพบุรี PEA VOLTA ลพบุรี<br>Latitude: 14.80245972<br>Longitude: 100.65296173<br>Provider: PEA,#icon-1899-DB4436-labelson,25 kW,13 ถนนพหลโยธิน ตำบลทะเลชุบศร อำเภอเมืองลพบุรี จังหวัดลพบุรี PEA VOLTA ลพบุรี,14.80245972,100.65296173,PEA,"
            100.65296173,14.80245972,0
          "
บ้านไร่,"Power: 25 kW<br>Description: 20/3 หมู่2, ตำบลบ้านบึง อำเภอบ้านไร่ จังหวัดอุทัยธานี PEA VOLTA บ้านไร่<br>Latitude: 15.08644581<br>Longitude: 99.55554962<br>Provider: PEA",#icon-1899-DB4436-labelson,25 kW,"20/3 หมู่2, ตำบลบ้านบึง อำเภอบ้านไร่ จังหวัดอุทัยธานี PEA VOLTA บ้านไร่",15.08644581,99.55554962,PEA,"
            99.55554962,15.08644581,0
          "
